[{"TimeMSK":"12:00 AM","TemperatureF":"34","Dew PointF":"30","Humidity":"78","Sea Level PressureIn":"29.75","VisibilityMPH":"6","Wind Direction":"SSE","Wind SpeedMPH":"4.5","Gust SpeedMPH":"","PrecipitationIn":"","Events":"","Conditions":"Overcast","FullMetar":"AAXX 31211 27595 42497 81602 10010 21013 39925 40073 55011 8657/ 333 86616","WindDirDegrees":"160","DateUTC\r":"1/31/16 21:00\r"},{"TimeMSK":"12:00 AM","TemperatureF":"33.8","Dew PointF":"30.2","Humidity":"87","Sea Level PressureIn":"29.71","VisibilityMPH":"-9999","Wind Direction":"South","Wind SpeedMPH":"17.9","Gust SpeedMPH":"29.1","PrecipitationIn":"N/A","Events":"","Conditions":"Clear","FullMetar":"METAR UWKD 312100Z 17008G13MPS CAVOK 01/M01 Q1006 R11/2/0050 NOSIG RMK QFE744/0992","WindDirDegrees":"170","DateUTC\r":"1/31/16 21:00\r"},{"TimeMSK":"12:30 AM","TemperatureF":"33.8","Dew PointF":"30.2","Humidity":"87","Sea Level PressureIn":"29.71","VisibilityMPH":"6.2","Wind Direction":"South","Wind SpeedMPH":"15.7","Gust SpeedMPH":"26.8","PrecipitationIn":"N/A","Events":"","Conditions":"Mostly Cloudy","FullMetar":"METAR UWKD 312130Z 17007G12MPS 9999 BKN048 01/M01 Q1006 R11/2/0050 NOSIG RMK QFE744/0992","WindDirDegrees":"170","DateUTC\r":"1/31/16 21:30\r"},{"TimeMSK":"1:00 AM","TemperatureF":"33.8","Dew PointF":"30.2","Humidity":"87","Sea Level PressureIn":"29.68","VisibilityMPH":"6.2","Wind Direction":"South","Wind SpeedMPH":"17.9","Gust SpeedMPH":"29.1","PrecipitationIn":"N/A","Events":"","Conditions":"Mostly Cloudy","FullMetar":"METAR UWKD 312200Z 17008G13MPS 9999 BKN014 01/M01 Q1005 R11/2/0050 NOSIG RMK QFE744/0992","WindDirDegrees":"170","DateUTC\r":"1/31/16 22:00\r"},{"TimeMSK":"1:30 AM","TemperatureF":"33.8","Dew PointF":"30.2","Humidity":"87","Sea Level PressureIn":"29.68","VisibilityMPH":"6.2","Wind Direction":"South","Wind SpeedMPH":"20.1","Gust SpeedMPH":"31.3","PrecipitationIn":"N/A","Events":"","Conditions":"Mostly Cloudy","FullMetar":"METAR UWKD 312230Z 18009G14MPS 9999 BKN012 01/M01 Q1005 R11/2/0050 NOSIG RMK QFE744/0992","WindDirDegrees":"180","DateUTC\r":"1/31/16 22:30\r"},{"TimeMSK":"2:00 AM","TemperatureF":"33.8","Dew PointF":"30.2","Humidity":"87","Sea Level PressureIn":"29.68","VisibilityMPH":"6.2","Wind Direction":"South","Wind SpeedMPH":"17.9","Gust SpeedMPH":"29.1","PrecipitationIn":"N/A","Events":"","Conditions":"Mostly Cloudy","FullMetar":"METAR UWKD 312300Z 18008G13MPS 9999 BKN013 01/M01 Q1005 R11/2/0050 NOSIG RMK QFE743/0991","WindDirDegrees":"180","DateUTC\r":"1/31/16 23:00\r"},{"TimeMSK":"2:30 AM","TemperatureF":"33.8","Dew PointF":"30.2","Humidity":"87","Sea Level PressureIn":"29.65","VisibilityMPH":"-9999","Wind Direction":"South","Wind SpeedMPH":"20.1","Gust SpeedMPH":"31.3","PrecipitationIn":"N/A","Events":"","Conditions":"Clear","FullMetar":"METAR UWKD 312330Z 17009G14MPS CAVOK 01/M01 Q1004 R11/2/0050 NOSIG RMK QFE743/0991","WindDirDegrees":"170","DateUTC\r":"1/31/16 23:30\r"},{"TimeMSK":"3:00 AM","TemperatureF":"33","Dew PointF":"29","Humidity":"79","Sea Level PressureIn":"29.69","VisibilityMPH":"6","Wind Direction":"SSE","Wind SpeedMPH":"4.5","Gust SpeedMPH":"","PrecipitationIn":"","Events":"","Conditions":"Overcast","FullMetar":"AAXX 01001 27595 42497 81502 10005 21017 39906 40054 55019 8657/ 333 86616 91110","WindDirDegrees":"150","DateUTC\r":"2/1/16 0:00\r"},{"TimeMSK":"3:00 AM","TemperatureF":"33.8","Dew PointF":"30.2","Humidity":"87","Sea Level PressureIn":"29.65","VisibilityMPH":"6.2","Wind Direction":"SSE","Wind SpeedMPH":"17.9","Gust SpeedMPH":"29.1","PrecipitationIn":"N/A","Events":"","Conditions":"Scattered Clouds","FullMetar":"METAR UWKD 010000Z 16008G13MPS 9999 SCT012 01/M01 Q1004 R11/2/0050 NOSIG RMK QFE743/0991","WindDirDegrees":"160","DateUTC\r":"2/1/16 0:00\r"},{"TimeMSK":"3:30 AM","TemperatureF":"32","Dew PointF":"30.2","Humidity":"93","Sea Level PressureIn":"29.62","VisibilityMPH":"6.2","Wind Direction":"SSE","Wind SpeedMPH":"20.1","Gust SpeedMPH":"31.3","PrecipitationIn":"N/A","Events":"","Conditions":"Mostly Cloudy","FullMetar":"METAR UWKD 010030Z 16009G14MPS 9999 BKN015 00/M01 Q1003 R11/2/0050 NOSIG RMK QFE742/0990","WindDirDegrees":"160","DateUTC\r":"2/1/16 0:30\r"},{"TimeMSK":"4:00 AM","TemperatureF":"32","Dew PointF":"30.2","Humidity":"93","Sea Level PressureIn":"29.62","VisibilityMPH":"6.2","Wind Direction":"SSE","Wind SpeedMPH":"15.7","Gust SpeedMPH":"26.8","PrecipitationIn":"N/A","Events":"","Conditions":"Mostly Cloudy","FullMetar":"METAR UWKD 010100Z 16007G12MPS 9999 BKN011 00/M01 Q1003 R11/2/0050 NOSIG RMK QFE742/0990","WindDirDegrees":"160","DateUTC\r":"2/1/16 1:00\r"},{"TimeMSK":"4:30 AM","TemperatureF":"32","Dew PointF":"30.2","Humidity":"93","Sea Level PressureIn":"29.65","VisibilityMPH":"6.2","Wind Direction":"South","Wind SpeedMPH":"15.7","Gust SpeedMPH":"26.8","PrecipitationIn":"N/A","Events":"","Conditions":"Mostly Cloudy","FullMetar":"METAR UWKD 010130Z 18007G12MPS 9999 BKN013 00/M01 Q1004 R11/2/0050 NOSIG RMK QFE743/0990","WindDirDegrees":"180","DateUTC\r":"2/1/16 1:30\r"},{"TimeMSK":"5:00 AM","TemperatureF":"33.8","Dew PointF":"30.2","Humidity":"87","Sea Level PressureIn":"29.65","VisibilityMPH":"6.2","Wind Direction":"South","Wind SpeedMPH":"17.9","Gust SpeedMPH":"29.1","PrecipitationIn":"N/A","Events":"","Conditions":"Mostly Cloudy","FullMetar":"METAR UWKD 010200Z 19008G13MPS 9999 BKN013 01/M01 Q1004 R11/2/0050 NOSIG RMK QFE743/0991","WindDirDegrees":"190","DateUTC\r":"2/1/16 2:00\r"},{"TimeMSK":"5:30 AM","TemperatureF":"33.8","Dew PointF":"30.2","Humidity":"87","Sea Level PressureIn":"29.65","VisibilityMPH":"6.2","Wind Direction":"South","Wind SpeedMPH":"22.4","Gust SpeedMPH":"33.6","PrecipitationIn":"N/A","Events":"","Conditions":"Mostly Cloudy","FullMetar":"METAR UWKD 010230Z 19010G15MPS 9999 BKN012 01/M01 Q1004 R11/2/0050 NOSIG RMK QFE743/0990","WindDirDegrees":"190","DateUTC\r":"2/1/16 2:30\r"},{"TimeMSK":"6:00 AM","TemperatureF":"33","Dew PointF":"29","Humidity":"78","Sea Level PressureIn":"29.68","VisibilityMPH":"6","Wind Direction":"South","Wind SpeedMPH":"4.5","Gust SpeedMPH":"","PrecipitationIn":"","Events":"","Conditions":"Overcast","FullMetar":"AAXX 01031 27595 12497 81702 10006 21018 39901 40049 55004 60002 885// 333 20004 47048 55005 88616 91111","WindDirDegrees":"170","DateUTC\r":"2/1/16 3:00\r"},{"TimeMSK":"6:00 AM","TemperatureF":"33.8","Dew PointF":"30.2","Humidity":"87","Sea Level PressureIn":"29.62","VisibilityMPH":"6.2","Wind Direction":"South","Wind SpeedMPH":"22.4","Gust SpeedMPH":"33.6","PrecipitationIn":"N/A","Events":"","Conditions":"Mostly Cloudy","FullMetar":"METAR UWKD 010300Z 19010G15MPS 9999 BKN015 01/M01 Q1003 R11/2/0050 NOSIG RMK QFE742/0990","WindDirDegrees":"190","DateUTC\r":"2/1/16 3:00\r"},{"TimeMSK":"6:30 AM","TemperatureF":"32","Dew PointF":"30.2","Humidity":"93","Sea Level PressureIn":"29.62","VisibilityMPH":"6.2","Wind Direction":"South","Wind SpeedMPH":"15.7","Gust SpeedMPH":"26.8","PrecipitationIn":"N/A","Events":"","Conditions":"Mostly Cloudy","FullMetar":"METAR UWKD 010330Z 18007G12MPS 9999 BKN011 00/M01 Q1003 R11/2/0050 NOSIG RMK QFE742/0989","WindDirDegrees":"180","DateUTC\r":"2/1/16 3:30\r"},{"TimeMSK":"7:00 AM","TemperatureF":"33.8","Dew PointF":"30.2","Humidity":"87","Sea Level PressureIn":"29.62","VisibilityMPH":"6.2","Wind Direction":"South","Wind SpeedMPH":"20.1","Gust SpeedMPH":"31.3","PrecipitationIn":"N/A","Events":"","Conditions":"Mostly Cloudy","FullMetar":"METAR UWKD 010400Z 17009G14MPS 9999 BKN012 01/M01 Q1003 R11/2/0050 NOSIG RMK QFE742/0989","WindDirDegrees":"170","DateUTC\r":"2/1/16 4:00\r"},{"TimeMSK":"7:30 AM","TemperatureF":"33.8","Dew PointF":"30.2","Humidity":"87","Sea Level PressureIn":"29.62","VisibilityMPH":"6.2","Wind Direction":"South","Wind SpeedMPH":"20.1","Gust SpeedMPH":"31.3","PrecipitationIn":"N/A","Events":"","Conditions":"Mostly Cloudy","FullMetar":"METAR UWKD 010430Z 17009G14MPS 9999 BKN011 01/M01 Q1003 R11/2/0050 NOSIG RMK QFE742/0989","WindDirDegrees":"170","DateUTC\r":"2/1/16 4:30\r"},{"TimeMSK":"8:00 AM","TemperatureF":"33.8","Dew PointF":"32","Humidity":"93","Sea Level PressureIn":"29.59","VisibilityMPH":"5.6","Wind Direction":"South","Wind SpeedMPH":"22.4","Gust SpeedMPH":"33.6","PrecipitationIn":"N/A","Events":"Rain-Snow","Conditions":"Light Snow","FullMetar":"METAR UWKD 010500Z 18010G15MPS 9000 -SNRA DRSN OVC012 01/M00 Q1002 R11/2/0050 NOSIG RMK QFE742/0989","WindDirDegrees":"180","DateUTC\r":"2/1/16 5:00\r"},{"TimeMSK":"8:30 AM","TemperatureF":"33.8","Dew PointF":"32","Humidity":"93","Sea Level PressureIn":"29.59","VisibilityMPH":"6.2","Wind Direction":"South","Wind SpeedMPH":"22.4","Gust SpeedMPH":"33.6","PrecipitationIn":"N/A","Events":"Snow","Conditions":"Low Drifting Snow","FullMetar":"METAR UWKD 010530Z 17010G15MPS 9999 DRSN OVC011 01/M00 Q1002 R11/2/0050 NOSIG RMK QFE741/0989","WindDirDegrees":"170","DateUTC\r":"2/1/16 5:30\r"},{"TimeMSK":"9:00 AM","TemperatureF":"33","Dew PointF":"30","Humidity":"84","Sea Level PressureIn":"29.63","VisibilityMPH":"2","Wind Direction":"SSE","Wind SpeedMPH":"4.5","Gust SpeedMPH":"","PrecipitationIn":"","Events":"Snow","Conditions":"Light Snow","FullMetar":"AAXX 01061 27595 41496 81602 10006 21011 39886 40033 56015 77172 8872/ 333 88712","WindDirDegrees":"160","DateUTC\r":"2/1/16 6:00\r"},{"TimeMSK":"9:00 AM","TemperatureF":"33.8","Dew PointF":"32","Humidity":"93","Sea Level PressureIn":"29.59","VisibilityMPH":"-9999","Wind Direction":"South","Wind SpeedMPH":"20.1","Gust SpeedMPH":"31.3","PrecipitationIn":"N/A","Events":"Rain-Snow","Conditions":"Light Snow Showers","FullMetar":"METAR UWKD 010600Z 18009G14MPS 4800 -SHSNRA DRSN BKN010CB 01/00 Q1002 R11/6/0245 NOSIG RMK QFE741/0989","WindDirDegrees":"180","DateUTC\r":"2/1/16 6:00\r"},{"TimeMSK":"9:30 AM","TemperatureF":"33.8","Dew PointF":"32","Humidity":"93","Sea Level PressureIn":"29.59","VisibilityMPH":"6.2","Wind Direction":"South","Wind SpeedMPH":"20.1","Gust SpeedMPH":"31.3","PrecipitationIn":"N/A","Events":"Rain-Snow","Conditions":"Light Snow Showers","FullMetar":"METAR UWKD 010630Z 18009G14MPS 9999 -SHSNRA BKN010CB 01/00 Q1002 R11/6/0245 NOSIG RMK QFE741/0988","WindDirDegrees":"180","DateUTC\r":"2/1/16 6:30\r"},{"TimeMSK":"10:00 AM","TemperatureF":"33.8","Dew PointF":"32","Humidity":"93","Sea Level PressureIn":"29.59","VisibilityMPH":"3.1","Wind Direction":"South","Wind SpeedMPH":"22.4","Gust SpeedMPH":"33.6","PrecipitationIn":"N/A","Events":"Rain-Snow","Conditions":"Light Snow Showers","FullMetar":"METAR UWKD 010700Z 18010G15MPS 5000 -SHSNRA BKN010CB 01/00 Q1002 R11/6/0245 NOSIG RMK QFE741/0989","WindDirDegrees":"180","DateUTC\r":"2/1/16 7:00\r"},{"TimeMSK":"10:30 AM","TemperatureF":"33.8","Dew PointF":"32","Humidity":"93","Sea Level PressureIn":"29.59","VisibilityMPH":"6.2","Wind Direction":"South","Wind SpeedMPH":"20.1","Gust SpeedMPH":"31.3","PrecipitationIn":"N/A","Events":"","Conditions":"Mostly Cloudy","FullMetar":"METAR UWKD 010730Z 18009G14MPS 9999 BKN009CB 01/00 Q1002 R11/6/0245 NOSIG RMK QFE741/0988","WindDirDegrees":"180","DateUTC\r":"2/1/16 7:30\r"},{"TimeMSK":"11:00 AM","TemperatureF":"33.8","Dew PointF":"32","Humidity":"93","Sea Level PressureIn":"29.59","VisibilityMPH":"6.2","Wind Direction":"South","Wind SpeedMPH":"20.1","Gust SpeedMPH":"31.3","PrecipitationIn":"N/A","Events":"","Conditions":"Mostly Cloudy","FullMetar":"METAR UWKD 010800Z 18009G14MPS 9999 BKN009CB 01/00 Q1002 R11/6/0245 NOSIG RMK QFE741/0988","WindDirDegrees":"180","DateUTC\r":"2/1/16 8:00\r"},{"TimeMSK":"11:30 AM","TemperatureF":"33.8","Dew PointF":"32","Humidity":"93","Sea Level PressureIn":"29.56","VisibilityMPH":"6.2","Wind Direction":"South","Wind SpeedMPH":"22.4","Gust SpeedMPH":"33.6","PrecipitationIn":"N/A","Events":"","Conditions":"Mostly Cloudy","FullMetar":"METAR UWKD 010830Z 17010G15MPS 9999 BKN008CB 01/00 Q1001 R11/6/0245 NOSIG RMK QFE741/0988","WindDirDegrees":"170","DateUTC\r":"2/1/16 8:30\r"},{"TimeMSK":"12:00 PM","TemperatureF":"34","Dew PointF":"31","Humidity":"85","Sea Level PressureIn":"29.61","VisibilityMPH":"6","Wind Direction":"South","Wind SpeedMPH":"6.7","Gust SpeedMPH":"","PrecipitationIn":"","Events":"","Conditions":"Partly Cloudy","FullMetar":"AAXX 01091 27595 41397 81803 10013 21005 39878 40025 58007 70272 8872/ 333 88708 91111","WindDirDegrees":"180","DateUTC\r":"2/1/16 9:00\r"},{"TimeMSK":"12:00 PM","TemperatureF":"33.8","Dew PointF":"32","Humidity":"93","Sea Level PressureIn":"29.56","VisibilityMPH":"6.2","Wind Direction":"SSE","Wind SpeedMPH":"20.1","Gust SpeedMPH":"31.3","PrecipitationIn":"N/A","Events":"","Conditions":"Mostly Cloudy","FullMetar":"METAR UWKD 010900Z 16009G14MPS 9999 BKN007CB 01/00 Q1001 R11/6/0245 NOSIG RMK QFE741/0988","WindDirDegrees":"160","DateUTC\r":"2/1/16 9:00\r"},{"TimeMSK":"12:30 PM","TemperatureF":"33.8","Dew PointF":"32","Humidity":"93","Sea Level PressureIn":"29.56","VisibilityMPH":"5","Wind Direction":"South","Wind SpeedMPH":"15.7","Gust SpeedMPH":"26.8","PrecipitationIn":"N/A","Events":"Rain-Snow","Conditions":"Light Snow Showers","FullMetar":"METAR UWKD 010930Z 17007G12MPS 8000 -SHSNRA BKN007CB 01/00 Q1001 R11/6/0245 NOSIG RMK QFE741/0988","WindDirDegrees":"170","DateUTC\r":"2/1/16 9:30\r"},{"TimeMSK":"1:00 PM","TemperatureF":"33.8","Dew PointF":"32","Humidity":"93","Sea Level PressureIn":"29.56","VisibilityMPH":"3.7","Wind Direction":"South","Wind SpeedMPH":"15.7","Gust SpeedMPH":"26.8","PrecipitationIn":"N/A","Events":"Rain-Snow","Conditions":"Light Snow Showers","FullMetar":"METAR UWKD 011000Z 17007G12MPS 6000 -SHSNRA BKN006CB 01/00 Q1001 R11/6/0245 NOSIG RMK QFE741/0988","WindDirDegrees":"170","DateUTC\r":"2/1/16 10:00\r"},{"TimeMSK":"1:30 PM","TemperatureF":"33.8","Dew PointF":"32","Humidity":"93","Sea Level PressureIn":"29.56","VisibilityMPH":"3.1","Wind Direction":"South","Wind SpeedMPH":"11.2","Gust SpeedMPH":"22.4","PrecipitationIn":"N/A","Events":"Rain-Snow","Conditions":"Light Snow Showers","FullMetar":"METAR UWKD 011030Z 17005G10MPS 5000 -SHSNRA BKN006CB 01/00 Q1001 R11/6/0245 NOSIG RMK QFE741/0988","WindDirDegrees":"170","DateUTC\r":"2/1/16 10:30\r"},{"TimeMSK":"2:00 PM","TemperatureF":"33.8","Dew PointF":"32","Humidity":"93","Sea Level PressureIn":"29.56","VisibilityMPH":"3.7","Wind Direction":"South","Wind SpeedMPH":"11.2","Gust SpeedMPH":"22.4","PrecipitationIn":"N/A","Events":"Rain-Snow","Conditions":"Light Snow Showers","FullMetar":"METAR UWKD 011100Z 17005G10MPS 6000 -SHSNRA BKN006CB 01/00 Q1001 R11/6/0245 NOSIG RMK QFE741/0988","WindDirDegrees":"170","DateUTC\r":"2/1/16 11:00\r"},{"TimeMSK":"2:30 PM","TemperatureF":"33.8","Dew PointF":"33.8","Humidity":"100","Sea Level PressureIn":"29.56","VisibilityMPH":"5.6","Wind Direction":"SSE","Wind SpeedMPH":"8.9","Gust SpeedMPH":"20.1","PrecipitationIn":"N/A","Events":"Rain-Snow","Conditions":"Light Snow Showers","FullMetar":"METAR UWKD 011130Z 16004G09MPS 9000 -SHSNRA BKN006CB 01/01 Q1001 R11/6/0245 NOSIG RMK QFE741/0988","WindDirDegrees":"160","DateUTC\r":"2/1/16 11:30\r"},{"TimeMSK":"3:00 PM","TemperatureF":"34","Dew PointF":"31","Humidity":"86","Sea Level PressureIn":"29.61","VisibilityMPH":"2","Wind Direction":"South","Wind SpeedMPH":"4.5","Gust SpeedMPH":"","PrecipitationIn":"","Events":"Snow","Conditions":"Heavy Snow","FullMetar":"AAXX 01121 27595 41396 81702 10010 21003 39878 40025 54001 76976 8872/ 333 88706","WindDirDegrees":"170","DateUTC\r":"2/1/16 12:00\r"},{"TimeMSK":"3:00 PM","TemperatureF":"33.8","Dew PointF":"33.8","Humidity":"100","Sea Level PressureIn":"29.56","VisibilityMPH":"5.6","Wind Direction":"South","Wind SpeedMPH":"8.9","Gust SpeedMPH":"20.1","PrecipitationIn":"N/A","Events":"Rain-Snow","Conditions":"Light Snow Showers","FullMetar":"METAR UWKD 011200Z 17004G09MPS 9000 -SHSNRA BKN007CB 01/01 Q1001 R11/6/0245 NOSIG RMK QFE741/0988","WindDirDegrees":"170","DateUTC\r":"2/1/16 12:00\r"},{"TimeMSK":"3:30 PM","TemperatureF":"33.8","Dew PointF":"32","Humidity":"93","Sea Level PressureIn":"29.59","VisibilityMPH":"6.2","Wind Direction":"South","Wind SpeedMPH":"8.9","Gust SpeedMPH":"20.1","PrecipitationIn":"N/A","Events":"","Conditions":"Mostly Cloudy","FullMetar":"METAR UWKD 011230Z 17004G09MPS 9999 BKN007CB 01/00 Q1002 R11/6/0245 NOSIG RMK QFE741/0988","WindDirDegrees":"170","DateUTC\r":"2/1/16 12:30\r"},{"TimeMSK":"4:00 PM","TemperatureF":"33.8","Dew PointF":"32","Humidity":"93","Sea Level PressureIn":"29.59","VisibilityMPH":"6.2","Wind Direction":"South","Wind SpeedMPH":"8.9","Gust SpeedMPH":"20.1","PrecipitationIn":"N/A","Events":"","Conditions":"Mostly Cloudy","FullMetar":"METAR UWKD 011300Z 17004G09MPS 9999 BKN007CB 01/00 Q1002 R11/6/0245 NOSIG RMK QFE741/0989","WindDirDegrees":"170","DateUTC\r":"2/1/16 13:00\r"},{"TimeMSK":"4:30 PM","TemperatureF":"33.8","Dew PointF":"32","Humidity":"93","Sea Level PressureIn":"29.59","VisibilityMPH":"6.2","Wind Direction":"SSE","Wind SpeedMPH":"8.9","Gust SpeedMPH":"20.1","PrecipitationIn":"N/A","Events":"","Conditions":"Mostly Cloudy","FullMetar":"METAR UWKD 011330Z 16004G09MPS 9999 BKN007CB 01/00 Q1002 R11/6/0245 NOSIG RMK QFE742/0989","WindDirDegrees":"160","DateUTC\r":"2/1/16 13:30\r"},{"TimeMSK":"5:00 PM","TemperatureF":"33.8","Dew PointF":"33.8","Humidity":"100","Sea Level PressureIn":"29.62","VisibilityMPH":"6.2","Wind Direction":"South","Wind SpeedMPH":"11.2","Gust SpeedMPH":"22.4","PrecipitationIn":"N/A","Events":"","Conditions":"Mostly Cloudy","FullMetar":"METAR UWKD 011400Z 18005G10MPS 9999 BKN007CB 01/01 Q1003 R11/6/0245 NOSIG RMK QFE742/0989","WindDirDegrees":"180","DateUTC\r":"2/1/16 14:00\r"},{"TimeMSK":"5:30 PM","TemperatureF":"33.8","Dew PointF":"32","Humidity":"93","Sea Level PressureIn":"29.62","VisibilityMPH":"6.2","Wind Direction":"South","Wind SpeedMPH":"8.9","Gust SpeedMPH":"20.1","PrecipitationIn":"N/A","Events":"","Conditions":"Mostly Cloudy","FullMetar":"METAR UWKD 011430Z 18004G09MPS 9999 BKN012CB 01/00 Q1003 R11/6/0245 NOSIG RMK QFE742/0990","WindDirDegrees":"180","DateUTC\r":"2/1/16 14:30\r"},{"TimeMSK":"6:00 PM","TemperatureF":"34","Dew PointF":"32","Humidity":"88","Sea Level PressureIn":"29.65","VisibilityMPH":"6","Wind Direction":"South","Wind SpeedMPH":"2.2","Gust SpeedMPH":"","PrecipitationIn":"","Events":"","Conditions":"Partly Cloudy","FullMetar":"AAXX 01151 27595 11597 81801 10013 21001 39894 40041 52016 60012 70262 885// 333 10013 88624","WindDirDegrees":"180","DateUTC\r":"2/1/16 15:00\r"},{"TimeMSK":"6:00 PM","TemperatureF":"33.8","Dew PointF":"32","Humidity":"93","Sea Level PressureIn":"29.62","VisibilityMPH":"6.2","Wind Direction":"South","Wind SpeedMPH":"8.9","Gust SpeedMPH":"20.1","PrecipitationIn":"N/A","Events":"Rain-Snow","Conditions":"Light Snow Showers","FullMetar":"METAR UWKD 011500Z 18004G09MPS 9999 -SHSNRA BKN011CB 01/00 Q1003 R11/6/0245 NOSIG RMK QFE742/0990","WindDirDegrees":"180","DateUTC\r":"2/1/16 15:00\r"},{"TimeMSK":"6:30 PM","TemperatureF":"33.8","Dew PointF":"32","Humidity":"93","Sea Level PressureIn":"29.62","VisibilityMPH":"6.2","Wind Direction":"South","Wind SpeedMPH":"15.7","Gust SpeedMPH":"-","PrecipitationIn":"N/A","Events":"","Conditions":"Mostly Cloudy","FullMetar":"METAR UWKD 011530Z 19007MPS 9999 BKN012CB 01/00 Q1003 R11/6/0245 NOSIG RMK QFE742/0990","WindDirDegrees":"190","DateUTC\r":"2/1/16 15:30\r"},{"TimeMSK":"7:00 PM","TemperatureF":"33.8","Dew PointF":"32","Humidity":"93","Sea Level PressureIn":"29.65","VisibilityMPH":"6.2","Wind Direction":"South","Wind SpeedMPH":"13.4","Gust SpeedMPH":"-","PrecipitationIn":"N/A","Events":"","Conditions":"Mostly Cloudy","FullMetar":"METAR UWKD 011600Z 19006MPS 9999 BKN013CB 01/00 Q1004 R11/6/0245 NOSIG RMK QFE743/0990","WindDirDegrees":"190","DateUTC\r":"2/1/16 16:00\r"},{"TimeMSK":"7:30 PM","TemperatureF":"33.8","Dew PointF":"32","Humidity":"93","Sea Level PressureIn":"29.65","VisibilityMPH":"6.2","Wind Direction":"South","Wind SpeedMPH":"13.4","Gust SpeedMPH":"-","PrecipitationIn":"N/A","Events":"","Conditions":"Mostly Cloudy","FullMetar":"METAR UWKD 011630Z 19006MPS 9999 BKN015CB 01/00 Q1004 R11/750040 NOSIG RMK QFE743/0991","WindDirDegrees":"190","DateUTC\r":"2/1/16 16:30\r"},{"TimeMSK":"8:00 PM","TemperatureF":"33.8","Dew PointF":"32","Humidity":"93","Sea Level PressureIn":"29.65","VisibilityMPH":"6.2","Wind Direction":"SSW","Wind SpeedMPH":"11.2","Gust SpeedMPH":"-","PrecipitationIn":"N/A","Events":"","Conditions":"Mostly Cloudy","FullMetar":"METAR UWKD 011700Z 20005MPS 9999 BKN014 01/00 Q1004 R11/750040 NOSIG RMK QFE743/0991","WindDirDegrees":"200","DateUTC\r":"2/1/16 17:00\r"},{"TimeMSK":"8:30 PM","TemperatureF":"35.6","Dew PointF":"32","Humidity":"87","Sea Level PressureIn":"29.68","VisibilityMPH":"6.2","Wind Direction":"SSW","Wind SpeedMPH":"11.2","Gust SpeedMPH":"-","PrecipitationIn":"N/A","Events":"","Conditions":"Mostly Cloudy","FullMetar":"METAR UWKD 011730Z 21005MPS 9999 BKN013 02/00 Q1005 R11/720040 NOSIG RMK QFE743/0991","WindDirDegrees":"210","DateUTC\r":"2/1/16 17:30\r"},{"TimeMSK":"9:00 PM","TemperatureF":"35","Dew PointF":"31","Humidity":"81","Sea Level PressureIn":"29.72","VisibilityMPH":"6","Wind Direction":"WSW","Wind SpeedMPH":"6.7","Gust SpeedMPH":"","PrecipitationIn":"","Events":"","Conditions":"Partly Cloudy","FullMetar":"AAXX 01181 27595 41597 82403 10017 21004 39917 40064 52023 70262 8757/ 333 87626","WindDirDegrees":"240","DateUTC\r":"2/1/16 18:00\r"},{"TimeMSK":"9:00 PM","TemperatureF":"33.8","Dew PointF":"32","Humidity":"93","Sea Level PressureIn":"29.68","VisibilityMPH":"6.2","Wind Direction":"SW","Wind SpeedMPH":"11.2","Gust SpeedMPH":"-","PrecipitationIn":"N/A","Events":"","Conditions":"Mostly Cloudy","FullMetar":"METAR UWKD 011800Z 23005MPS 9999 BKN015 01/00 Q1005 R11/720040 NOSIG RMK QFE744/0992","WindDirDegrees":"230","DateUTC\r":"2/1/16 18:00\r"},{"TimeMSK":"9:30 PM","TemperatureF":"35.6","Dew PointF":"32","Humidity":"87","Sea Level PressureIn":"29.71","VisibilityMPH":"6.2","Wind Direction":"WSW","Wind SpeedMPH":"8.9","Gust SpeedMPH":"-","PrecipitationIn":"N/A","Events":"","Conditions":"Mostly Cloudy","FullMetar":"METAR UWKD 011830Z 25004MPS 9999 BKN029 02/00 Q1006 R29/720040 NOSIG RMK QFE743/0991","WindDirDegrees":"250","DateUTC\r":"2/1/16 18:30\r"},{"TimeMSK":"10:00 PM","TemperatureF":"35.6","Dew PointF":"32","Humidity":"87","Sea Level PressureIn":"29.71","VisibilityMPH":"6.2","Wind Direction":"WSW","Wind SpeedMPH":"8.9","Gust SpeedMPH":"-","PrecipitationIn":"N/A","Events":"","Conditions":"Mostly Cloudy","FullMetar":"METAR UWKD 011900Z 25004MPS 9999 BKN016 02/M00 Q1006 R29/710045 NOSIG RMK QFE743/0991","WindDirDegrees":"250","DateUTC\r":"2/1/16 19:00\r"},{"TimeMSK":"10:30 PM","TemperatureF":"33.8","Dew PointF":"32","Humidity":"93","Sea Level PressureIn":"29.74","VisibilityMPH":"6.2","Wind Direction":"West","Wind SpeedMPH":"11.2","Gust SpeedMPH":"-","PrecipitationIn":"N/A","Events":"","Conditions":"Mostly Cloudy","FullMetar":"METAR UWKD 011930Z 26005MPS 9999 BKN036 01/M00 Q1007 R29/710045 NOSIG RMK QFE744/0992","WindDirDegrees":"260","DateUTC\r":"2/1/16 19:30\r"},{"TimeMSK":"11:00 PM","TemperatureF":"33.8","Dew PointF":"32","Humidity":"93","Sea Level PressureIn":"29.74","VisibilityMPH":"6.2","Wind Direction":"West","Wind SpeedMPH":"13.4","Gust SpeedMPH":"-","PrecipitationIn":"N/A","Events":"","Conditions":"Mostly Cloudy","FullMetar":"METAR UWKD 012000Z 26006MPS 9999 BKN028 01/M00 Q1007 R29/310050 NOSIG RMK QFE744/0992","WindDirDegrees":"260","DateUTC\r":"2/1/16 20:00\r"},{"TimeMSK":"11:30 PM","TemperatureF":"33.8","Dew PointF":"30.2","Humidity":"87","Sea Level PressureIn":"29.74","VisibilityMPH":"-9999","Wind Direction":"West","Wind SpeedMPH":"11.2","Gust SpeedMPH":"-","PrecipitationIn":"N/A","Events":"","Conditions":"Clear","FullMetar":"METAR UWKD 012030Z 26005MPS CAVOK 01/M01 Q1007 R29/310050 NOSIG RMK QFE744/0993","WindDirDegrees":"260","DateUTC\r":"2/1/16 20:30\r"},{"TimeMSK":"12:00 AM","TemperatureF":"33","Dew PointF":"29","Humidity":"77","Sea Level PressureIn":"29.81","VisibilityMPH":"6","Wind Direction":"West","Wind SpeedMPH":"4.5","Gust SpeedMPH":"","PrecipitationIn":"","Events":"","Conditions":"Overcast","FullMetar":"AAXX 01211 27595 42797 82702 10008 21019 39944 40092 52027 8657/ 333 86655","WindDirDegrees":"270","DateUTC\r":"2/1/16 21:00\r"},{"TimeMSK":"12:00 AM","TemperatureF":"33.8","Dew PointF":"30.2","Humidity":"87","Sea Level PressureIn":"29.77","VisibilityMPH":"-9999","Wind Direction":"West","Wind SpeedMPH":"11.2","Gust SpeedMPH":"-","PrecipitationIn":"N/A","Events":"","Conditions":"Clear","FullMetar":"METAR UWKD 012100Z 26005MPS CAVOK 01/M01 Q1008 R29/310050 NOSIG RMK QFE745/0993","WindDirDegrees":"260","DateUTC\r":"2/1/16 21:00\r"},{"TimeMSK":"12:30 AM","TemperatureF":"33.8","Dew PointF":"30.2","Humidity":"87","Sea Level PressureIn":"29.77","VisibilityMPH":"6.2","Wind Direction":"WSW","Wind SpeedMPH":"8.9","Gust SpeedMPH":"-","PrecipitationIn":"N/A","Events":"","Conditions":"Mostly Cloudy","FullMetar":"METAR UWKD 012130Z 25004MPS 9999 BKN049 01/M01 Q1008 R29/310050 NOSIG RMK QFE745/0994","WindDirDegrees":"250","DateUTC\r":"2/1/16 21:30\r"},{"TimeMSK":"1:00 AM","TemperatureF":"33.8","Dew PointF":"30.2","Humidity":"87","Sea Level PressureIn":"29.8","VisibilityMPH":"6.2","Wind Direction":"WSW","Wind SpeedMPH":"8.9","Gust SpeedMPH":"-","PrecipitationIn":"N/A","Events":"","Conditions":"Mostly Cloudy","FullMetar":"METAR UWKD 012200Z 24004MPS 9999 BKN048 01/M01 Q1009 R29/310050 NOSIG RMK QFE745/0994","WindDirDegrees":"240","DateUTC\r":"2/1/16 22:00\r"},{"TimeMSK":"1:30 AM","TemperatureF":"32","Dew PointF":"30.2","Humidity":"93","Sea Level PressureIn":"29.8","VisibilityMPH":"-9999","Wind Direction":"WSW","Wind SpeedMPH":"8.9","Gust SpeedMPH":"-","PrecipitationIn":"N/A","Events":"","Conditions":"Clear","FullMetar":"METAR UWKD 012230Z 24004MPS CAVOK 00/M01 Q1009 R29/310050 NOSIG RMK QFE746/0994","WindDirDegrees":"240","DateUTC\r":"2/1/16 22:30\r"},{"TimeMSK":"2:00 AM","TemperatureF":"32","Dew PointF":"28.4","Humidity":"87","Sea Level PressureIn":"29.8","VisibilityMPH":"-9999","Wind Direction":"WSW","Wind SpeedMPH":"8.9","Gust SpeedMPH":"-","PrecipitationIn":"N/A","Events":"","Conditions":"Clear","FullMetar":"METAR UWKD 012300Z 24004MPS CAVOK M00/M02 Q1009 R29/320045 NOSIG RMK QFE746/0995","WindDirDegrees":"240","DateUTC\r":"2/1/16 23:00\r"},{"TimeMSK":"2:30 AM","TemperatureF":"32","Dew PointF":"28.4","Humidity":"87","Sea Level PressureIn":"29.83","VisibilityMPH":"-9999","Wind Direction":"WSW","Wind SpeedMPH":"6.7","Gust SpeedMPH":"-","PrecipitationIn":"N/A","Events":"","Conditions":"Clear","FullMetar":"METAR UWKD 012330Z 25003MPS CAVOK M00/M02 Q1010 R29/320045 NOSIG RMK QFE746/0995","WindDirDegrees":"250","DateUTC\r":"2/1/16 23:30\r"},{"TimeMSK":"3:00 AM","TemperatureF":"32","Dew PointF":"28","Humidity":"79","Sea Level PressureIn":"29.86","VisibilityMPH":"6","Wind Direction":"SW","Wind SpeedMPH":"4.5","Gust SpeedMPH":"","PrecipitationIn":"","Events":"","Conditions":"Partly Cloudy","FullMetar":"AAXX 02001 27595 42697 72302 11002 21023 39963 40112 52019 83570","WindDirDegrees":"230","DateUTC\r":"2/2/16 0:00\r"},{"TimeMSK":"3:00 AM","TemperatureF":"30.2","Dew PointF":"28.4","Humidity":"93","Sea Level PressureIn":"29.83","VisibilityMPH":"-9999","Wind Direction":"SW","Wind SpeedMPH":"6.7","Gust SpeedMPH":"-","PrecipitationIn":"N/A","Events":"","Conditions":"Clear","FullMetar":"METAR UWKD 020000Z 22003MPS CAVOK M01/M02 Q1010 R29/320045 NOSIG RMK QFE746/0995","WindDirDegrees":"220","DateUTC\r":"2/2/16 0:00\r"},{"TimeMSK":"3:30 AM","TemperatureF":"30.2","Dew PointF":"28.4","Humidity":"93","Sea Level PressureIn":"29.83","VisibilityMPH":"-9999","Wind Direction":"SSW","Wind SpeedMPH":"6.7","Gust SpeedMPH":"-","PrecipitationIn":"N/A","Events":"","Conditions":"Clear","FullMetar":"METAR UWKD 020030Z 20003MPS CAVOK M01/M02 Q1010 R29/320045 NOSIG RMK QFE746/0995","WindDirDegrees":"200","DateUTC\r":"2/2/16 0:30\r"},{"TimeMSK":"4:00 AM","TemperatureF":"26.6","Dew PointF":"24.8","Humidity":"93","Sea Level PressureIn":"29.83","VisibilityMPH":"-9999","Wind Direction":"SW","Wind SpeedMPH":"4.5","Gust SpeedMPH":"-","PrecipitationIn":"N/A","Events":"","Conditions":"Clear","FullMetar":"METAR UWKD 020100Z 23002MPS 190V250 CAVOK M03/M04 Q1010 R29/320045 NOSIG RMK QFE746/0995","WindDirDegrees":"230","DateUTC\r":"2/2/16 1:00\r"},{"TimeMSK":"4:30 AM","TemperatureF":"28.4","Dew PointF":"26.6","Humidity":"93","Sea Level PressureIn":"29.83","VisibilityMPH":"-9999","Wind Direction":"SW","Wind SpeedMPH":"6.7","Gust SpeedMPH":"-","PrecipitationIn":"N/A","Events":"","Conditions":"Clear","FullMetar":"METAR UWKD 020130Z 22003MPS CAVOK M02/M03 Q1010 R29/350040 NOSIG RMK QFE747/0996","WindDirDegrees":"220","DateUTC\r":"2/2/16 1:30\r"},{"TimeMSK":"5:00 AM","TemperatureF":"28.4","Dew PointF":"28.4","Humidity":"100","Sea Level PressureIn":"29.86","VisibilityMPH":"-9999","Wind Direction":"SW","Wind SpeedMPH":"6.7","Gust SpeedMPH":"-","PrecipitationIn":"N/A","Events":"","Conditions":"Clear","FullMetar":"METAR UWKD 020200Z 22003MPS CAVOK M02/M02 Q1011 R29/350040 NOSIG RMK QFE747/0996","WindDirDegrees":"220","DateUTC\r":"2/2/16 2:00\r"},{"TimeMSK":"5:30 AM","TemperatureF":"30.2","Dew PointF":"28.4","Humidity":"93","Sea Level PressureIn":"29.86","VisibilityMPH":"-9999","Wind Direction":"SW","Wind SpeedMPH":"6.7","Gust SpeedMPH":"-","PrecipitationIn":"N/A","Events":"","Conditions":"Clear","FullMetar":"METAR UWKD 020230Z 22003MPS CAVOK M01/M02 Q1011 R29/350040 NOSIG RMK QFE747/0996","WindDirDegrees":"220","DateUTC\r":"2/2/16 2:30\r"},{"TimeMSK":"6:00 AM","TemperatureF":"29","Dew PointF":"27","Humidity":"88","Sea Level PressureIn":"29.91","VisibilityMPH":"6","Wind Direction":"SSE","Wind SpeedMPH":"2.2","Gust SpeedMPH":"","PrecipitationIn":"","Events":"","Conditions":"Overcast","FullMetar":"AAXX 02031 27595 12497 81501 11014 21029 39977 40127 53014 60002 8657/ 333 21014 43044 55000 86618","WindDirDegrees":"150","DateUTC\r":"2/2/16 3:00\r"},{"TimeMSK":"6:00 AM","TemperatureF":"30.2","Dew PointF":"28.4","Humidity":"93","Sea Level PressureIn":"29.86","VisibilityMPH":"6.2","Wind Direction":"WSW","Wind SpeedMPH":"4.5","Gust SpeedMPH":"-","PrecipitationIn":"N/A","Events":"","Conditions":"Mostly Cloudy","FullMetar":"METAR UWKD 020300Z 24002MPS 9999 BKN035 M01/M02 Q1011 R29/350040 NOSIG RMK QFE747/0997","WindDirDegrees":"240","DateUTC\r":"2/2/16 3:00\r"},{"TimeMSK":"6:30 AM","TemperatureF":"30.2","Dew PointF":"28.4","Humidity":"93","Sea Level PressureIn":"29.86","VisibilityMPH":"-9999","Wind Direction":"ESE","Wind SpeedMPH":"6.7","Gust SpeedMPH":"-","PrecipitationIn":"N/A","Events":"","Conditions":"Clear","FullMetar":"METAR UWKD 020330Z 11003MPS CAVOK M01/M02 Q1011 R29/320045 NOSIG RMK QFE747/0997","WindDirDegrees":"110","DateUTC\r":"2/2/16 3:30\r"},{"TimeMSK":"7:00 AM","TemperatureF":"28.4","Dew PointF":"26.6","Humidity":"93","Sea Level PressureIn":"29.89","VisibilityMPH":"-9999","Wind Direction":"ESE","Wind SpeedMPH":"4.5","Gust SpeedMPH":"-","PrecipitationIn":"N/A","Events":"","Conditions":"Clear","FullMetar":"METAR UWKD 020400Z 11002MPS CAVOK M02/M03 Q1012 R29/320045 NOSIG RMK QFE747/0997","WindDirDegrees":"110","DateUTC\r":"2/2/16 4:00\r"},{"TimeMSK":"7:30 AM","TemperatureF":"28.4","Dew PointF":"26.6","Humidity":"93","Sea Level PressureIn":"29.89","VisibilityMPH":"-9999","Wind Direction":"SE","Wind SpeedMPH":"6.7","Gust SpeedMPH":"-","PrecipitationIn":"N/A","Events":"","Conditions":"Clear","FullMetar":"METAR UWKD 020430Z 14003MPS CAVOK M02/M03 Q1012 R11/320045 NOSIG RMK QFE748/0998","WindDirDegrees":"140","DateUTC\r":"2/2/16 4:30\r"},{"TimeMSK":"8:00 AM","TemperatureF":"28.4","Dew PointF":"28.4","Humidity":"100","Sea Level PressureIn":"29.89","VisibilityMPH":"-9999","Wind Direction":"SE","Wind SpeedMPH":"6.7","Gust SpeedMPH":"-","PrecipitationIn":"N/A","Events":"","Conditions":"Clear","FullMetar":"METAR UWKD 020500Z 14003MPS CAVOK M02/M02 Q1012 R11/320045 NOSIG RMK QFE749/0998","WindDirDegrees":"140","DateUTC\r":"2/2/16 5:00\r"},{"TimeMSK":"8:30 AM","TemperatureF":"28.4","Dew PointF":"26.6","Humidity":"93","Sea Level PressureIn":"29.89","VisibilityMPH":"-9999","Wind Direction":"SE","Wind SpeedMPH":"6.7","Gust SpeedMPH":"-","PrecipitationIn":"N/A","Events":"","Conditions":"Clear","FullMetar":"METAR UWKD 020530Z 14003MPS CAVOK M02/M03 Q1012 R11/320045 NOSIG RMK QFE749/0998","WindDirDegrees":"140","DateUTC\r":"2/2/16 5:30\r"},{"TimeMSK":"9:00 AM","TemperatureF":"29","Dew PointF":"27","Humidity":"89","Sea Level PressureIn":"29.92","VisibilityMPH":"6","Wind Direction":"SSE","Wind SpeedMPH":"2.2","Gust SpeedMPH":"","PrecipitationIn":"","Events":"","Conditions":"Overcast","FullMetar":"AAXX 02061 27595 42997 81501 11016 21028 39981 40131 52004 8802/ 333 21019","WindDirDegrees":"150","DateUTC\r":"2/2/16 6:00\r"},{"TimeMSK":"9:00 AM","TemperatureF":"28.4","Dew PointF":"26.6","Humidity":"93","Sea Level PressureIn":"29.89","VisibilityMPH":"6.2","Wind Direction":"SSE","Wind SpeedMPH":"4.5","Gust SpeedMPH":"-","PrecipitationIn":"N/A","Events":"","Conditions":"Mostly Cloudy","FullMetar":"METAR UWKD 020600Z 15002MPS 9999 BKN050 M02/M03 Q1012 R11/320045 NOSIG RMK QFE749/0998","WindDirDegrees":"150","DateUTC\r":"2/2/16 6:00\r"},{"TimeMSK":"9:30 AM","TemperatureF":"28.4","Dew PointF":"26.6","Humidity":"93","Sea Level PressureIn":"29.89","VisibilityMPH":"6.2","Wind Direction":"SSE","Wind SpeedMPH":"4.5","Gust SpeedMPH":"-","PrecipitationIn":"N/A","Events":"","Conditions":"Mostly Cloudy","FullMetar":"METAR UWKD 020630Z 16002MPS 9999 BKN050 M02/M03 Q1012 R11/320045 NOSIG RMK QFE749/0998","WindDirDegrees":"160","DateUTC\r":"2/2/16 6:30\r"},{"TimeMSK":"10:00 AM","TemperatureF":"30.2","Dew PointF":"28.4","Humidity":"93","Sea Level PressureIn":"29.89","VisibilityMPH":"-9999","Wind Direction":"SSE","Wind SpeedMPH":"4.5","Gust SpeedMPH":"-","PrecipitationIn":"N/A","Events":"","Conditions":"Clear","FullMetar":"METAR UWKD 020700Z 16002MPS CAVOK M01/M02 Q1012 R11/320045 NOSIG RMK QFE748/0998","WindDirDegrees":"160","DateUTC\r":"2/2/16 7:00\r"},{"TimeMSK":"10:30 AM","TemperatureF":"30.2","Dew PointF":"28.4","Humidity":"93","Sea Level PressureIn":"29.89","VisibilityMPH":"-9999","Wind Direction":"SSE","Wind SpeedMPH":"4.5","Gust SpeedMPH":"-","PrecipitationIn":"N/A","Events":"","Conditions":"Clear","FullMetar":"METAR UWKD 020730Z 15002MPS CAVOK M01/M02 Q1012 R11/320045 NOSIG RMK QFE748/0998","WindDirDegrees":"150","DateUTC\r":"2/2/16 7:30\r"},{"TimeMSK":"11:00 AM","TemperatureF":"30.2","Dew PointF":"28.4","Humidity":"93","Sea Level PressureIn":"29.86","VisibilityMPH":"-9999","Wind Direction":"SSE","Wind SpeedMPH":"6.7","Gust SpeedMPH":"-","PrecipitationIn":"N/A","Events":"","Conditions":"Clear","FullMetar":"METAR UWKD 020800Z 16003MPS CAVOK M01/M02 Q1011 R11/320045 NOSIG RMK QFE748/0998","WindDirDegrees":"160","DateUTC\r":"2/2/16 8:00\r"},{"TimeMSK":"11:30 AM","TemperatureF":"30.2","Dew PointF":"28.4","Humidity":"93","Sea Level PressureIn":"29.86","VisibilityMPH":"-9999","Wind Direction":"SSE","Wind SpeedMPH":"6.7","Gust SpeedMPH":"-","PrecipitationIn":"N/A","Events":"","Conditions":"Clear","FullMetar":"METAR UWKD 020830Z 15003MPS CAVOK M01/M02 Q1011 R11/320045 NOSIG RMK QFE748/0998","WindDirDegrees":"150","DateUTC\r":"2/2/16 8:30\r"},{"TimeMSK":"12:00 PM","TemperatureF":"32","Dew PointF":"28","Humidity":"78","Sea Level PressureIn":"29.91","VisibilityMPH":"6","Wind Direction":"South","Wind SpeedMPH":"2.2","Gust SpeedMPH":"","PrecipitationIn":"","Events":"","Conditions":"Overcast","FullMetar":"AAXX 02091 27595 42697 81701 11000 21024 39977 40127 57004 8257/","WindDirDegrees":"170","DateUTC\r":"2/2/16 9:00\r"},{"TimeMSK":"12:00 PM","TemperatureF":"30.2","Dew PointF":"28.4","Humidity":"93","Sea Level PressureIn":"29.86","VisibilityMPH":"-9999","Wind Direction":"SSE","Wind SpeedMPH":"6.7","Gust SpeedMPH":"-","PrecipitationIn":"N/A","Events":"","Conditions":"Clear","FullMetar":"METAR UWKD 020900Z 16003MPS CAVOK M01/M02 Q1011 R11/320045 NOSIG RMK QFE748/0998","WindDirDegrees":"160","DateUTC\r":"2/2/16 9:00\r"},{"TimeMSK":"12:30 PM","TemperatureF":"30.2","Dew PointF":"28.4","Humidity":"93","Sea Level PressureIn":"29.86","VisibilityMPH":"-9999","Wind Direction":"SSE","Wind SpeedMPH":"6.7","Gust SpeedMPH":"-","PrecipitationIn":"N/A","Events":"","Conditions":"Clear","FullMetar":"METAR UWKD 020930Z 15003MPS CAVOK M01/M02 Q1011 R11/320045 NOSIG RMK QFE748/0997","WindDirDegrees":"150","DateUTC\r":"2/2/16 9:30\r"},{"TimeMSK":"1:00 PM","TemperatureF":"30.2","Dew PointF":"28.4","Humidity":"93","Sea Level PressureIn":"29.86","VisibilityMPH":"-9999","Wind Direction":"South","Wind SpeedMPH":"4.5","Gust SpeedMPH":"-","PrecipitationIn":"N/A","Events":"","Conditions":"Clear","FullMetar":"METAR UWKD 021000Z 18002MPS CAVOK M01/M02 Q1011 R11/320045 NOSIG RMK QFE748/0997","WindDirDegrees":"180","DateUTC\r":"2/2/16 10:00\r"},{"TimeMSK":"1:30 PM","TemperatureF":"30.2","Dew PointF":"28.4","Humidity":"93","Sea Level PressureIn":"29.86","VisibilityMPH":"-9999","Wind Direction":"SSE","Wind SpeedMPH":"6.7","Gust SpeedMPH":"-","PrecipitationIn":"N/A","Events":"","Conditions":"Clear","FullMetar":"METAR UWKD 021030Z 16003MPS CAVOK M01/M02 Q1011 R11/320045 NOSIG RMK QFE748/0997","WindDirDegrees":"160","DateUTC\r":"2/2/16 10:30\r"},{"TimeMSK":"2:00 PM","TemperatureF":"30.2","Dew PointF":"28.4","Humidity":"93","Sea Level PressureIn":"29.86","VisibilityMPH":"-9999","Wind Direction":"SSE","Wind SpeedMPH":"6.7","Gust SpeedMPH":"-","PrecipitationIn":"N/A","Events":"","Conditions":"Clear","FullMetar":"METAR UWKD 021100Z 16003MPS CAVOK M01/M02 Q1011 R11/320045 NOSIG RMK QFE748/0997","WindDirDegrees":"160","DateUTC\r":"2/2/16 11:00\r"},{"TimeMSK":"2:30 PM","TemperatureF":"30.2","Dew PointF":"28.4","Humidity":"93","Sea Level PressureIn":"29.83","VisibilityMPH":"-9999","Wind Direction":"SE","Wind SpeedMPH":"6.7","Gust SpeedMPH":"-","PrecipitationIn":"N/A","Events":"","Conditions":"Clear","FullMetar":"METAR UWKD 021130Z 14003MPS CAVOK M01/M02 Q1010 R11/320045 NOSIG RMK QFE747/0997","WindDirDegrees":"140","DateUTC\r":"2/2/16 11:30\r"},{"TimeMSK":"3:00 PM","TemperatureF":"31","Dew PointF":"27","Humidity":"80","Sea Level PressureIn":"29.87","VisibilityMPH":"6","Wind Direction":"SE","Wind SpeedMPH":"2.2","Gust SpeedMPH":"","PrecipitationIn":"","Events":"","Conditions":"Mostly Cloudy","FullMetar":"AAXX 02121 27595 42997 71401 11003 21027 39966 40115 57012 87020","WindDirDegrees":"140","DateUTC\r":"2/2/16 12:00\r"},{"TimeMSK":"3:00 PM","TemperatureF":"30.2","Dew PointF":"28.4","Humidity":"93","Sea Level PressureIn":"29.83","VisibilityMPH":"-9999","Wind Direction":"SE","Wind SpeedMPH":"6.7","Gust SpeedMPH":"-","PrecipitationIn":"N/A","Events":"","Conditions":"Clear","FullMetar":"METAR UWKD 021200Z 14003MPS CAVOK M01/M02 Q1010 R11/2/0050 NOSIG RMK QFE747/0997","WindDirDegrees":"140","DateUTC\r":"2/2/16 12:00\r"},{"TimeMSK":"3:30 PM","TemperatureF":"28.4","Dew PointF":"26.6","Humidity":"93","Sea Level PressureIn":"29.83","VisibilityMPH":"-9999","Wind Direction":"SE","Wind SpeedMPH":"6.7","Gust SpeedMPH":"-","PrecipitationIn":"N/A","Events":"","Conditions":"Clear","FullMetar":"METAR UWKD 021230Z 13003MPS CAVOK M02/M03 Q1010 R11/2/0050 NOSIG RMK QFE747/0996","WindDirDegrees":"130","DateUTC\r":"2/2/16 12:30\r"},{"TimeMSK":"4:00 PM","TemperatureF":"28.4","Dew PointF":"26.6","Humidity":"93","Sea Level PressureIn":"29.83","VisibilityMPH":"-9999","Wind Direction":"SE","Wind SpeedMPH":"6.7","Gust SpeedMPH":"-","PrecipitationIn":"N/A","Events":"","Conditions":"Clear","FullMetar":"METAR UWKD 021300Z 14003MPS CAVOK M02/M03 Q1010 R11/2/0050 NOSIG RMK QFE747/0997","WindDirDegrees":"140","DateUTC\r":"2/2/16 13:00\r"},{"TimeMSK":"4:30 PM","TemperatureF":"26.6","Dew PointF":"26.6","Humidity":"100","Sea Level PressureIn":"29.83","VisibilityMPH":"-9999","Wind Direction":"South","Wind SpeedMPH":"4.5","Gust SpeedMPH":"-","PrecipitationIn":"N/A","Events":"","Conditions":"Clear","FullMetar":"METAR UWKD 021330Z 17002MPS CAVOK M03/M03 Q1010 R11/2/0050 NOSIG RMK QFE747/0996","WindDirDegrees":"170","DateUTC\r":"2/2/16 13:30\r"},{"TimeMSK":"5:00 PM","TemperatureF":"26.6","Dew PointF":"26.6","Humidity":"100","Sea Level PressureIn":"29.8","VisibilityMPH":"5.6","Wind Direction":"SSE","Wind SpeedMPH":"8.9","Gust SpeedMPH":"-","PrecipitationIn":"N/A","Events":"","Conditions":"Scattered Clouds","FullMetar":"METAR UWKD 021400Z 15004MPS 9000 SCT021 M03/M03 Q1009 R11/2/0050 NOSIG RMK QFE747/0996","WindDirDegrees":"150","DateUTC\r":"2/2/16 14:00\r"},{"TimeMSK":"5:30 PM","TemperatureF":"24.8","Dew PointF":"23","Humidity":"93","Sea Level PressureIn":"29.8","VisibilityMPH":"3.7","Wind Direction":"South","Wind SpeedMPH":"8.9","Gust SpeedMPH":"-","PrecipitationIn":"N/A","Events":"","Conditions":"Partly Cloudy","FullMetar":"METAR UWKD 021430Z 17004MPS 6000 FEW021 M04/M05 Q1009 R11/310045 TEMPO 2000 BR BKN005 RMK QFE747/0996","WindDirDegrees":"170","DateUTC\r":"2/2/16 14:30\r"},{"TimeMSK":"6:00 PM","TemperatureF":"29","Dew PointF":"26","Humidity":"86","Sea Level PressureIn":"29.85","VisibilityMPH":"6","Wind Direction":"SSE","Wind SpeedMPH":"2.2","Gust SpeedMPH":"","PrecipitationIn":"","Events":"","Conditions":"Overcast","FullMetar":"AAXX 02151 27595 12597 81501 11017 21031 39957 40107 57008 60002 8757/ 333 10004 87621","WindDirDegrees":"150","DateUTC\r":"2/2/16 15:00\r"},{"TimeMSK":"6:00 PM","TemperatureF":"23","Dew PointF":"23","Humidity":"100","Sea Level PressureIn":"29.8","VisibilityMPH":"0.2","Wind Direction":"South","Wind SpeedMPH":"6.7","Gust SpeedMPH":"-","PrecipitationIn":"N/A","Events":"Fog","Conditions":"Light Freezing Fog","FullMetar":"METAR UWKD 021500Z 18003MPS 0250 R11/0750D FZFG FEW016 M05/M05 Q1009 R11/310045 TEMPO 0500 FZFG VV002 RMK QFE747/0996","WindDirDegrees":"180","DateUTC\r":"2/2/16 15:00\r"},{"TimeMSK":"6:30 PM","TemperatureF":"23","Dew PointF":"23","Humidity":"100","Sea Level PressureIn":"29.8","VisibilityMPH":"0.1","Wind Direction":"South","Wind SpeedMPH":"6.7","Gust SpeedMPH":"-","PrecipitationIn":"N/A","Events":"Fog","Conditions":"Light Freezing Fog","FullMetar":"METAR UWKD 021530Z 17003MPS 0100 0050SE R11/0300N FZFG VV001 M05/M05 Q1009 R11/310045 NOSIG RMK QBB040 QFE747/0996","WindDirDegrees":"170","DateUTC\r":"2/2/16 15:30\r"},{"TimeMSK":"7:00 PM","TemperatureF":"21.2","Dew PointF":"21.2","Humidity":"100","Sea Level PressureIn":"29.8","VisibilityMPH":"0.1","Wind Direction":"South","Wind SpeedMPH":"6.7","Gust SpeedMPH":"-","PrecipitationIn":"N/A","Events":"Fog","Conditions":"Light Freezing Fog","FullMetar":"METAR UWKD 021600Z 17003MPS 0200 R11/0800U FZFG VV002 M06/M06 Q1009 R11/310045 NOSIG RMK QBB060 QFE746/0995","WindDirDegrees":"170","DateUTC\r":"2/2/16 16:00\r"},{"TimeMSK":"7:30 PM","TemperatureF":"24.8","Dew PointF":"23","Humidity":"93","Sea Level PressureIn":"29.77","VisibilityMPH":"0.7","Wind Direction":"South","Wind SpeedMPH":"4.5","Gust SpeedMPH":"-","PrecipitationIn":"N/A","Events":"Fog","Conditions":"Light Freezing Fog","FullMetar":"METAR UWKD 021630Z 18002MPS 1100 0450SE R11/1900U FZFG BKN012 M04/M05 Q1008 R11/310045 NOSIG RMK QFE746/0995","WindDirDegrees":"180","DateUTC\r":"2/2/16 16:30\r"},{"TimeMSK":"8:00 PM","TemperatureF":"26.6","Dew PointF":"24.8","Humidity":"93","Sea Level PressureIn":"29.77","VisibilityMPH":"0.5","Wind Direction":"SSE","Wind SpeedMPH":"6.7","Gust SpeedMPH":"-","PrecipitationIn":"N/A","Events":"Fog","Conditions":"Light Freezing Fog","FullMetar":"METAR UWKD 021700Z 16003MPS 4200 0800SE FZFG BKN012 M03/M04 Q1008 R11/720045 TEMPO 0500 FZFG VV002 RMK QFE746/0995","WindDirDegrees":"160","DateUTC\r":"2/2/16 17:00\r"},{"TimeMSK":"8:30 PM","TemperatureF":"24.8","Dew PointF":"24.8","Humidity":"100","Sea Level PressureIn":"29.77","VisibilityMPH":"0.1","Wind Direction":"SSE","Wind SpeedMPH":"4.5","Gust SpeedMPH":"-","PrecipitationIn":"N/A","Events":"Fog","Conditions":"Light Freezing Fog","FullMetar":"METAR UWKD 021730Z 15002MPS 0150 0100SE FZFG BKN012 M04/M04 Q1008 R11/720045 NOSIG RMK QFE746/0994","WindDirDegrees":"150","DateUTC\r":"2/2/16 17:30\r"},{"TimeMSK":"9:00 PM","TemperatureF":"27","Dew PointF":"25","Humidity":"90","Sea Level PressureIn":"29.8","VisibilityMPH":"6","Wind Direction":"SSE","Wind SpeedMPH":"2.2","Gust SpeedMPH":"","PrecipitationIn":"","Events":"","Conditions":"Partly Cloudy","FullMetar":"AAXX 02181 27595 42997 31501 11026 21038 39940 40090 57017 83040","WindDirDegrees":"150","DateUTC\r":"2/2/16 18:00\r"},{"TimeMSK":"9:00 PM","TemperatureF":"24.8","Dew PointF":"24.8","Humidity":"100","Sea Level PressureIn":"29.77","VisibilityMPH":"0.1","Wind Direction":"SSE","Wind SpeedMPH":"6.7","Gust SpeedMPH":"-","PrecipitationIn":"N/A","Events":"Fog","Conditions":"Light Freezing Fog","FullMetar":"METAR UWKD 021800Z 16003MPS 0100 R11/0450N FZFG VV010 M04/M04 Q1008 R11/720045 NOSIG RMK QFE746/0994","WindDirDegrees":"160","DateUTC\r":"2/2/16 18:00\r"},{"TimeMSK":"9:30 PM","TemperatureF":"24.8","Dew PointF":"24.8","Humidity":"100","Sea Level PressureIn":"29.74","VisibilityMPH":"0.2","Wind Direction":"SSE","Wind SpeedMPH":"8.9","Gust SpeedMPH":"-","PrecipitationIn":"N/A","Events":"Fog","Conditions":"Light Freezing Fog","FullMetar":"METAR UWKD 021830Z 15004MPS 0250 0150SE R11/0800N FZFG VV001 M04/M04 Q1007 R11/720045 NOSIG RMK QBB050 QFE745/0994","WindDirDegrees":"150","DateUTC\r":"2/2/16 18:30\r"},{"TimeMSK":"10:00 PM","TemperatureF":"26.6","Dew PointF":"26.6","Humidity":"100","Sea Level PressureIn":"29.74","VisibilityMPH":"0.6","Wind Direction":"South","Wind SpeedMPH":"11.2","Gust SpeedMPH":"-","PrecipitationIn":"N/A","Events":"Fog","Conditions":"Light Freezing Fog","FullMetar":"METAR UWKD 021900Z 18005MPS 1000 0150SE FZFG OVC002 M03/M03 Q1007 R11/720045 NOSIG RMK QBB070 QFE745/0994","WindDirDegrees":"180","DateUTC\r":"2/2/16 19:00\r"},{"TimeMSK":"10:30 PM","TemperatureF":"26.6","Dew PointF":"24.8","Humidity":"93","Sea Level PressureIn":"29.74","VisibilityMPH":"0.2","Wind Direction":"South","Wind SpeedMPH":"11.2","Gust SpeedMPH":"-","PrecipitationIn":"N/A","Events":"Fog","Conditions":"Light Freezing Fog","FullMetar":"METAR UWKD 021930Z 17005MPS 0300 0200SE R11/1300U FZFG OVC002 M03/M04 Q1007 R11/720045 NOSIG RMK QBB070 QFE745/0993","WindDirDegrees":"170","DateUTC\r":"2/2/16 19:30\r"},{"TimeMSK":"11:00 PM","TemperatureF":"26.6","Dew PointF":"26.6","Humidity":"100","Sea Level PressureIn":"29.71","VisibilityMPH":"0.1","Wind Direction":"South","Wind SpeedMPH":"8.9","Gust SpeedMPH":"-","PrecipitationIn":"N/A","Events":"Fog","Conditions":"Light Freezing Fog","FullMetar":"METAR UWKD 022000Z 17004MPS 0200 0150SE R11/0800U FZFG OVC002 M03/M03 Q1006 R11/720045 NOSIG RMK QBB060 QFE744/0993","WindDirDegrees":"170","DateUTC\r":"2/2/16 20:00\r"},{"TimeMSK":"11:30 PM","TemperatureF":"26.6","Dew PointF":"26.6","Humidity":"100","Sea Level PressureIn":"29.71","VisibilityMPH":"0.6","Wind Direction":"South","Wind SpeedMPH":"8.9","Gust SpeedMPH":"-","PrecipitationIn":"N/A","Events":"Fog","Conditions":"Light Freezing Fog","FullMetar":"METAR UWKD 022030Z 17004MPS 1000 0800SE R11/P2000U FZFG OVC002 M03/M03 Q1006 R11/720045 NOSIG RMK QBB060 QFE744/0993","WindDirDegrees":"170","DateUTC\r":"2/2/16 20:30\r"},{"TimeMSK":"12:00 AM","TemperatureF":"27","Dew PointF":"25","Humidity":"89","Sea Level PressureIn":"29.73","VisibilityMPH":"0","Wind Direction":"SE","Wind SpeedMPH":"2.2","Gust SpeedMPH":"","PrecipitationIn":"","Events":"Fog","Conditions":"Heavy Fog","FullMetar":"AAXX 02211 27595 41993 91401 11030 21039 39918 40068 58022 74342 333 89/03","WindDirDegrees":"140","DateUTC\r":"2/2/16 21:00\r"},{"TimeMSK":"12:00 AM","TemperatureF":"26.6","Dew PointF":"26.6","Humidity":"100","Sea Level PressureIn":"29.68","VisibilityMPH":"-9999","Wind Direction":"SSE","Wind SpeedMPH":"8.9","Gust SpeedMPH":"-","PrecipitationIn":"N/A","Events":"","Conditions":"Overcast","FullMetar":"METAR UWKD 022100Z 16004MPS 3300 BR OVC002 M03/M03 Q1005 R11/720045 NOSIG RMK QBB080 QFE744/0992","WindDirDegrees":"160","DateUTC\r":"2/2/16 21:00\r"},{"TimeMSK":"12:30 AM","TemperatureF":"24.8","Dew PointF":"24.8","Humidity":"100","Sea Level PressureIn":"29.68","VisibilityMPH":"0.1","Wind Direction":"SE","Wind SpeedMPH":"8.9","Gust SpeedMPH":"-","PrecipitationIn":"N/A","Events":"Fog","Conditions":"Light Freezing Fog","FullMetar":"METAR UWKD 022130Z 14004MPS 0150 0100SE R11/0650N FZFG OVC002 M04/M04 Q1005 R11/720045 NOSIG RMK QBB060 QFE743/0991","WindDirDegrees":"140","DateUTC\r":"2/2/16 21:30\r"},{"TimeMSK":"1:00 AM","TemperatureF":"24.8","Dew PointF":"24.8","Humidity":"100","Sea Level PressureIn":"29.65","VisibilityMPH":"0.1","Wind Direction":"SSE","Wind SpeedMPH":"6.7","Gust SpeedMPH":"-","PrecipitationIn":"N/A","Events":"Fog","Conditions":"Light Freezing Fog","FullMetar":"METAR UWKD 022200Z 15003MPS 0200 0150SE R11/0800N FZFG OVC002 M04/M04 Q1004 R11/720045 NOSIG RMK QBB060 QFE743/0991","WindDirDegrees":"150","DateUTC\r":"2/2/16 22:00\r"},{"TimeMSK":"1:30 AM","TemperatureF":"24.8","Dew PointF":"24.8","Humidity":"100","Sea Level PressureIn":"29.65","VisibilityMPH":"0.1","Wind Direction":"SSE","Wind SpeedMPH":"8.9","Gust SpeedMPH":"-","PrecipitationIn":"N/A","Events":"Fog","Conditions":"Light Freezing Fog","FullMetar":"METAR UWKD 022230Z 15004MPS 0200 0150SE R11/1000N FZFG OVC002 M04/M04 Q1004 R11/720045 NOSIG RMK QBB070 QFE743/0991","WindDirDegrees":"150","DateUTC\r":"2/2/16 22:30\r"},{"TimeMSK":"2:00 AM","TemperatureF":"24.8","Dew PointF":"24.8","Humidity":"100","Sea Level PressureIn":"29.65","VisibilityMPH":"0.2","Wind Direction":"SSE","Wind SpeedMPH":"11.2","Gust SpeedMPH":"-","PrecipitationIn":"N/A","Events":"Fog","Conditions":"Light Freezing Fog","FullMetar":"METAR UWKD 022300Z 16005MPS 0300 0250SE R11/1200N FZFG OVC002 M04/M04 Q1004 R11/720045 NOSIG RMK QBB070 QFE743/0991","WindDirDegrees":"160","DateUTC\r":"2/2/16 23:00\r"},{"TimeMSK":"2:30 AM","TemperatureF":"24.8","Dew PointF":"24.8","Humidity":"100","Sea Level PressureIn":"29.62","VisibilityMPH":"1.3","Wind Direction":"SSE","Wind SpeedMPH":"11.2","Gust SpeedMPH":"-","PrecipitationIn":"N/A","Events":"Fog","Conditions":"Light Freezing Fog","FullMetar":"METAR UWKD 022330Z 16005MPS 2100 0650SE FZFG BKN002 M04/M04 Q1003 R11/720045 NOSIG RMK QBB060 QFE742/0990","WindDirDegrees":"160","DateUTC\r":"2/2/16 23:30\r"},{"TimeMSK":"3:00 AM","TemperatureF":"25","Dew PointF":"24","Humidity":"93","Sea Level PressureIn":"29.67","VisibilityMPH":"6","Wind Direction":"SE","Wind SpeedMPH":"4.5","Gust SpeedMPH":"","PrecipitationIn":"","Events":"Fog","Conditions":"Light Fog","FullMetar":"AAXX 03001 27595 41297 81402 11038 21046 39894 40045 58024 72841 886// 333 88705","WindDirDegrees":"140","DateUTC\r":"2/3/16 0:00\r"},{"TimeMSK":"3:00 AM","TemperatureF":"24.8","Dew PointF":"24.8","Humidity":"100","Sea Level PressureIn":"29.62","VisibilityMPH":"3.1","Wind Direction":"SSE","Wind SpeedMPH":"8.9","Gust SpeedMPH":"-","PrecipitationIn":"N/A","Events":"","Conditions":"Overcast","FullMetar":"METAR UWKD 030000Z 15004MPS 5000 BR OVC006 M04/M04 Q1003 R11/720045 NOSIG RMK QFE742/0990","WindDirDegrees":"150","DateUTC\r":"2/3/16 0:00\r"},{"TimeMSK":"3:30 AM","TemperatureF":"24.8","Dew PointF":"24.8","Humidity":"100","Sea Level PressureIn":"29.59","VisibilityMPH":"4.3","Wind Direction":"SSE","Wind SpeedMPH":"8.9","Gust SpeedMPH":"-","PrecipitationIn":"N/A","Events":"","Conditions":"Overcast","FullMetar":"METAR UWKD 030030Z 15004MPS 7000 OVC006 M04/M04 Q1002 R11/720045 NOSIG RMK QFE742/0989","WindDirDegrees":"150","DateUTC\r":"2/3/16 0:30\r"},{"TimeMSK":"4:00 AM","TemperatureF":"24.8","Dew PointF":"24.8","Humidity":"100","Sea Level PressureIn":"29.59","VisibilityMPH":"4.3","Wind Direction":"SSE","Wind SpeedMPH":"8.9","Gust SpeedMPH":"-","PrecipitationIn":"N/A","Events":"","Conditions":"Overcast","FullMetar":"METAR UWKD 030100Z 15004MPS 7000 OVC006 M04/M04 Q1002 R11/720045 NOSIG RMK QFE742/0989","WindDirDegrees":"150","DateUTC\r":"2/3/16 1:00\r"},{"TimeMSK":"4:30 AM","TemperatureF":"24.8","Dew PointF":"24.8","Humidity":"100","Sea Level PressureIn":"29.59","VisibilityMPH":"4.3","Wind Direction":"SE","Wind SpeedMPH":"8.9","Gust SpeedMPH":"-","PrecipitationIn":"N/A","Events":"","Conditions":"Overcast","FullMetar":"METAR UWKD 030130Z 14004MPS 7000 OVC006 M04/M04 Q1002 R11/720045 NOSIG RMK QFE741/0989","WindDirDegrees":"140","DateUTC\r":"2/3/16 1:30\r"},{"TimeMSK":"5:00 AM","TemperatureF":"24.8","Dew PointF":"23","Humidity":"93","Sea Level PressureIn":"29.56","VisibilityMPH":"4.3","Wind Direction":"SSE","Wind SpeedMPH":"11.2","Gust SpeedMPH":"-","PrecipitationIn":"N/A","Events":"","Conditions":"Overcast","FullMetar":"METAR UWKD 030200Z 15005MPS 7000 OVC006 M04/M05 Q1001 R11/720045 NOSIG RMK QFE741/0988","WindDirDegrees":"150","DateUTC\r":"2/3/16 2:00\r"},{"TimeMSK":"5:30 AM","TemperatureF":"24.8","Dew PointF":"23","Humidity":"93","Sea Level PressureIn":"29.56","VisibilityMPH":"5.6","Wind Direction":"SSE","Wind SpeedMPH":"11.2","Gust SpeedMPH":"-","PrecipitationIn":"N/A","Events":"Snow","Conditions":"Light Snow","FullMetar":"METAR UWKD 030230Z 16005MPS 9000 -SN OVC022 M04/M05 Q1001 R11/720045 TEMPO 2000 SN OVC006 RMK QFE741/0988","WindDirDegrees":"160","DateUTC\r":"2/3/16 2:30\r"},{"TimeMSK":"6:00 AM","TemperatureF":"24","Dew PointF":"23","Humidity":"94","Sea Level PressureIn":"29.61","VisibilityMPH":"2","Wind Direction":"SE","Wind SpeedMPH":"4.5","Gust SpeedMPH":"","PrecipitationIn":"","Events":"Snow","Conditions":"Light Snow","FullMetar":"AAXX 03031 27595 11296 81402 11042 21050 39875 40025 57020 69902 77172 8872/ 333 21042 43042 55000 88705","WindDirDegrees":"140","DateUTC\r":"2/3/16 3:00\r"},{"TimeMSK":"6:00 AM","TemperatureF":"24.8","Dew PointF":"24.8","Humidity":"100","Sea Level PressureIn":"29.56","VisibilityMPH":"2.8","Wind Direction":"SSE","Wind SpeedMPH":"11.2","Gust SpeedMPH":"-","PrecipitationIn":"N/A","Events":"Snow","Conditions":"Light Snow","FullMetar":"METAR UWKD 030300Z 16005MPS 4500 -SN OVC018 M04/M04 Q1001 R11/720045 TEMPO 2000 SN OVC006 RMK QFE741/0988","WindDirDegrees":"160","DateUTC\r":"2/3/16 3:00\r"},{"TimeMSK":"6:30 AM","TemperatureF":"24.8","Dew PointF":"24.8","Humidity":"100","Sea Level PressureIn":"29.56","VisibilityMPH":"-9999","Wind Direction":"SSE","Wind SpeedMPH":"8.9","Gust SpeedMPH":"-","PrecipitationIn":"N/A","Events":"Snow","Conditions":"Light Snow","FullMetar":"METAR UWKD 030330Z 15004MPS 4800 -SN OVC006 M04/M04 Q1001 R11/720045 TEMPO 2000 SN OVC005 RMK QFE740/0987","WindDirDegrees":"150","DateUTC\r":"2/3/16 3:30\r"},{"TimeMSK":"7:00 AM","TemperatureF":"24.8","Dew PointF":"24.8","Humidity":"100","Sea Level PressureIn":"29.56","VisibilityMPH":"5.6","Wind Direction":"SSE","Wind SpeedMPH":"11.2","Gust SpeedMPH":"-","PrecipitationIn":"N/A","Events":"Snow","Conditions":"Light Snow","FullMetar":"METAR UWKD 030400Z 16005MPS 9000 -SN OVC006 M04/M04 Q1001 R11/720045 TEMPO 2000 SN OVC005 RMK QFE740/0987","WindDirDegrees":"160","DateUTC\r":"2/3/16 4:00\r"},{"TimeMSK":"7:30 AM","TemperatureF":"24.8","Dew PointF":"24.8","Humidity":"100","Sea Level PressureIn":"29.53","VisibilityMPH":"6.2","Wind Direction":"SSE","Wind SpeedMPH":"13.4","Gust SpeedMPH":"-","PrecipitationIn":"N/A","Events":"Snow","Conditions":"Light Snow","FullMetar":"METAR UWKD 030430Z 16006MPS 9999 -SN OVC009 M04/M04 Q1000 R11/410240 TEMPO 2000 SN OVC005 RMK QFE740/0987","WindDirDegrees":"160","DateUTC\r":"2/3/16 4:30\r"},{"TimeMSK":"8:00 AM","TemperatureF":"24.8","Dew PointF":"24.8","Humidity":"100","Sea Level PressureIn":"29.53","VisibilityMPH":"4.3","Wind Direction":"South","Wind SpeedMPH":"13.4","Gust SpeedMPH":"-","PrecipitationIn":"N/A","Events":"Snow","Conditions":"Light Snow","FullMetar":"METAR UWKD 030500Z 17006MPS 7000 -SN OVC013 M04/M04 Q1000 R11/410240 TEMPO 2000 SN OVC005 RMK QFE740/0987","WindDirDegrees":"170","DateUTC\r":"2/3/16 5:00\r"},{"TimeMSK":"8:30 AM","TemperatureF":"24.8","Dew PointF":"24.8","Humidity":"100","Sea Level PressureIn":"29.53","VisibilityMPH":"5","Wind Direction":"South","Wind SpeedMPH":"11.2","Gust SpeedMPH":"-","PrecipitationIn":"N/A","Events":"Snow","Conditions":"Light Snow","FullMetar":"METAR UWKD 030530Z 17005MPS 8000 -SN OVC013 M04/M04 Q1000 R11/410240 TEMPO 2000 SN OVC005 RMK QFE740/0987","WindDirDegrees":"170","DateUTC\r":"2/3/16 5:30\r"},{"TimeMSK":"9:00 AM","TemperatureF":"26","Dew PointF":"24","Humidity":"89","Sea Level PressureIn":"29.57","VisibilityMPH":"2","Wind Direction":"South","Wind SpeedMPH":"4.5","Gust SpeedMPH":"","PrecipitationIn":"","Events":"Snow","Conditions":"Light Snow","FullMetar":"AAXX 03061 27595 41396 81702 11035 21044 39863 40013 57012 77172 8872/ 333 88708","WindDirDegrees":"170","DateUTC\r":"2/3/16 6:00\r"},{"TimeMSK":"9:00 AM","TemperatureF":"26.6","Dew PointF":"24.8","Humidity":"93","Sea Level PressureIn":"29.53","VisibilityMPH":"5","Wind Direction":"South","Wind SpeedMPH":"11.2","Gust SpeedMPH":"-","PrecipitationIn":"N/A","Events":"Snow","Conditions":"Light Snow","FullMetar":"METAR UWKD 030600Z 17005MPS 8000 -SN OVC011 M03/M04 Q1000 R11/420340 TEMPO 2000 SN OVC005 RMK QFE740/0987","WindDirDegrees":"170","DateUTC\r":"2/3/16 6:00\r"},{"TimeMSK":"9:30 AM","TemperatureF":"26.6","Dew PointF":"24.8","Humidity":"93","Sea Level PressureIn":"29.53","VisibilityMPH":"5.6","Wind Direction":"South","Wind SpeedMPH":"8.9","Gust SpeedMPH":"-","PrecipitationIn":"N/A","Events":"Snow","Conditions":"Light Snow","FullMetar":"METAR UWKD 030630Z 17004MPS 9000 -SN OVC009 M03/M04 Q1000 R11/420340 TEMPO 2000 SN OVC005 RMK QFE740/0987","WindDirDegrees":"170","DateUTC\r":"2/3/16 6:30\r"},{"TimeMSK":"10:00 AM","TemperatureF":"26.6","Dew PointF":"26.6","Humidity":"100","Sea Level PressureIn":"29.53","VisibilityMPH":"6.2","Wind Direction":"South","Wind SpeedMPH":"8.9","Gust SpeedMPH":"-","PrecipitationIn":"N/A","Events":"Snow","Conditions":"Light Snow","FullMetar":"METAR UWKD 030700Z 17004MPS 9999 -SN OVC009 M03/M03 Q1000 R11/420340 TEMPO 2000 SN OVC005 RMK QFE740/0987","WindDirDegrees":"170","DateUTC\r":"2/3/16 7:00\r"},{"TimeMSK":"10:30 AM","TemperatureF":"26.6","Dew PointF":"26.6","Humidity":"100","Sea Level PressureIn":"29.53","VisibilityMPH":"6.2","Wind Direction":"South","Wind SpeedMPH":"11.2","Gust SpeedMPH":"-","PrecipitationIn":"N/A","Events":"Snow","Conditions":"Light Snow","FullMetar":"METAR UWKD 030730Z 18005MPS 9999 -SN OVC008 M03/M03 Q1000 R11/420340 TEMPO 2000 SN OVC005 RMK QFE740/0986","WindDirDegrees":"180","DateUTC\r":"2/3/16 7:30\r"},{"TimeMSK":"11:00 AM","TemperatureF":"28.4","Dew PointF":"26.6","Humidity":"93","Sea Level PressureIn":"29.53","VisibilityMPH":"6.2","Wind Direction":"South","Wind SpeedMPH":"11.2","Gust SpeedMPH":"-","PrecipitationIn":"N/A","Events":"","Conditions":"Overcast","FullMetar":"METAR UWKD 030800Z 18005MPS 9999 OVC007 M02/M03 Q1000 R11/710045 TEMPO 2000 SN OVC005 RMK QFE740/0986","WindDirDegrees":"180","DateUTC\r":"2/3/16 8:00\r"},{"TimeMSK":"11:30 AM","TemperatureF":"28.4","Dew PointF":"28.4","Humidity":"100","Sea Level PressureIn":"29.5","VisibilityMPH":"5","Wind Direction":"South","Wind SpeedMPH":"11.2","Gust SpeedMPH":"-","PrecipitationIn":"N/A","Events":"Snow","Conditions":"Light Snow","FullMetar":"METAR UWKD 030830Z 18005MPS 8000 -SN OVC006 M02/M02 Q0999 R11/710045 TEMPO 2000 SN OVC005 RMK QFE739/0986","WindDirDegrees":"180","DateUTC\r":"2/3/16 8:30\r"},{"TimeMSK":"12:00 PM","TemperatureF":"28","Dew PointF":"26","Humidity":"90","Sea Level PressureIn":"29.55","VisibilityMPH":"6","Wind Direction":"SSE","Wind SpeedMPH":"2.2","Gust SpeedMPH":"","PrecipitationIn":"","Events":"","Conditions":"Partly Cloudy","FullMetar":"AAXX 03091 27595 41397 81501 11020 21032 39858 40007 57005 70272 886// 333 88708","WindDirDegrees":"150","DateUTC\r":"2/3/16 9:00\r"},{"TimeMSK":"12:00 PM","TemperatureF":"28.4","Dew PointF":"28.4","Humidity":"100","Sea Level PressureIn":"29.5","VisibilityMPH":"3.7","Wind Direction":"South","Wind SpeedMPH":"11.2","Gust SpeedMPH":"-","PrecipitationIn":"N/A","Events":"","Conditions":"Light Freezing Drizzle","FullMetar":"METAR UWKD 030900Z 18005MPS 6000 -FZDZ OVC006 M02/M02 Q0999 R11/710045 TEMPO 2000 SN OVC005 RMK QFE739/0986","WindDirDegrees":"180","DateUTC\r":"2/3/16 9:00\r"},{"TimeMSK":"12:30 PM","TemperatureF":"28.4","Dew PointF":"28.4","Humidity":"100","Sea Level PressureIn":"29.5","VisibilityMPH":"5.6","Wind Direction":"South","Wind SpeedMPH":"8.9","Gust SpeedMPH":"-","PrecipitationIn":"N/A","Events":"","Conditions":"Light Freezing Drizzle","FullMetar":"METAR UWKD 030930Z 17004MPS 9000 -FZDZ OVC006 M02/M02 Q0999 R11/710045 TEMPO 2000 SN OVC005 RMK QFE739/0986","WindDirDegrees":"170","DateUTC\r":"2/3/16 9:30\r"},{"TimeMSK":"1:00 PM","TemperatureF":"30.2","Dew PointF":"30.2","Humidity":"100","Sea Level PressureIn":"29.5","VisibilityMPH":"6.2","Wind Direction":"South","Wind SpeedMPH":"8.9","Gust SpeedMPH":"-","PrecipitationIn":"N/A","Events":"","Conditions":"Overcast","FullMetar":"METAR UWKD 031000Z 18004MPS 9999 OVC007 M01/M01 Q0999 R11/710045 TEMPO 2000 SN OVC005 RMK QFE739/0986","WindDirDegrees":"180","DateUTC\r":"2/3/16 10:00\r"},{"TimeMSK":"1:30 PM","TemperatureF":"30.2","Dew PointF":"30.2","Humidity":"100","Sea Level PressureIn":"29.5","VisibilityMPH":"6.2","Wind Direction":"South","Wind SpeedMPH":"11.2","Gust SpeedMPH":"-","PrecipitationIn":"N/A","Events":"","Conditions":"Overcast","FullMetar":"METAR UWKD 031030Z 18005MPS 9999 OVC007 M01/M01 Q0999 R11/710045 TEMPO 2000 SN OVC005 RMK QFE739/0985","WindDirDegrees":"180","DateUTC\r":"2/3/16 10:30\r"},{"TimeMSK":"2:00 PM","TemperatureF":"30.2","Dew PointF":"30.2","Humidity":"100","Sea Level PressureIn":"29.5","VisibilityMPH":"6.2","Wind Direction":"South","Wind SpeedMPH":"8.9","Gust SpeedMPH":"-","PrecipitationIn":"N/A","Events":"","Conditions":"Overcast","FullMetar":"METAR UWKD 031100Z 17004MPS 9999 OVC008 M01/M01 Q0999 R11/710045 TEMPO 2000 SN OVC005 RMK QFE739/0985","WindDirDegrees":"170","DateUTC\r":"2/3/16 11:00\r"},{"TimeMSK":"2:30 PM","TemperatureF":"32","Dew PointF":"30.2","Humidity":"93","Sea Level PressureIn":"29.5","VisibilityMPH":"6.2","Wind Direction":"South","Wind SpeedMPH":"11.2","Gust SpeedMPH":"-","PrecipitationIn":"N/A","Events":"Rain-Snow","Conditions":"Light Snow","FullMetar":"METAR UWKD 031130Z 18005MPS 9999 -SNRA OVC030 M00/M01 Q0999 R11/710045 TEMPO 2000 SNRA OVC005 RMK QFE739/0985","WindDirDegrees":"180","DateUTC\r":"2/3/16 11:30\r"},{"TimeMSK":"3:00 PM","TemperatureF":"31","Dew PointF":"29","Humidity":"88","Sea Level PressureIn":"29.53","VisibilityMPH":"2","Wind Direction":"SSE","Wind SpeedMPH":"2.2","Gust SpeedMPH":"","PrecipitationIn":"","Events":"Snow","Conditions":"Light Snow","FullMetar":"AAXX 03121 27595 41396 81501 11005 21018 39850 49998 56008 77172 8872/ 333 88707","WindDirDegrees":"150","DateUTC\r":"2/3/16 12:00\r"},{"TimeMSK":"3:00 PM","TemperatureF":"32","Dew PointF":"30.2","Humidity":"93","Sea Level PressureIn":"29.5","VisibilityMPH":"6.2","Wind Direction":"South","Wind SpeedMPH":"11.2","Gust SpeedMPH":"-","PrecipitationIn":"N/A","Events":"Rain-Snow","Conditions":"Light Snow","FullMetar":"METAR UWKD 031200Z 18005MPS 9999 -SNRA OVC010 M00/M01 Q0999 R11/710045 TEMPO 2000 SNRA OVC005 RMK QFE739/0985","WindDirDegrees":"180","DateUTC\r":"2/3/16 12:00\r"},{"TimeMSK":"3:30 PM","TemperatureF":"32","Dew PointF":"32","Humidity":"100","Sea Level PressureIn":"29.47","VisibilityMPH":"6.2","Wind Direction":"South","Wind SpeedMPH":"8.9","Gust SpeedMPH":"-","PrecipitationIn":"N/A","Events":"","Conditions":"Mostly Cloudy","FullMetar":"METAR UWKD 031230Z 17004MPS 9999 BKN011 M00/M00 Q0998 R11/710045 NOSIG RMK QFE739/0985","WindDirDegrees":"170","DateUTC\r":"2/3/16 12:30\r"},{"TimeMSK":"4:00 PM","TemperatureF":"32","Dew PointF":"32","Humidity":"100","Sea Level PressureIn":"29.47","VisibilityMPH":"6.2","Wind Direction":"South","Wind SpeedMPH":"11.2","Gust SpeedMPH":"-","PrecipitationIn":"N/A","Events":"","Conditions":"Overcast","FullMetar":"METAR UWKD 031300Z 17005MPS 9999 OVC021 00/M00 Q0998 R11/710045 NOSIG RMK QFE738/0985","WindDirDegrees":"170","DateUTC\r":"2/3/16 13:00\r"},{"TimeMSK":"4:30 PM","TemperatureF":"32","Dew PointF":"32","Humidity":"100","Sea Level PressureIn":"29.47","VisibilityMPH":"6.2","Wind Direction":"South","Wind SpeedMPH":"13.4","Gust SpeedMPH":"-","PrecipitationIn":"N/A","Events":"","Conditions":"Overcast","FullMetar":"METAR UWKD 031330Z 17006MPS 9999 OVC014 00/M00 Q0998 R11/2/0050 NOSIG RMK QFE738/0984","WindDirDegrees":"170","DateUTC\r":"2/3/16 13:30\r"},{"TimeMSK":"5:00 PM","TemperatureF":"32","Dew PointF":"32","Humidity":"100","Sea Level PressureIn":"29.44","VisibilityMPH":"6.2","Wind Direction":"SSE","Wind SpeedMPH":"8.9","Gust SpeedMPH":"-","PrecipitationIn":"N/A","Events":"","Conditions":"Overcast","FullMetar":"METAR UWKD 031400Z 15004MPS 9999 OVC009 00/M00 Q0997 R11/2/0050 NOSIG RMK QFE738/0984","WindDirDegrees":"150","DateUTC\r":"2/3/16 14:00\r"},{"TimeMSK":"5:30 PM","TemperatureF":"32","Dew PointF":"32","Humidity":"100","Sea Level PressureIn":"29.44","VisibilityMPH":"6.2","Wind Direction":"SSE","Wind SpeedMPH":"13.4","Gust SpeedMPH":"-","PrecipitationIn":"N/A","Events":"Rain-Snow","Conditions":"Light Snow","FullMetar":"METAR UWKD 031430Z 16006MPS 9999 -SNRA OVC007 00/M00 Q0997 R11/2/0050 NOSIG RMK QFE738/0984","WindDirDegrees":"160","DateUTC\r":"2/3/16 14:30\r"},{"TimeMSK":"6:00 PM","TemperatureF":"32","Dew PointF":"29","Humidity":"86","Sea Level PressureIn":"29.49","VisibilityMPH":"2","Wind Direction":"SSE","Wind SpeedMPH":"4.5","Gust SpeedMPH":"","PrecipitationIn":"","Events":"Snow","Conditions":"Light Snow","FullMetar":"AAXX 03151 27595 11296 81502 11000 21014 39838 49986 57012 69932 77172 8872/ 333 10001 88706","WindDirDegrees":"150","DateUTC\r":"2/3/16 15:00\r"},{"TimeMSK":"6:00 PM","TemperatureF":"32","Dew PointF":"32","Humidity":"100","Sea Level PressureIn":"29.44","VisibilityMPH":"0.8","Wind Direction":"South","Wind SpeedMPH":"13.4","Gust SpeedMPH":"-","PrecipitationIn":"N/A","Events":"Rain-Snow","Conditions":"Snow","FullMetar":"METAR UWKD 031500Z 17006MPS 1300 SNRA OVC005 00/M00 Q0997 R11/2/0050 NOSIG RMK QFE738/0984","WindDirDegrees":"170","DateUTC\r":"2/3/16 15:00\r"},{"TimeMSK":"6:30 PM","TemperatureF":"32","Dew PointF":"32","Humidity":"100","Sea Level PressureIn":"29.44","VisibilityMPH":"1.3","Wind Direction":"South","Wind SpeedMPH":"11.2","Gust SpeedMPH":"-","PrecipitationIn":"N/A","Events":"Rain-Snow","Conditions":"Light Snow","FullMetar":"METAR UWKD 031530Z 17005MPS 2100 -SNRA OVC004 00/M00 Q0997 R11/5/0332 NOSIG RMK QFE738/0984","WindDirDegrees":"170","DateUTC\r":"2/3/16 15:30\r"},{"TimeMSK":"7:00 PM","TemperatureF":"32","Dew PointF":"32","Humidity":"100","Sea Level PressureIn":"29.44","VisibilityMPH":"5","Wind Direction":"South","Wind SpeedMPH":"11.2","Gust SpeedMPH":"-","PrecipitationIn":"N/A","Events":"Rain-Snow","Conditions":"Light Snow","FullMetar":"METAR UWKD 031600Z 18005MPS 8000 -SNRA OVC006 00/00 Q0997 R11/5/0332 NOSIG RMK QFE737/0983","WindDirDegrees":"180","DateUTC\r":"2/3/16 16:00\r"},{"TimeMSK":"7:30 PM","TemperatureF":"32","Dew PointF":"32","Humidity":"100","Sea Level PressureIn":"29.44","VisibilityMPH":"1.5","Wind Direction":"South","Wind SpeedMPH":"11.2","Gust SpeedMPH":"-","PrecipitationIn":"N/A","Events":"Rain-Snow","Conditions":"Light Snow","FullMetar":"METAR UWKD 031630Z 18005MPS 2400 -SNRA OVC006 00/00 Q0997 R11/551037 NOSIG RMK QFE737/0983","WindDirDegrees":"180","DateUTC\r":"2/3/16 16:30\r"},{"TimeMSK":"8:00 PM","TemperatureF":"32","Dew PointF":"32","Humidity":"100","Sea Level PressureIn":"29.42","VisibilityMPH":"3.1","Wind Direction":"South","Wind SpeedMPH":"11.2","Gust SpeedMPH":"-","PrecipitationIn":"N/A","Events":"Rain-Snow","Conditions":"Light Snow","FullMetar":"METAR UWKD 031700Z 17005MPS 5000 -SNRA OVC005 00/00 Q0996 R11/551037 NOSIG RMK QFE737/0983","WindDirDegrees":"170","DateUTC\r":"2/3/16 17:00\r"},{"TimeMSK":"8:30 PM","TemperatureF":"32","Dew PointF":"32","Humidity":"100","Sea Level PressureIn":"29.42","VisibilityMPH":"1.2","Wind Direction":"South","Wind SpeedMPH":"11.2","Gust SpeedMPH":"-","PrecipitationIn":"N/A","Events":"Rain-Snow","Conditions":"Snow","FullMetar":"METAR UWKD 031730Z 17005MPS 1900 SNRA OVC004 00/00 Q0996 R11/551037 NOSIG RMK QFE737/0983","WindDirDegrees":"170","DateUTC\r":"2/3/16 17:30\r"},{"TimeMSK":"9:00 PM","TemperatureF":"33","Dew PointF":"31","Humidity":"88","Sea Level PressureIn":"29.44","VisibilityMPH":"2","Wind Direction":"SSE","Wind SpeedMPH":"2.2","Gust SpeedMPH":"","PrecipitationIn":"","Events":"Snow","Conditions":"Light Snow","FullMetar":"AAXX 03181 27595 41296 81501 10003 21007 39823 49970 57015 77172 8872/ 333 88506","WindDirDegrees":"150","DateUTC\r":"2/3/16 18:00\r"},{"TimeMSK":"9:00 PM","TemperatureF":"32","Dew PointF":"32","Humidity":"100","Sea Level PressureIn":"29.42","VisibilityMPH":"1","Wind Direction":"South","Wind SpeedMPH":"11.2","Gust SpeedMPH":"-","PrecipitationIn":"N/A","Events":"Rain-Snow","Conditions":"Snow","FullMetar":"METAR UWKD 031800Z 17005MPS 1600 R11/P2000N SNRA OVC003 00/00 Q0996 R11/551037 TEMPO 1000 SNRA RMK QFE737/0982","WindDirDegrees":"170","DateUTC\r":"2/3/16 18:00\r"},{"TimeMSK":"9:30 PM","TemperatureF":"32","Dew PointF":"32","Humidity":"100","Sea Level PressureIn":"29.39","VisibilityMPH":"1.4","Wind Direction":"South","Wind SpeedMPH":"11.2","Gust SpeedMPH":"-","PrecipitationIn":"N/A","Events":"Rain-Snow","Conditions":"Light Snow","FullMetar":"METAR UWKD 031830Z 17005MPS 2200 -SNRA OVC003 00/00 Q0995 R11/551037 TEMPO 1000 SNRA OVC002 RMK QFE736/0982","WindDirDegrees":"170","DateUTC\r":"2/3/16 18:30\r"},{"TimeMSK":"10:00 PM","TemperatureF":"32","Dew PointF":"32","Humidity":"100","Sea Level PressureIn":"29.39","VisibilityMPH":"1.7","Wind Direction":"South","Wind SpeedMPH":"11.2","Gust SpeedMPH":"-","PrecipitationIn":"N/A","Events":"Rain-Snow","Conditions":"Light Snow","FullMetar":"METAR UWKD 031900Z 17005MPS 2700 -SNRA OVC003 00/00 Q0995 R11/551037 TEMPO 2000 SNRA OVC002 RMK QFE736/0982","WindDirDegrees":"170","DateUTC\r":"2/3/16 19:00\r"},{"TimeMSK":"10:30 PM","TemperatureF":"32","Dew PointF":"32","Humidity":"100","Sea Level PressureIn":"29.39","VisibilityMPH":"-9999","Wind Direction":"South","Wind SpeedMPH":"8.9","Gust SpeedMPH":"-","PrecipitationIn":"N/A","Events":"Rain-Snow","Conditions":"Light Snow","FullMetar":"METAR UWKD 031930Z 17004MPS 3200 -SNRA OVC004 00/00 Q0995 R11/551037 TEMPO 2000 SNRA OVC002 RMK QFE736/0982","WindDirDegrees":"170","DateUTC\r":"2/3/16 19:30\r"},{"TimeMSK":"11:00 PM","TemperatureF":"32","Dew PointF":"32","Humidity":"100","Sea Level PressureIn":"29.39","VisibilityMPH":"2.5","Wind Direction":"South","Wind SpeedMPH":"8.9","Gust SpeedMPH":"-","PrecipitationIn":"N/A","Events":"Rain-Snow","Conditions":"Light Snow","FullMetar":"METAR UWKD 032000Z 18004MPS 4000 -SNRA OVC004 00/00 Q0995 R11/551037 TEMPO 2000 SNRA OVC002 RMK QFE736/0981","WindDirDegrees":"180","DateUTC\r":"2/3/16 20:00\r"},{"TimeMSK":"11:30 PM","TemperatureF":"32","Dew PointF":"32","Humidity":"100","Sea Level PressureIn":"29.39","VisibilityMPH":"1.8","Wind Direction":"South","Wind SpeedMPH":"8.9","Gust SpeedMPH":"-","PrecipitationIn":"N/A","Events":"Rain-Snow","Conditions":"Light Snow","FullMetar":"METAR UWKD 032030Z 19004MPS 2900 -SNRA OVC005 00/00 Q0995 R11/551037 TEMPO 2000 SNRA OVC002 RMK QFE736/0981","WindDirDegrees":"190","DateUTC\r":"2/3/16 20:30\r"},{"TimeMSK":"12:00 AM","TemperatureF":"32","Dew PointF":"31","Humidity":"94","Sea Level PressureIn":"29.42","VisibilityMPH":"2","Wind Direction":"South","Wind SpeedMPH":"2.2","Gust SpeedMPH":"","PrecipitationIn":"","Events":"Snow","Conditions":"Light Snow","FullMetar":"AAXX 03211 27595 41396 81701 10002 21006 39813 49960 56010 77172 8872/ 333 88507","WindDirDegrees":"170","DateUTC\r":"2/3/16 21:00\r"},{"TimeMSK":"12:00 AM","TemperatureF":"32","Dew PointF":"32","Humidity":"100","Sea Level PressureIn":"29.39","VisibilityMPH":"-9999","Wind Direction":"South","Wind SpeedMPH":"6.7","Gust SpeedMPH":"-","PrecipitationIn":"N/A","Events":"Rain-Snow","Conditions":"Light Snow","FullMetar":"METAR UWKD 032100Z 19003MPS 4100 -SNRA OVC007 00/00 Q0995 R11/551037 TEMPO 2000 SNRA OVC003 RMK QFE736/0981","WindDirDegrees":"190","DateUTC\r":"2/3/16 21:00\r"},{"TimeMSK":"12:30 AM","TemperatureF":"32","Dew PointF":"32","Humidity":"100","Sea Level PressureIn":"29.39","VisibilityMPH":"3.1","Wind Direction":"South","Wind SpeedMPH":"6.7","Gust SpeedMPH":"-","PrecipitationIn":"N/A","Events":"Rain-Snow","Conditions":"Light Snow","FullMetar":"METAR UWKD 032130Z 19003MPS 5000 -SNRA OVC008 00/00 Q0995 R11/551037 TEMPO 2000 SNRA OVC005 RMK QFE736/0981","WindDirDegrees":"190","DateUTC\r":"2/3/16 21:30\r"},{"TimeMSK":"1:00 AM","TemperatureF":"32","Dew PointF":"32","Humidity":"100","Sea Level PressureIn":"29.39","VisibilityMPH":"6.2","Wind Direction":"SSW","Wind SpeedMPH":"6.7","Gust SpeedMPH":"-","PrecipitationIn":"N/A","Events":"Rain-Snow","Conditions":"Light Snow","FullMetar":"METAR UWKD 032200Z 20003MPS 9999 -SNRA OVC007 00/00 Q0995 R11/551037 TEMPO 2000 SNRA OVC005 RMK QFE736/0981","WindDirDegrees":"200","DateUTC\r":"2/3/16 22:00\r"},{"TimeMSK":"1:30 AM","TemperatureF":"33.8","Dew PointF":"33.8","Humidity":"100","Sea Level PressureIn":"29.39","VisibilityMPH":"6.2","Wind Direction":"WSW","Wind SpeedMPH":"8.9","Gust SpeedMPH":"-","PrecipitationIn":"N/A","Events":"","Conditions":"Overcast","FullMetar":"METAR UWKD 032230Z 25004MPS 9999 OVC007 01/01 Q0995 R29/551037 TEMPO 2000 SNRA OVC005 RMK QFE735/0980","WindDirDegrees":"250","DateUTC\r":"2/3/16 22:30\r"},{"TimeMSK":"2:00 AM","TemperatureF":"33.8","Dew PointF":"33.8","Humidity":"100","Sea Level PressureIn":"29.39","VisibilityMPH":"6.2","Wind Direction":"WSW","Wind SpeedMPH":"6.7","Gust SpeedMPH":"-","PrecipitationIn":"N/A","Events":"","Conditions":"Overcast","FullMetar":"METAR UWKD 032300Z 25003MPS 9999 OVC009 01/01 Q0995 R29/551037 TEMPO 2000 SNRA OVC005 RMK QFE735/0980","WindDirDegrees":"250","DateUTC\r":"2/3/16 23:00\r"},{"TimeMSK":"2:30 AM","TemperatureF":"33.8","Dew PointF":"33.8","Humidity":"100","Sea Level PressureIn":"29.39","VisibilityMPH":"6.2","Wind Direction":"SW","Wind SpeedMPH":"4.5","Gust SpeedMPH":"-","PrecipitationIn":"N/A","Events":"","Conditions":"Overcast","FullMetar":"METAR UWKD 032330Z 23002MPS 190V250 9999 OVC007 01/01 Q0995 R29/551037 TEMPO 2000 SNRA OVC005 RMK QFE735/0981","WindDirDegrees":"230","DateUTC\r":"2/3/16 23:30\r"},{"TimeMSK":"3:00 AM","TemperatureF":"33","Dew PointF":"32","Humidity":"93","Sea Level PressureIn":"29.42","VisibilityMPH":"6","Wind Direction":"WSW","Wind SpeedMPH":"2.2","Gust SpeedMPH":"","PrecipitationIn":"","Events":"","Conditions":"Partly Cloudy","FullMetar":"AAXX 04001 27595 41597 82501 10008 21001 39817 49963 53004 70272 885// 333 88628","WindDirDegrees":"250","DateUTC\r":"2/4/16 0:00\r"},{"TimeMSK":"3:00 AM","TemperatureF":"33.8","Dew PointF":"33.8","Humidity":"100","Sea Level PressureIn":"29.39","VisibilityMPH":"6.2","Wind Direction":"WSW","Wind SpeedMPH":"8.9","Gust SpeedMPH":"-","PrecipitationIn":"N/A","Events":"","Conditions":"Overcast","FullMetar":"METAR UWKD 040000Z 25004MPS 9999 OVC008 01/01 Q0995 R29/551037 TEMPO 2000 BR BKN005 RMK QFE735/0981","WindDirDegrees":"250","DateUTC\r":"2/4/16 0:00\r"},{"TimeMSK":"3:30 AM","TemperatureF":"33.8","Dew PointF":"33.8","Humidity":"100","Sea Level PressureIn":"29.39","VisibilityMPH":"6.2","Wind Direction":"West","Wind SpeedMPH":"8.9","Gust SpeedMPH":"-","PrecipitationIn":"N/A","Events":"","Conditions":"Overcast","FullMetar":"METAR UWKD 040030Z 26004MPS 9999 OVC007 01/01 Q0995 R29/551037 TEMPO 2000 BR BKN005 RMK QFE736/0981","WindDirDegrees":"260","DateUTC\r":"2/4/16 0:30\r"},{"TimeMSK":"4:00 AM","TemperatureF":"33.8","Dew PointF":"33.8","Humidity":"100","Sea Level PressureIn":"29.39","VisibilityMPH":"6.2","Wind Direction":"West","Wind SpeedMPH":"8.9","Gust SpeedMPH":"-","PrecipitationIn":"N/A","Events":"","Conditions":"Overcast","FullMetar":"METAR UWKD 040100Z 26004MPS 9999 OVC007 01/01 Q0995 R29/551037 NOSIG RMK QFE736/0981","WindDirDegrees":"260","DateUTC\r":"2/4/16 1:00\r"},{"TimeMSK":"4:30 AM","TemperatureF":"33.8","Dew PointF":"33.8","Humidity":"100","Sea Level PressureIn":"29.42","VisibilityMPH":"5.6","Wind Direction":"WSW","Wind SpeedMPH":"8.9","Gust SpeedMPH":"-","PrecipitationIn":"N/A","Events":"","Conditions":"Overcast","FullMetar":"METAR UWKD 040130Z 25004MPS 9000 OVC007 01/01 Q0996 R29/320037 NOSIG RMK QFE736/0981","WindDirDegrees":"250","DateUTC\r":"2/4/16 1:30\r"},{"TimeMSK":"5:00 AM","TemperatureF":"33.8","Dew PointF":"33.8","Humidity":"100","Sea Level PressureIn":"29.42","VisibilityMPH":"5","Wind Direction":"West","Wind SpeedMPH":"11.2","Gust SpeedMPH":"-","PrecipitationIn":"N/A","Events":"Rain-Snow","Conditions":"Light Snow","FullMetar":"METAR UWKD 040200Z 26005MPS 8000 -SNRA OVC007 01/01 Q0996 R29/320037 NOSIG RMK QFE736/0982","WindDirDegrees":"260","DateUTC\r":"2/4/16 2:00\r"},{"TimeMSK":"5:30 AM","TemperatureF":"33.8","Dew PointF":"33.8","Humidity":"100","Sea Level PressureIn":"29.44","VisibilityMPH":"4.3","Wind Direction":"West","Wind SpeedMPH":"11.2","Gust SpeedMPH":"-","PrecipitationIn":"N/A","Events":"Rain-Snow","Conditions":"Light Snow","FullMetar":"METAR UWKD 040230Z 27005MPS 7000 -SNRA OVC007 01/01 Q0997 R29/320037 NOSIG RMK QFE736/0982","WindDirDegrees":"270","DateUTC\r":"2/4/16 2:30\r"},{"TimeMSK":"6:00 AM","TemperatureF":"33","Dew PointF":"31","Humidity":"92","Sea Level PressureIn":"29.48","VisibilityMPH":"6","Wind Direction":"WNW","Wind SpeedMPH":"6.7","Gust SpeedMPH":"","PrecipitationIn":"","Events":"","Conditions":"Overcast","FullMetar":"AAXX 04031 27595 12497 82903 10007 21003 39835 49982 53018 60022 886// 333 21001 43042 55000 88710","WindDirDegrees":"290","DateUTC\r":"2/4/16 3:00\r"},{"TimeMSK":"6:00 AM","TemperatureF":"33.8","Dew PointF":"33.8","Humidity":"100","Sea Level PressureIn":"29.44","VisibilityMPH":"5.6","Wind Direction":"West","Wind SpeedMPH":"13.4","Gust SpeedMPH":"-","PrecipitationIn":"N/A","Events":"Rain-Snow","Conditions":"Light Snow","FullMetar":"METAR UWKD 040300Z 28006MPS 9000 -SNRA OVC008 01/01 Q0997 R29/320037 NOSIG RMK QFE737/0982","WindDirDegrees":"280","DateUTC\r":"2/4/16 3:00\r"},{"TimeMSK":"6:30 AM","TemperatureF":"33.8","Dew PointF":"33.8","Humidity":"100","Sea Level PressureIn":"29.44","VisibilityMPH":"6.2","Wind Direction":"West","Wind SpeedMPH":"13.4","Gust SpeedMPH":"-","PrecipitationIn":"N/A","Events":"Rain-Snow","Conditions":"Light Snow","FullMetar":"METAR UWKD 040330Z 27006MPS 9999 -SNRA OVC031 01/01 Q0997 R29/350035 NOSIG RMK QFE737/0983","WindDirDegrees":"270","DateUTC\r":"2/4/16 3:30\r"},{"TimeMSK":"7:00 AM","TemperatureF":"33.8","Dew PointF":"33.8","Humidity":"100","Sea Level PressureIn":"29.44","VisibilityMPH":"4.3","Wind Direction":"West","Wind SpeedMPH":"11.2","Gust SpeedMPH":"-","PrecipitationIn":"N/A","Events":"Rain-Snow","Conditions":"Light Snow","FullMetar":"METAR UWKD 040400Z 27005MPS 7000 -SNRA OVC007 01/01 Q0997 R29/350035 NOSIG RMK QFE737/0983","WindDirDegrees":"270","DateUTC\r":"2/4/16 4:00\r"},{"TimeMSK":"7:30 AM","TemperatureF":"33.8","Dew PointF":"33.8","Humidity":"100","Sea Level PressureIn":"29.47","VisibilityMPH":"5.6","Wind Direction":"West","Wind SpeedMPH":"11.2","Gust SpeedMPH":"-","PrecipitationIn":"N/A","Events":"Rain-Snow","Conditions":"Light Snow","FullMetar":"METAR UWKD 040430Z 26005MPS 9000 -SNRA OVC033 01/01 Q0998 R29/350035 NOSIG RMK QFE737/0983","WindDirDegrees":"260","DateUTC\r":"2/4/16 4:30\r"},{"TimeMSK":"8:00 AM","TemperatureF":"33.8","Dew PointF":"32","Humidity":"93","Sea Level PressureIn":"29.47","VisibilityMPH":"6.2","Wind Direction":"WSW","Wind SpeedMPH":"11.2","Gust SpeedMPH":"-","PrecipitationIn":"N/A","Events":"","Conditions":"Overcast","FullMetar":"METAR UWKD 040500Z 25005MPS 9999 OVC032 01/00 Q0998 R29/350035 NOSIG RMK QFE737/0983","WindDirDegrees":"250","DateUTC\r":"2/4/16 5:00\r"},{"TimeMSK":"8:30 AM","TemperatureF":"33.8","Dew PointF":"32","Humidity":"93","Sea Level PressureIn":"29.47","VisibilityMPH":"6.2","Wind Direction":"WSW","Wind SpeedMPH":"8.9","Gust SpeedMPH":"-","PrecipitationIn":"N/A","Events":"","Conditions":"Mostly Cloudy","FullMetar":"METAR UWKD 040530Z 25004MPS 9999 BKN031 01/00 Q0998 R29/350035 NOSIG RMK QFE738/0984","WindDirDegrees":"250","DateUTC\r":"2/4/16 5:30\r"},{"TimeMSK":"9:00 AM","TemperatureF":"34","Dew PointF":"32","Humidity":"87","Sea Level PressureIn":"29.52","VisibilityMPH":"6","Wind Direction":"WSW","Wind SpeedMPH":"4.5","Gust SpeedMPH":"","PrecipitationIn":"","Events":"","Conditions":"Overcast","FullMetar":"AAXX 04061 27595 42697 82402 10012 21002 39849 49995 52013 8814/","WindDirDegrees":"240","DateUTC\r":"2/4/16 6:00\r"},{"TimeMSK":"9:00 AM","TemperatureF":"33.8","Dew PointF":"32","Humidity":"93","Sea Level PressureIn":"29.47","VisibilityMPH":"6.2","Wind Direction":"WSW","Wind SpeedMPH":"8.9","Gust SpeedMPH":"-","PrecipitationIn":"N/A","Events":"","Conditions":"Mostly Cloudy","FullMetar":"METAR UWKD 040600Z 25004MPS 9999 BKN029 01/M00 Q0998 R29/390035 NOSIG RMK QFE738/0984","WindDirDegrees":"250","DateUTC\r":"2/4/16 6:00\r"},{"TimeMSK":"9:30 AM","TemperatureF":"33.8","Dew PointF":"32","Humidity":"93","Sea Level PressureIn":"29.5","VisibilityMPH":"6.2","Wind Direction":"WSW","Wind SpeedMPH":"8.9","Gust SpeedMPH":"-","PrecipitationIn":"N/A","Events":"","Conditions":"Mostly Cloudy","FullMetar":"METAR UWKD 040630Z 24004MPS 9999 BKN021 01/M00 Q0999 R29/390035 NOSIG RMK QFE738/0984","WindDirDegrees":"240","DateUTC\r":"2/4/16 6:30\r"},{"TimeMSK":"10:00 AM","TemperatureF":"35.6","Dew PointF":"32","Humidity":"87","Sea Level PressureIn":"29.5","VisibilityMPH":"6.2","Wind Direction":"SW","Wind SpeedMPH":"6.7","Gust SpeedMPH":"-","PrecipitationIn":"N/A","Events":"","Conditions":"Mostly Cloudy","FullMetar":"METAR UWKD 040700Z 23003MPS 9999 BKN021 02/00 Q0999 R29/390035 NOSIG RMK QFE738/0984","WindDirDegrees":"230","DateUTC\r":"2/4/16 7:00\r"},{"TimeMSK":"10:30 AM","TemperatureF":"35.6","Dew PointF":"32","Humidity":"87","Sea Level PressureIn":"29.5","VisibilityMPH":"6.2","Wind Direction":"South","Wind SpeedMPH":"6.7","Gust SpeedMPH":"-","PrecipitationIn":"N/A","Events":"","Conditions":"Mostly Cloudy","FullMetar":"METAR UWKD 040730Z 19003MPS 9999 BKN015 02/M00 Q0999 R29/6/0150 NOSIG RMK QFE738/0984","WindDirDegrees":"190","DateUTC\r":"2/4/16 7:30\r"},{"TimeMSK":"11:00 AM","TemperatureF":"35.6","Dew PointF":"32","Humidity":"87","Sea Level PressureIn":"29.5","VisibilityMPH":"6.2","Wind Direction":"SSW","Wind SpeedMPH":"8.9","Gust SpeedMPH":"-","PrecipitationIn":"N/A","Events":"","Conditions":"Overcast","FullMetar":"METAR UWKD 040800Z 21004MPS 9999 OVC010 02/00 Q0999 R29/6/0150 NOSIG RMK QFE738/0985","WindDirDegrees":"210","DateUTC\r":"2/4/16 8:00\r"},{"TimeMSK":"11:30 AM","TemperatureF":"35.6","Dew PointF":"33.8","Humidity":"93","Sea Level PressureIn":"29.5","VisibilityMPH":"6.2","Wind Direction":"SSW","Wind SpeedMPH":"11.2","Gust SpeedMPH":"-","PrecipitationIn":"N/A","Events":"","Conditions":"Overcast","FullMetar":"METAR UWKD 040830Z 21005MPS 9999 OVC008 02/01 Q0999 R29/6/0150 NOSIG RMK QFE738/0985","WindDirDegrees":"210","DateUTC\r":"2/4/16 8:30\r"},{"TimeMSK":"12:00 PM","TemperatureF":"35","Dew PointF":"32","Humidity":"83","Sea Level PressureIn":"29.54","VisibilityMPH":"6","Wind Direction":"WSW","Wind SpeedMPH":"4.5","Gust SpeedMPH":"","PrecipitationIn":"","Events":"","Conditions":"Overcast","FullMetar":"AAXX 04091 27595 42597 82402 10017 21002 39856 40002 51007 884// 333 88630","WindDirDegrees":"240","DateUTC\r":"2/4/16 9:00\r"},{"TimeMSK":"12:00 PM","TemperatureF":"35.6","Dew PointF":"32","Humidity":"87","Sea Level PressureIn":"29.5","VisibilityMPH":"6.2","Wind Direction":"SW","Wind SpeedMPH":"8.9","Gust SpeedMPH":"-","PrecipitationIn":"N/A","Events":"","Conditions":"Overcast","FullMetar":"METAR UWKD 040900Z 22004MPS 9999 OVC010 02/00 Q0999 R29/6/0150 TEMPO 2000 SNRA BKN005 RMK QFE738/0984","WindDirDegrees":"220","DateUTC\r":"2/4/16 9:00\r"},{"TimeMSK":"12:30 PM","TemperatureF":"35.6","Dew PointF":"33.8","Humidity":"93","Sea Level PressureIn":"29.5","VisibilityMPH":"6.2","Wind Direction":"South","Wind SpeedMPH":"8.9","Gust SpeedMPH":"-","PrecipitationIn":"N/A","Events":"","Conditions":"Overcast","FullMetar":"METAR UWKD 040930Z 19004MPS 9999 OVC008 02/01 Q0999 R29/6/0150 TEMPO 2000 SNRA BKN005 RMK QFE738/0985","WindDirDegrees":"190","DateUTC\r":"2/4/16 9:30\r"},{"TimeMSK":"1:00 PM","TemperatureF":"35.6","Dew PointF":"33.8","Humidity":"93","Sea Level PressureIn":"29.5","VisibilityMPH":"5.6","Wind Direction":"SW","Wind SpeedMPH":"11.2","Gust SpeedMPH":"-","PrecipitationIn":"N/A","Events":"Rain-Snow","Conditions":"Light Snow","FullMetar":"METAR UWKD 041000Z 22005MPS 9000 -SNRA OVC006 02/01 Q0999 R29/6/0150 TEMPO 2000 SNRA BKN005 RMK QFE738/0985","WindDirDegrees":"220","DateUTC\r":"2/4/16 10:00\r"},{"TimeMSK":"1:30 PM","TemperatureF":"33.8","Dew PointF":"33.8","Humidity":"100","Sea Level PressureIn":"29.5","VisibilityMPH":"6.2","Wind Direction":"SW","Wind SpeedMPH":"8.9","Gust SpeedMPH":"-","PrecipitationIn":"N/A","Events":"","Conditions":"Overcast","FullMetar":"METAR UWKD 041030Z 23004MPS 9999 OVC008 01/01 Q0999 R29/6/0150 NOSIG RMK QFE738/0985","WindDirDegrees":"230","DateUTC\r":"2/4/16 10:30\r"},{"TimeMSK":"2:00 PM","TemperatureF":"35.6","Dew PointF":"33.8","Humidity":"93","Sea Level PressureIn":"29.5","VisibilityMPH":"6.2","Wind Direction":"SW","Wind SpeedMPH":"6.7","Gust SpeedMPH":"-","PrecipitationIn":"N/A","Events":"","Conditions":"Mostly Cloudy","FullMetar":"METAR UWKD 041100Z 22003MPS 9999 BKN011 02/01 Q0999 R29/6/0150 NOSIG RMK QFE738/0985","WindDirDegrees":"220","DateUTC\r":"2/4/16 11:00\r"},{"TimeMSK":"2:30 PM","TemperatureF":"35.6","Dew PointF":"33.8","Humidity":"93","Sea Level PressureIn":"29.5","VisibilityMPH":"6.2","Wind Direction":"SW","Wind SpeedMPH":"11.2","Gust SpeedMPH":"-","PrecipitationIn":"N/A","Events":"","Conditions":"Mostly Cloudy","FullMetar":"METAR UWKD 041130Z 23005MPS 9999 BKN012 02/01 Q0999 R29/6/0150 NOSIG RMK QFE739/0985","WindDirDegrees":"230","DateUTC\r":"2/4/16 11:30\r"},{"TimeMSK":"3:00 PM","TemperatureF":"36","Dew PointF":"32","Humidity":"81","Sea Level PressureIn":"29.56","VisibilityMPH":"6","Wind Direction":"WSW","Wind SpeedMPH":"6.7","Gust SpeedMPH":"","PrecipitationIn":"","Events":"","Conditions":"Overcast","FullMetar":"AAXX 04121 27595 42597 82403 10020 20001 39863 40009 53007 884// 333 88632","WindDirDegrees":"240","DateUTC\r":"2/4/16 12:00\r"},{"TimeMSK":"3:00 PM","TemperatureF":"35.6","Dew PointF":"32","Humidity":"87","Sea Level PressureIn":"29.53","VisibilityMPH":"6.2","Wind Direction":"WSW","Wind SpeedMPH":"13.4","Gust SpeedMPH":"-","PrecipitationIn":"N/A","Events":"","Conditions":"Mostly Cloudy","FullMetar":"METAR UWKD 041200Z 24006MPS 9999 BKN012 02/00 Q1000 R29/6/0150 NOSIG RMK QFE739/0985","WindDirDegrees":"240","DateUTC\r":"2/4/16 12:00\r"},{"TimeMSK":"3:30 PM","TemperatureF":"35.6","Dew PointF":"33.8","Humidity":"93","Sea Level PressureIn":"29.53","VisibilityMPH":"6.2","Wind Direction":"SW","Wind SpeedMPH":"8.9","Gust SpeedMPH":"-","PrecipitationIn":"N/A","Events":"","Conditions":"Mostly Cloudy","FullMetar":"METAR UWKD 041230Z 23004MPS 200V260 9999 BKN011 02/01 Q1000 R29/6/0150 NOSIG RMK QFE739/0986","WindDirDegrees":"230","DateUTC\r":"2/4/16 12:30\r"},{"TimeMSK":"4:00 PM","TemperatureF":"35.6","Dew PointF":"32","Humidity":"87","Sea Level PressureIn":"29.56","VisibilityMPH":"6.2","Wind Direction":"WSW","Wind SpeedMPH":"11.2","Gust SpeedMPH":"-","PrecipitationIn":"N/A","Events":"","Conditions":"Mostly Cloudy","FullMetar":"METAR UWKD 041300Z 24005MPS 9999 BKN017 02/00 Q1001 R29/6/0150 NOSIG RMK QFE739/0986","WindDirDegrees":"240","DateUTC\r":"2/4/16 13:00\r"},{"TimeMSK":"4:30 PM","TemperatureF":"35.6","Dew PointF":"32","Humidity":"87","Sea Level PressureIn":"29.56","VisibilityMPH":"6.2","Wind Direction":"WSW","Wind SpeedMPH":"11.2","Gust SpeedMPH":"-","PrecipitationIn":"N/A","Events":"","Conditions":"Mostly Cloudy","FullMetar":"METAR UWKD 041330Z 24005MPS 9999 BKN013 02/00 Q1001 R29/6/0150 NOSIG RMK QFE739/0986","WindDirDegrees":"240","DateUTC\r":"2/4/16 13:30\r"},{"TimeMSK":"5:00 PM","TemperatureF":"35.6","Dew PointF":"32","Humidity":"87","Sea Level PressureIn":"29.56","VisibilityMPH":"6.2","Wind Direction":"WSW","Wind SpeedMPH":"11.2","Gust SpeedMPH":"-","PrecipitationIn":"N/A","Events":"","Conditions":"Mostly Cloudy","FullMetar":"METAR UWKD 041400Z 24005MPS 9999 BKN017 02/00 Q1001 R29/6/0150 NOSIG RMK QFE739/0986","WindDirDegrees":"240","DateUTC\r":"2/4/16 14:00\r"},{"TimeMSK":"5:30 PM","TemperatureF":"35.6","Dew PointF":"33.8","Humidity":"93","Sea Level PressureIn":"29.56","VisibilityMPH":"-9999","Wind Direction":"WSW","Wind SpeedMPH":"13.4","Gust SpeedMPH":"-","PrecipitationIn":"N/A","Events":"","Conditions":"Clear","FullMetar":"METAR UWKD 041430Z 24006MPS CAVOK 02/01 Q1001 R29/6/0150 NOSIG RMK QFE740/0986","WindDirDegrees":"240","DateUTC\r":"2/4/16 14:30\r"},{"TimeMSK":"6:00 PM","TemperatureF":"35","Dew PointF":"31","Humidity":"82","Sea Level PressureIn":"29.6","VisibilityMPH":"6","Wind Direction":"WSW","Wind SpeedMPH":"8.9","Gust SpeedMPH":"","PrecipitationIn":"","Events":"","Conditions":"Overcast","FullMetar":"AAXX 04151 27595 12697 82404 10018 21003 39876 40023 51013 60002 884// 333 10021 88636","WindDirDegrees":"240","DateUTC\r":"2/4/16 15:00\r"},{"TimeMSK":"6:00 PM","TemperatureF":"35.6","Dew PointF":"32","Humidity":"87","Sea Level PressureIn":"29.56","VisibilityMPH":"6.2","Wind Direction":"WSW","Wind SpeedMPH":"13.4","Gust SpeedMPH":"-","PrecipitationIn":"N/A","Events":"","Conditions":"Mostly Cloudy","FullMetar":"METAR UWKD 041500Z 24006MPS 9999 BKN027 02/00 Q1001 R29/6/0150 NOSIG RMK QFE740/0986","WindDirDegrees":"240","DateUTC\r":"2/4/16 15:00\r"},{"TimeMSK":"6:30 PM","TemperatureF":"35.6","Dew PointF":"32","Humidity":"87","Sea Level PressureIn":"29.56","VisibilityMPH":"6.2","Wind Direction":"WSW","Wind SpeedMPH":"15.7","Gust SpeedMPH":"-","PrecipitationIn":"N/A","Events":"","Conditions":"Mostly Cloudy","FullMetar":"METAR UWKD 041530Z 24007MPS 9999 BKN028 02/00 Q1001 R29/6/0150 NOSIG RMK QFE740/0987","WindDirDegrees":"240","DateUTC\r":"2/4/16 15:30\r"},{"TimeMSK":"7:00 PM","TemperatureF":"35.6","Dew PointF":"32","Humidity":"87","Sea Level PressureIn":"29.56","VisibilityMPH":"-9999","Wind Direction":"WSW","Wind SpeedMPH":"13.4","Gust SpeedMPH":"-","PrecipitationIn":"N/A","Events":"","Conditions":"Clear","FullMetar":"METAR UWKD 041600Z 24006MPS CAVOK 02/00 Q1001 R29/6/0150 NOSIG RMK QFE740/0987","WindDirDegrees":"240","DateUTC\r":"2/4/16 16:00\r"},{"TimeMSK":"7:30 PM","TemperatureF":"35.6","Dew PointF":"32","Humidity":"87","Sea Level PressureIn":"29.59","VisibilityMPH":"-9999","Wind Direction":"WSW","Wind SpeedMPH":"13.4","Gust SpeedMPH":"-","PrecipitationIn":"N/A","Events":"","Conditions":"Clear","FullMetar":"METAR UWKD 041630Z 24006MPS CAVOK 02/00 Q1002 R29/6/0150 NOSIG RMK QFE740/0987","WindDirDegrees":"240","DateUTC\r":"2/4/16 16:30\r"},{"TimeMSK":"8:00 PM","TemperatureF":"35.6","Dew PointF":"32","Humidity":"87","Sea Level PressureIn":"29.59","VisibilityMPH":"-9999","Wind Direction":"WSW","Wind SpeedMPH":"15.7","Gust SpeedMPH":"-","PrecipitationIn":"N/A","Events":"","Conditions":"Clear","FullMetar":"METAR UWKD 041700Z 24007MPS CAVOK 02/M00 Q1002 R29/6/0150 NOSIG RMK QFE740/0987","WindDirDegrees":"240","DateUTC\r":"2/4/16 17:00\r"},{"TimeMSK":"8:30 PM","TemperatureF":"35.6","Dew PointF":"32","Humidity":"87","Sea Level PressureIn":"29.59","VisibilityMPH":"6.2","Wind Direction":"SW","Wind SpeedMPH":"15.7","Gust SpeedMPH":"-","PrecipitationIn":"N/A","Events":"","Conditions":"Mostly Cloudy","FullMetar":"METAR UWKD 041730Z 23007MPS 9999 BKN049 02/M00 Q1002 R29/290050 NOSIG RMK QFE740/0987","WindDirDegrees":"230","DateUTC\r":"2/4/16 17:30\r"},{"TimeMSK":"9:00 PM","TemperatureF":"35","Dew PointF":"29","Humidity":"73","Sea Level PressureIn":"29.63","VisibilityMPH":"6","Wind Direction":"WSW","Wind SpeedMPH":"8.9","Gust SpeedMPH":"","PrecipitationIn":"","Events":"","Conditions":"Overcast","FullMetar":"AAXX 04181 27595 42697 82404 10019 21014 39886 40032 52010 885// 333 88640","WindDirDegrees":"240","DateUTC\r":"2/4/16 18:00\r"},{"TimeMSK":"9:00 PM","TemperatureF":"35.6","Dew PointF":"30.2","Humidity":"81","Sea Level PressureIn":"29.59","VisibilityMPH":"6.2","Wind Direction":"SW","Wind SpeedMPH":"11.2","Gust SpeedMPH":"-","PrecipitationIn":"N/A","Events":"","Conditions":"Mostly Cloudy","FullMetar":"METAR UWKD 041800Z 23005MPS 9999 BKN050 02/M01 Q1002 R29/290050 NOSIG RMK QFE741/0988","WindDirDegrees":"230","DateUTC\r":"2/4/16 18:00\r"},{"TimeMSK":"9:30 PM","TemperatureF":"35.6","Dew PointF":"30.2","Humidity":"81","Sea Level PressureIn":"29.59","VisibilityMPH":"-9999","Wind Direction":"SW","Wind SpeedMPH":"11.2","Gust SpeedMPH":"-","PrecipitationIn":"N/A","Events":"","Conditions":"Clear","FullMetar":"METAR UWKD 041830Z 23005MPS CAVOK 02/M01 Q1002 R29/290050 NOSIG RMK QFE741/0988","WindDirDegrees":"230","DateUTC\r":"2/4/16 18:30\r"},{"TimeMSK":"10:00 PM","TemperatureF":"35.6","Dew PointF":"30.2","Humidity":"81","Sea Level PressureIn":"29.59","VisibilityMPH":"-9999","Wind Direction":"SW","Wind SpeedMPH":"8.9","Gust SpeedMPH":"-","PrecipitationIn":"N/A","Events":"","Conditions":"Clear","FullMetar":"METAR UWKD 041900Z 23004MPS CAVOK 02/M01 Q1002 R29/290050 NOSIG RMK QFE741/0988","WindDirDegrees":"230","DateUTC\r":"2/4/16 19:00\r"},{"TimeMSK":"10:30 PM","TemperatureF":"35.6","Dew PointF":"30.2","Humidity":"81","Sea Level PressureIn":"29.62","VisibilityMPH":"-9999","Wind Direction":"SW","Wind SpeedMPH":"8.9","Gust SpeedMPH":"-","PrecipitationIn":"N/A","Events":"","Conditions":"Clear","FullMetar":"METAR UWKD 041930Z 23004MPS CAVOK 02/M01 Q1003 R29/290050 NOSIG RMK QFE741/0988","WindDirDegrees":"230","DateUTC\r":"2/4/16 19:30\r"},{"TimeMSK":"11:00 PM","TemperatureF":"33.8","Dew PointF":"30.2","Humidity":"87","Sea Level PressureIn":"29.62","VisibilityMPH":"-9999","Wind Direction":"SW","Wind SpeedMPH":"8.9","Gust SpeedMPH":"-","PrecipitationIn":"N/A","Events":"","Conditions":"Clear","FullMetar":"METAR UWKD 042000Z 23004MPS CAVOK 01/M01 Q1003 R29/290050 NOSIG RMK QFE741/0988","WindDirDegrees":"230","DateUTC\r":"2/4/16 20:00\r"},{"TimeMSK":"11:30 PM","TemperatureF":"33.8","Dew PointF":"30.2","Humidity":"87","Sea Level PressureIn":"29.62","VisibilityMPH":"-9999","Wind Direction":"SW","Wind SpeedMPH":"8.9","Gust SpeedMPH":"-","PrecipitationIn":"N/A","Events":"","Conditions":"Clear","FullMetar":"METAR UWKD 042030Z 23004MPS CAVOK 01/M01 Q1003 R29/290050 NOSIG RMK QFE741/0988","WindDirDegrees":"230","DateUTC\r":"2/4/16 20:30\r"},{"TimeMSK":"12:00 AM","TemperatureF":"35","Dew PointF":"28","Humidity":"66","Sea Level PressureIn":"29.65","VisibilityMPH":"6","Wind Direction":"WSW","Wind SpeedMPH":"8.9","Gust SpeedMPH":"","PrecipitationIn":"","Events":"","Conditions":"Overcast","FullMetar":"AAXX 04211 27595 42697 82404 10017 21023 39894 40041 52008 885// 333 88640","WindDirDegrees":"240","DateUTC\r":"2/4/16 21:00\r"},{"TimeMSK":"12:00 AM","TemperatureF":"33.8","Dew PointF":"30.2","Humidity":"87","Sea Level PressureIn":"29.62","VisibilityMPH":"-9999","Wind Direction":"SW","Wind SpeedMPH":"8.9","Gust SpeedMPH":"-","PrecipitationIn":"N/A","Events":"","Conditions":"Clear","FullMetar":"METAR UWKD 042100Z 23004MPS CAVOK 01/M01 Q1003 R29/290050 NOSIG RMK QFE741/0988","WindDirDegrees":"230","DateUTC\r":"2/4/16 21:00\r"},{"TimeMSK":"12:30 AM","TemperatureF":"33.8","Dew PointF":"30.2","Humidity":"87","Sea Level PressureIn":"29.62","VisibilityMPH":"-9999","Wind Direction":"SW","Wind SpeedMPH":"11.2","Gust SpeedMPH":"-","PrecipitationIn":"N/A","Events":"","Conditions":"Clear","FullMetar":"METAR UWKD 042130Z 23005MPS CAVOK 01/M01 Q1003 R29/290050 NOSIG RMK QFE741/0988","WindDirDegrees":"230","DateUTC\r":"2/4/16 21:30\r"},{"TimeMSK":"1:00 AM","TemperatureF":"33.8","Dew PointF":"28.4","Humidity":"81","Sea Level PressureIn":"29.62","VisibilityMPH":"-9999","Wind Direction":"SW","Wind SpeedMPH":"11.2","Gust SpeedMPH":"-","PrecipitationIn":"N/A","Events":"","Conditions":"Clear","FullMetar":"METAR UWKD 042200Z 23005MPS CAVOK 01/M02 Q1003 R29/290050 NOSIG RMK QFE741/0989","WindDirDegrees":"230","DateUTC\r":"2/4/16 22:00\r"},{"TimeMSK":"1:30 AM","TemperatureF":"33.8","Dew PointF":"30.2","Humidity":"87","Sea Level PressureIn":"29.65","VisibilityMPH":"-9999","Wind Direction":"WSW","Wind SpeedMPH":"8.9","Gust SpeedMPH":"-","PrecipitationIn":"N/A","Events":"","Conditions":"Clear","FullMetar":"METAR UWKD 042230Z 24004MPS CAVOK 01/M01 Q1004 R29/290050 NOSIG RMK QFE742/0989","WindDirDegrees":"240","DateUTC\r":"2/4/16 22:30\r"},{"TimeMSK":"2:00 AM","TemperatureF":"33.8","Dew PointF":"30.2","Humidity":"87","Sea Level PressureIn":"29.65","VisibilityMPH":"-9999","Wind Direction":"WSW","Wind SpeedMPH":"11.2","Gust SpeedMPH":"-","PrecipitationIn":"N/A","Events":"","Conditions":"Clear","FullMetar":"METAR UWKD 042300Z 24005MPS CAVOK 01/M01 Q1004 R29/290050 NOSIG RMK QFE742/0989","WindDirDegrees":"240","DateUTC\r":"2/4/16 23:00\r"},{"TimeMSK":"2:30 AM","TemperatureF":"33.8","Dew PointF":"30.2","Humidity":"87","Sea Level PressureIn":"29.65","VisibilityMPH":"-9999","Wind Direction":"WSW","Wind SpeedMPH":"8.9","Gust SpeedMPH":"-","PrecipitationIn":"N/A","Events":"","Conditions":"Clear","FullMetar":"METAR UWKD 042330Z 24004MPS CAVOK 01/M01 Q1004 R29/290050 NOSIG RMK QFE742/0989","WindDirDegrees":"240","DateUTC\r":"2/4/16 23:30\r"},{"TimeMSK":"3:00 AM","TemperatureF":"34","Dew PointF":"28","Humidity":"70","Sea Level PressureIn":"29.67","VisibilityMPH":"6","Wind Direction":"WSW","Wind SpeedMPH":"6.7","Gust SpeedMPH":"","PrecipitationIn":"","Events":"","Conditions":"Overcast","FullMetar":"AAXX 05001 27595 42997 82403 10009 21023 39899 40047 51005 8804/","WindDirDegrees":"240","DateUTC\r":"2/5/16 0:00\r"},{"TimeMSK":"3:00 AM","TemperatureF":"33.8","Dew PointF":"30.2","Humidity":"87","Sea Level PressureIn":"29.65","VisibilityMPH":"-9999","Wind Direction":"SW","Wind SpeedMPH":"6.7","Gust SpeedMPH":"-","PrecipitationIn":"N/A","Events":"","Conditions":"Clear","FullMetar":"METAR UWKD 050000Z 23003MPS CAVOK 01/M01 Q1004 R29/290050 NOSIG RMK QFE742/0989","WindDirDegrees":"230","DateUTC\r":"2/5/16 0:00\r"},{"TimeMSK":"3:30 AM","TemperatureF":"32","Dew PointF":"30.2","Humidity":"93","Sea Level PressureIn":"29.65","VisibilityMPH":"-9999","Wind Direction":"SW","Wind SpeedMPH":"6.7","Gust SpeedMPH":"-","PrecipitationIn":"N/A","Events":"","Conditions":"Clear","FullMetar":"METAR UWKD 050030Z 23003MPS CAVOK 00/M01 Q1004 R29/290050 NOSIG RMK QFE742/0989","WindDirDegrees":"230","DateUTC\r":"2/5/16 0:30\r"},{"TimeMSK":"4:00 AM","TemperatureF":"32","Dew PointF":"30.2","Humidity":"93","Sea Level PressureIn":"29.65","VisibilityMPH":"-9999","Wind Direction":"WSW","Wind SpeedMPH":"8.9","Gust SpeedMPH":"-","PrecipitationIn":"N/A","Events":"","Conditions":"Clear","FullMetar":"METAR UWKD 050100Z 24004MPS CAVOK 00/M01 Q1004 R29/290050 NOSIG RMK QFE742/0989","WindDirDegrees":"240","DateUTC\r":"2/5/16 1:00\r"},{"TimeMSK":"4:30 AM","TemperatureF":"32","Dew PointF":"30.2","Humidity":"93","Sea Level PressureIn":"29.65","VisibilityMPH":"-9999","Wind Direction":"WSW","Wind SpeedMPH":"11.2","Gust SpeedMPH":"-","PrecipitationIn":"N/A","Events":"","Conditions":"Clear","FullMetar":"METAR UWKD 050130Z 24005MPS CAVOK 00/M01 Q1004 R29/290050 NOSIG RMK QFE742/0989","WindDirDegrees":"240","DateUTC\r":"2/5/16 1:30\r"},{"TimeMSK":"5:00 AM","TemperatureF":"32","Dew PointF":"28.4","Humidity":"87","Sea Level PressureIn":"29.65","VisibilityMPH":"-9999","Wind Direction":"WSW","Wind SpeedMPH":"11.2","Gust SpeedMPH":"-","PrecipitationIn":"N/A","Events":"","Conditions":"Clear","FullMetar":"METAR UWKD 050200Z 25005MPS CAVOK 00/M02 Q1004 R29/290050 NOSIG RMK QFE742/0989","WindDirDegrees":"250","DateUTC\r":"2/5/16 2:00\r"},{"TimeMSK":"5:30 AM","TemperatureF":"32","Dew PointF":"28.4","Humidity":"87","Sea Level PressureIn":"29.65","VisibilityMPH":"-9999","Wind Direction":"WSW","Wind SpeedMPH":"8.9","Gust SpeedMPH":"-","PrecipitationIn":"N/A","Events":"","Conditions":"Clear","FullMetar":"METAR UWKD 050230Z 25004MPS CAVOK M00/M02 Q1004 R29/290050 NOSIG RMK QFE742/0989","WindDirDegrees":"250","DateUTC\r":"2/5/16 2:30\r"},{"TimeMSK":"6:00 AM","TemperatureF":"32","Dew PointF":"28","Humidity":"78","Sea Level PressureIn":"29.69","VisibilityMPH":"6","Wind Direction":"WSW","Wind SpeedMPH":"2.2","Gust SpeedMPH":"","PrecipitationIn":"","Events":"","Conditions":"Mostly Cloudy","FullMetar":"AAXX 05031 27595 12997 62401 11002 21024 39904 40052 52005 60002 86040 333 21002 43042 55000","WindDirDegrees":"240","DateUTC\r":"2/5/16 3:00\r"},{"TimeMSK":"6:00 AM","TemperatureF":"30.2","Dew PointF":"28.4","Humidity":"93","Sea Level PressureIn":"29.65","VisibilityMPH":"-9999","Wind Direction":"WSW","Wind SpeedMPH":"6.7","Gust SpeedMPH":"-","PrecipitationIn":"N/A","Events":"","Conditions":"Clear","FullMetar":"METAR UWKD 050300Z 25003MPS CAVOK M01/M02 Q1004 R29/290050 NOSIG RMK QFE742/0989","WindDirDegrees":"250","DateUTC\r":"2/5/16 3:00\r"},{"TimeMSK":"6:30 AM","TemperatureF":"30.2","Dew PointF":"28.4","Humidity":"93","Sea Level PressureIn":"29.65","VisibilityMPH":"-9999","Wind Direction":"SW","Wind SpeedMPH":"4.5","Gust SpeedMPH":"-","PrecipitationIn":"N/A","Events":"","Conditions":"Clear","FullMetar":"METAR UWKD 050330Z 23002MPS CAVOK M01/M02 Q1004 R29/290050 NOSIG RMK QFE742/0989","WindDirDegrees":"230","DateUTC\r":"2/5/16 3:30\r"},{"TimeMSK":"7:00 AM","TemperatureF":"28.4","Dew PointF":"28.4","Humidity":"100","Sea Level PressureIn":"29.65","VisibilityMPH":"-9999","Wind Direction":"WSW","Wind SpeedMPH":"4.5","Gust SpeedMPH":"-","PrecipitationIn":"N/A","Events":"","Conditions":"Clear","FullMetar":"METAR UWKD 050400Z 24002MPS CAVOK M02/M02 Q1004 R29/290050 NOSIG RMK QFE742/0989","WindDirDegrees":"240","DateUTC\r":"2/5/16 4:00\r"},{"TimeMSK":"7:30 AM","TemperatureF":"30.2","Dew PointF":"28.4","Humidity":"93","Sea Level PressureIn":"29.65","VisibilityMPH":"-9999","Wind Direction":"WSW","Wind SpeedMPH":"6.7","Gust SpeedMPH":"-","PrecipitationIn":"N/A","Events":"","Conditions":"Clear","FullMetar":"METAR UWKD 050430Z 24003MPS CAVOK M01/M02 Q1004 R29/290050 NOSIG RMK QFE742/0990","WindDirDegrees":"240","DateUTC\r":"2/5/16 4:30\r"},{"TimeMSK":"8:00 AM","TemperatureF":"28.4","Dew PointF":"26.6","Humidity":"93","Sea Level PressureIn":"29.65","VisibilityMPH":"-9999","Wind Direction":"WSW","Wind SpeedMPH":"6.7","Gust SpeedMPH":"-","PrecipitationIn":"N/A","Events":"","Conditions":"Clear","FullMetar":"METAR UWKD 050500Z 24003MPS CAVOK M02/M03 Q1004 R29/290050 NOSIG RMK QFE742/0990","WindDirDegrees":"240","DateUTC\r":"2/5/16 5:00\r"},{"TimeMSK":"8:30 AM","TemperatureF":"28.4","Dew PointF":"26.6","Humidity":"93","Sea Level PressureIn":"29.68","VisibilityMPH":"-9999","Wind Direction":"SW","Wind SpeedMPH":"6.7","Gust SpeedMPH":"-","PrecipitationIn":"N/A","Events":"","Conditions":"Clear","FullMetar":"METAR UWKD 050530Z 23003MPS CAVOK M02/M03 Q1005 R29/290050 NOSIG RMK QFE742/0990","WindDirDegrees":"230","DateUTC\r":"2/5/16 5:30\r"},{"TimeMSK":"9:00 AM","TemperatureF":"30","Dew PointF":"27","Humidity":"85","Sea Level PressureIn":"29.72","VisibilityMPH":"6","Wind Direction":"West","Wind SpeedMPH":"4.5","Gust SpeedMPH":"","PrecipitationIn":"","Events":"","Conditions":"Mostly Cloudy","FullMetar":"AAXX 05061 27595 42997 72602 11009 21027 39914 40063 52010 87040 333 21012","WindDirDegrees":"260","DateUTC\r":"2/5/16 6:00\r"},{"TimeMSK":"9:00 AM","TemperatureF":"28.4","Dew PointF":"26.6","Humidity":"93","Sea Level PressureIn":"29.68","VisibilityMPH":"-9999","Wind Direction":"SW","Wind SpeedMPH":"6.7","Gust SpeedMPH":"-","PrecipitationIn":"N/A","Events":"","Conditions":"Clear","FullMetar":"METAR UWKD 050600Z 23003MPS CAVOK M02/M03 Q1005 R29/290050 NOSIG RMK QFE743/0990","WindDirDegrees":"230","DateUTC\r":"2/5/16 6:00\r"},{"TimeMSK":"9:30 AM","TemperatureF":"30.2","Dew PointF":"28.4","Humidity":"93","Sea Level PressureIn":"29.68","VisibilityMPH":"-9999","Wind Direction":"WSW","Wind SpeedMPH":"6.7","Gust SpeedMPH":"-","PrecipitationIn":"N/A","Events":"","Conditions":"Clear","FullMetar":"METAR UWKD 050630Z 24003MPS CAVOK M01/M02 Q1005 R29/290050 NOSIG RMK QFE743/0990","WindDirDegrees":"240","DateUTC\r":"2/5/16 6:30\r"},{"TimeMSK":"10:00 AM","TemperatureF":"32","Dew PointF":"28.4","Humidity":"87","Sea Level PressureIn":"29.68","VisibilityMPH":"6.2","Wind Direction":"SW","Wind SpeedMPH":"4.5","Gust SpeedMPH":"-","PrecipitationIn":"N/A","Events":"","Conditions":"Mostly Cloudy","FullMetar":"METAR UWKD 050700Z 22002MPS 190V250 9999 BKN009 M00/M02 Q1005 R29/290050 NOSIG RMK QFE743/0990","WindDirDegrees":"220","DateUTC\r":"2/5/16 7:00\r"},{"TimeMSK":"10:30 AM","TemperatureF":"32","Dew PointF":"28.4","Humidity":"87","Sea Level PressureIn":"29.71","VisibilityMPH":"6.2","Wind Direction":"WSW","Wind SpeedMPH":"8.9","Gust SpeedMPH":"-","PrecipitationIn":"N/A","Events":"","Conditions":"Mostly Cloudy","FullMetar":"METAR UWKD 050730Z 25004MPS 9999 BKN011 M00/M02 Q1006 R29/290050 NOSIG RMK QFE743/0991","WindDirDegrees":"250","DateUTC\r":"2/5/16 7:30\r"},{"TimeMSK":"11:00 AM","TemperatureF":"32","Dew PointF":"28.4","Humidity":"87","Sea Level PressureIn":"29.71","VisibilityMPH":"6.2","Wind Direction":"West","Wind SpeedMPH":"11.2","Gust SpeedMPH":"-","PrecipitationIn":"N/A","Events":"","Conditions":"Mostly Cloudy","FullMetar":"METAR UWKD 050800Z 26005MPS 9999 BKN011 M00/M02 Q1006 R29/290050 NOSIG RMK QFE743/0991","WindDirDegrees":"260","DateUTC\r":"2/5/16 8:00\r"},{"TimeMSK":"11:30 AM","TemperatureF":"32","Dew PointF":"28.4","Humidity":"87","Sea Level PressureIn":"29.71","VisibilityMPH":"6.2","Wind Direction":"West","Wind SpeedMPH":"11.2","Gust SpeedMPH":"-","PrecipitationIn":"N/A","Events":"","Conditions":"Mostly Cloudy","FullMetar":"METAR UWKD 050830Z 27005MPS 9999 BKN019 M00/M02 Q1006 R29/290050 NOSIG RMK QFE743/0991","WindDirDegrees":"270","DateUTC\r":"2/5/16 8:30\r"},{"TimeMSK":"12:00 PM","TemperatureF":"31","Dew PointF":"27","Humidity":"80","Sea Level PressureIn":"29.75","VisibilityMPH":"6","Wind Direction":"West","Wind SpeedMPH":"4.5","Gust SpeedMPH":"","PrecipitationIn":"","Events":"Snow","Conditions":"Light Snow","FullMetar":"AAXX 05091 27595 41497 82702 11003 21027 39926 40075 52012 77172 8872/ 333 88715","WindDirDegrees":"270","DateUTC\r":"2/5/16 9:00\r"},{"TimeMSK":"12:00 PM","TemperatureF":"32","Dew PointF":"28.4","Humidity":"87","Sea Level PressureIn":"29.71","VisibilityMPH":"6.2","Wind Direction":"West","Wind SpeedMPH":"11.2","Gust SpeedMPH":"-","PrecipitationIn":"N/A","Events":"","Conditions":"Overcast","FullMetar":"METAR UWKD 050900Z 27005MPS 9999 OVC015 M00/M02 Q1006 R29/290050 NOSIG RMK QFE743/0991","WindDirDegrees":"270","DateUTC\r":"2/5/16 9:00\r"},{"TimeMSK":"12:30 PM","TemperatureF":"32","Dew PointF":"28.4","Humidity":"87","Sea Level PressureIn":"29.71","VisibilityMPH":"6.2","Wind Direction":"West","Wind SpeedMPH":"11.2","Gust SpeedMPH":"-","PrecipitationIn":"N/A","Events":"Rain-Snow","Conditions":"Light Snow","FullMetar":"METAR UWKD 050930Z 28005MPS 9999 -SNRA OVC018 M00/M02 Q1006 R29/290050 NOSIG RMK QFE743/0991","WindDirDegrees":"280","DateUTC\r":"2/5/16 9:30\r"},{"TimeMSK":"1:00 PM","TemperatureF":"32","Dew PointF":"28.4","Humidity":"87","Sea Level PressureIn":"29.71","VisibilityMPH":"6.2","Wind Direction":"West","Wind SpeedMPH":"13.4","Gust SpeedMPH":"-","PrecipitationIn":"N/A","Events":"Rain-Snow","Conditions":"Light Snow","FullMetar":"METAR UWKD 051000Z 28006MPS 9999 -SNRA OVC048 M00/M02 Q1006 R29/290050 NOSIG RMK QFE744/0992","WindDirDegrees":"280","DateUTC\r":"2/5/16 10:00\r"},{"TimeMSK":"1:30 PM","TemperatureF":"30.2","Dew PointF":"24.8","Humidity":"80","Sea Level PressureIn":"29.74","VisibilityMPH":"6.2","Wind Direction":"West","Wind SpeedMPH":"8.9","Gust SpeedMPH":"20.1","PrecipitationIn":"N/A","Events":"","Conditions":"Overcast","FullMetar":"METAR UWKD 051030Z 28004G09MPS 9999 OVC020 M01/M04 Q1007 R29/290050 NOSIG RMK QFE744/0992","WindDirDegrees":"280","DateUTC\r":"2/5/16 10:30\r"},{"TimeMSK":"2:00 PM","TemperatureF":"30.2","Dew PointF":"21.2","Humidity":"69","Sea Level PressureIn":"29.74","VisibilityMPH":"6.2","Wind Direction":"West","Wind SpeedMPH":"11.2","Gust SpeedMPH":"-","PrecipitationIn":"N/A","Events":"","Conditions":"Scattered Clouds","FullMetar":"METAR UWKD 051100Z 28005MPS 9999 SCT030 M01/M06 Q1007 R29/290050 NOSIG RMK QFE744/0992","WindDirDegrees":"280","DateUTC\r":"2/5/16 11:00\r"},{"TimeMSK":"2:30 PM","TemperatureF":"30.2","Dew PointF":"21.2","Humidity":"69","Sea Level PressureIn":"29.74","VisibilityMPH":"6.2","Wind Direction":"West","Wind SpeedMPH":"15.7","Gust SpeedMPH":"-","PrecipitationIn":"N/A","Events":"","Conditions":"Partly Cloudy","FullMetar":"METAR UWKD 051130Z 28007MPS 9999 FEW050 M01/M06 Q1007 R29/290050 NOSIG RMK QFE744/0992","WindDirDegrees":"280","DateUTC\r":"2/5/16 11:30\r"},{"TimeMSK":"3:00 PM","TemperatureF":"31","Dew PointF":"17","Humidity":"42","Sea Level PressureIn":"29.78","VisibilityMPH":"6","Wind Direction":"West","Wind SpeedMPH":"6.7","Gust SpeedMPH":"","PrecipitationIn":"","Events":"","Conditions":"Partly Cloudy","FullMetar":"AAXX 05121 27595 41997 22703 11006 21085 39936 40085 52010 70271 82070","WindDirDegrees":"270","DateUTC\r":"2/5/16 12:00\r"},{"TimeMSK":"3:00 PM","TemperatureF":"30.2","Dew PointF":"19.4","Humidity":"64","Sea Level PressureIn":"29.74","VisibilityMPH":"-9999","Wind Direction":"West","Wind SpeedMPH":"15.7","Gust SpeedMPH":"-","PrecipitationIn":"N/A","Events":"","Conditions":"Clear","FullMetar":"METAR UWKD 051200Z 28007MPS CAVOK M01/M07 Q1007 R29/290050 NOSIG RMK QFE744/0992","WindDirDegrees":"280","DateUTC\r":"2/5/16 12:00\r"},{"TimeMSK":"3:30 PM","TemperatureF":"28.4","Dew PointF":"19.4","Humidity":"69","Sea Level PressureIn":"29.74","VisibilityMPH":"-9999","Wind Direction":"West","Wind SpeedMPH":"11.2","Gust SpeedMPH":"-","PrecipitationIn":"N/A","Events":"","Conditions":"Clear","FullMetar":"METAR UWKD 051230Z 27005MPS CAVOK M02/M07 Q1007 R29/290050 NOSIG RMK QFE744/0993","WindDirDegrees":"270","DateUTC\r":"2/5/16 12:30\r"},{"TimeMSK":"4:00 PM","TemperatureF":"26.6","Dew PointF":"17.6","Humidity":"69","Sea Level PressureIn":"29.77","VisibilityMPH":"-9999","Wind Direction":"West","Wind SpeedMPH":"8.9","Gust SpeedMPH":"-","PrecipitationIn":"N/A","Events":"","Conditions":"Clear","FullMetar":"METAR UWKD 051300Z 27004MPS CAVOK M03/M08 Q1008 R29/290050 NOSIG RMK QFE745/0993","WindDirDegrees":"270","DateUTC\r":"2/5/16 13:00\r"},{"TimeMSK":"4:30 PM","TemperatureF":"24.8","Dew PointF":"15.8","Humidity":"69","Sea Level PressureIn":"29.77","VisibilityMPH":"-9999","Wind Direction":"West","Wind SpeedMPH":"6.7","Gust SpeedMPH":"-","PrecipitationIn":"N/A","Events":"","Conditions":"Clear","FullMetar":"METAR UWKD 051330Z 26003MPS CAVOK M04/M09 Q1008 R29/290050 NOSIG RMK QFE745/0993","WindDirDegrees":"260","DateUTC\r":"2/5/16 13:30\r"},{"TimeMSK":"5:00 PM","TemperatureF":"24.8","Dew PointF":"15.8","Humidity":"69","Sea Level PressureIn":"29.77","VisibilityMPH":"-9999","Wind Direction":"WSW","Wind SpeedMPH":"6.7","Gust SpeedMPH":"-","PrecipitationIn":"N/A","Events":"","Conditions":"Clear","FullMetar":"METAR UWKD 051400Z 24003MPS CAVOK M04/M09 Q1008 R29/290050 NOSIG RMK QFE745/0994","WindDirDegrees":"240","DateUTC\r":"2/5/16 14:00\r"},{"TimeMSK":"5:30 PM","TemperatureF":"23","Dew PointF":"15.8","Humidity":"74","Sea Level PressureIn":"29.77","VisibilityMPH":"-9999","Wind Direction":"WSW","Wind SpeedMPH":"6.7","Gust SpeedMPH":"-","PrecipitationIn":"N/A","Events":"","Conditions":"Clear","FullMetar":"METAR UWKD 051430Z 25003MPS CAVOK M05/M09 Q1008 R29/290050 NOSIG RMK QFE745/0994","WindDirDegrees":"250","DateUTC\r":"2/5/16 14:30\r"},{"TimeMSK":"6:00 PM","TemperatureF":"28","Dew PointF":"16","Humidity":"49","Sea Level PressureIn":"29.84","VisibilityMPH":"6","Wind Direction":"WSW","Wind SpeedMPH":"4.5","Gust SpeedMPH":"","PrecipitationIn":"","Events":"","Conditions":"Overcast","FullMetar":"AAXX 05151 27595 12797 82402 11022 21087 39952 40103 52016 69902 885// 333 10003 88655","WindDirDegrees":"240","DateUTC\r":"2/5/16 15:00\r"},{"TimeMSK":"6:00 PM","TemperatureF":"24.8","Dew PointF":"17.6","Humidity":"74","Sea Level PressureIn":"29.8","VisibilityMPH":"6.2","Wind Direction":"SW","Wind SpeedMPH":"6.7","Gust SpeedMPH":"-","PrecipitationIn":"N/A","Events":"","Conditions":"Scattered Clouds","FullMetar":"METAR UWKD 051500Z 23003MPS 9999 SCT041 M04/M08 Q1009 R29/290050 NOSIG RMK QFE745/0994","WindDirDegrees":"230","DateUTC\r":"2/5/16 15:00\r"},{"TimeMSK":"6:30 PM","TemperatureF":"24.8","Dew PointF":"17.6","Humidity":"74","Sea Level PressureIn":"29.8","VisibilityMPH":"-9999","Wind Direction":"WSW","Wind SpeedMPH":"6.7","Gust SpeedMPH":"-","PrecipitationIn":"N/A","Events":"","Conditions":"Clear","FullMetar":"METAR UWKD 051530Z 24003MPS CAVOK M04/M08 Q1009 R29/290050 NOSIG RMK QFE746/0994","WindDirDegrees":"240","DateUTC\r":"2/5/16 15:30\r"},{"TimeMSK":"7:00 PM","TemperatureF":"26.6","Dew PointF":"19.4","Humidity":"74","Sea Level PressureIn":"29.8","VisibilityMPH":"-9999","Wind Direction":"SW","Wind SpeedMPH":"4.5","Gust SpeedMPH":"-","PrecipitationIn":"N/A","Events":"","Conditions":"Clear","FullMetar":"METAR UWKD 051600Z 23002MPS 190V270 CAVOK M03/M07 Q1009 R29/290050 NOSIG RMK QFE746/0994","WindDirDegrees":"230","DateUTC\r":"2/5/16 16:00\r"},{"TimeMSK":"7:30 PM","TemperatureF":"23","Dew PointF":"19.4","Humidity":"86","Sea Level PressureIn":"29.8","VisibilityMPH":"-9999","Wind Direction":"South","Wind SpeedMPH":"4.5","Gust SpeedMPH":"-","PrecipitationIn":"N/A","Events":"","Conditions":"Clear","FullMetar":"METAR UWKD 051630Z 18002MPS CAVOK M05/M07 Q1009 R11/290050 NOSIG RMK QFE747/0996","WindDirDegrees":"180","DateUTC\r":"2/5/16 16:30\r"},{"TimeMSK":"8:00 PM","TemperatureF":"21.2","Dew PointF":"17.6","Humidity":"86","Sea Level PressureIn":"29.83","VisibilityMPH":"6.2","Wind Direction":"South","Wind SpeedMPH":"6.7","Gust SpeedMPH":"-","PrecipitationIn":"N/A","Events":"","Conditions":"Mostly Cloudy","FullMetar":"METAR UWKD 051700Z 18003MPS 9999 BKN050 M06/M08 Q1010 R11/290050 NOSIG RMK QFE747/0996","WindDirDegrees":"180","DateUTC\r":"2/5/16 17:00\r"},{"TimeMSK":"8:30 PM","TemperatureF":"21.2","Dew PointF":"17.6","Humidity":"86","Sea Level PressureIn":"29.83","VisibilityMPH":"6.2","Wind Direction":"South","Wind SpeedMPH":"4.5","Gust SpeedMPH":"-","PrecipitationIn":"N/A","Events":"","Conditions":"Mostly Cloudy","FullMetar":"METAR UWKD 051730Z 18002MPS 9999 BKN043 M06/M08 Q1010 R11/150050 NOSIG RMK QFE747/0996","WindDirDegrees":"180","DateUTC\r":"2/5/16 17:30\r"},{"TimeMSK":"9:00 PM","TemperatureF":"28","Dew PointF":"19","Humidity":"58","Sea Level PressureIn":"29.87","VisibilityMPH":"6","Wind Direction":"WSW","Wind SpeedMPH":"4.5","Gust SpeedMPH":"","PrecipitationIn":"","Events":"","Conditions":"Overcast","FullMetar":"AAXX 05181 27595 42697 82502 11021 21072 39964 40114 52012 8757/ 333 87640","WindDirDegrees":"250","DateUTC\r":"2/5/16 18:00\r"},{"TimeMSK":"9:00 PM","TemperatureF":"23","Dew PointF":"19.4","Humidity":"86","Sea Level PressureIn":"29.83","VisibilityMPH":"6.2","Wind Direction":"South","Wind SpeedMPH":"4.5","Gust SpeedMPH":"-","PrecipitationIn":"N/A","Events":"","Conditions":"Mostly Cloudy","FullMetar":"METAR UWKD 051800Z 19002MPS 9999 BKN041 M05/M07 Q1010 R11/150050 NOSIG RMK QFE747/0997","WindDirDegrees":"190","DateUTC\r":"2/5/16 18:00\r"},{"TimeMSK":"9:30 PM","TemperatureF":"24.8","Dew PointF":"21.2","Humidity":"86","Sea Level PressureIn":"29.83","VisibilityMPH":"6.2","Wind Direction":"SSW","Wind SpeedMPH":"6.7","Gust SpeedMPH":"-","PrecipitationIn":"N/A","Events":"Snow","Conditions":"Light Snow","FullMetar":"METAR UWKD 051830Z 21003MPS 9999 -SN BKN042 M04/M06 Q1010 R11/150050 NOSIG RMK QFE747/0997","WindDirDegrees":"210","DateUTC\r":"2/5/16 18:30\r"},{"TimeMSK":"10:00 PM","TemperatureF":"26.6","Dew PointF":"21.2","Humidity":"80","Sea Level PressureIn":"29.83","VisibilityMPH":"6.2","Wind Direction":"SW","Wind SpeedMPH":"6.7","Gust SpeedMPH":"-","PrecipitationIn":"N/A","Events":"Snow","Conditions":"Light Snow","FullMetar":"METAR UWKD 051900Z 22003MPS 9999 -SN OVC038 M03/M06 Q1010 R11/150050 TEMPO 2000 SN RMK QFE747/0997","WindDirDegrees":"220","DateUTC\r":"2/5/16 19:00\r"},{"TimeMSK":"10:30 PM","TemperatureF":"26.6","Dew PointF":"21.2","Humidity":"80","Sea Level PressureIn":"29.83","VisibilityMPH":"6.2","Wind Direction":"SW","Wind SpeedMPH":"6.7","Gust SpeedMPH":"-","PrecipitationIn":"N/A","Events":"Snow","Conditions":"Light Snow","FullMetar":"METAR UWKD 051930Z 22003MPS 200V270 9999 -SN OVC033 M03/M06 Q1010 R11/150050 TEMPO 2000 SN RMK QFE747/0997","WindDirDegrees":"220","DateUTC\r":"2/5/16 19:30\r"},{"TimeMSK":"11:30 PM","TemperatureF":"26.6","Dew PointF":"21.2","Humidity":"80","Sea Level PressureIn":"29.86","VisibilityMPH":"6.2","Wind Direction":"SSW","Wind SpeedMPH":"4.5","Gust SpeedMPH":"-","PrecipitationIn":"N/A","Events":"Snow","Conditions":"Light Snow","FullMetar":"METAR UWKD 052030Z 21002MPS 9999 -SN OVC021 M03/M06 Q1011 R11/150050 NOSIG RMK QFE748/0997","WindDirDegrees":"210","DateUTC\r":"2/5/16 20:30\r"},{"TimeMSK":"12:00 AM","TemperatureF":"27","Dew PointF":"22","Humidity":"73","Sea Level PressureIn":"29.89","VisibilityMPH":"6","Wind Direction":"SW","Wind SpeedMPH":"2.2","Gust SpeedMPH":"","PrecipitationIn":"","Events":"Snow","Conditions":"Light Snow","FullMetar":"AAXX 05211 27595 41597 72301 11026 21057 39971 40122 52007 72272 87500 333 87630","WindDirDegrees":"230","DateUTC\r":"2/5/16 21:00\r"},{"TimeMSK":"12:00 AM","TemperatureF":"21.2","Dew PointF":"17.6","Humidity":"86","Sea Level PressureIn":"29.86","VisibilityMPH":"6.2","Wind Direction":"South","Wind SpeedMPH":"4.5","Gust SpeedMPH":"-","PrecipitationIn":"N/A","Events":"","Conditions":"Mostly Cloudy","FullMetar":"METAR UWKD 052100Z 19002MPS 9999 BKN050 M06/M08 Q1011 R11/150050 NOSIG RMK QFE748/0997","WindDirDegrees":"190","DateUTC\r":"2/5/16 21:00\r"},{"TimeMSK":"12:30 AM","TemperatureF":"17.6","Dew PointF":"15.8","Humidity":"93","Sea Level PressureIn":"29.86","VisibilityMPH":"-9999","Wind Direction":"SSE","Wind SpeedMPH":"4.5","Gust SpeedMPH":"-","PrecipitationIn":"N/A","Events":"","Conditions":"Clear","FullMetar":"METAR UWKD 052130Z 16002MPS CAVOK M08/M09 Q1011 R11/150050 NOSIG RMK QFE748/0997","WindDirDegrees":"160","DateUTC\r":"2/5/16 21:30\r"},{"TimeMSK":"1:00 AM","TemperatureF":"21.2","Dew PointF":"19.4","Humidity":"93","Sea Level PressureIn":"29.86","VisibilityMPH":"-9999","Wind Direction":"South","Wind SpeedMPH":"4.5","Gust SpeedMPH":"-","PrecipitationIn":"N/A","Events":"","Conditions":"Clear","FullMetar":"METAR UWKD 052200Z 19002MPS CAVOK M06/M07 Q1011 R11/150050 NOSIG RMK QFE748/0997","WindDirDegrees":"190","DateUTC\r":"2/5/16 22:00\r"},{"TimeMSK":"1:30 AM","TemperatureF":"21.2","Dew PointF":"19.4","Humidity":"93","Sea Level PressureIn":"29.86","VisibilityMPH":"-9999","Wind Direction":"SSW","Wind SpeedMPH":"6.7","Gust SpeedMPH":"-","PrecipitationIn":"N/A","Events":"","Conditions":"Clear","FullMetar":"METAR UWKD 052230Z 21003MPS CAVOK M06/M07 Q1011 R11/150050 NOSIG RMK QFE748/0997","WindDirDegrees":"210","DateUTC\r":"2/5/16 22:30\r"},{"TimeMSK":"2:00 AM","TemperatureF":"17.6","Dew PointF":"15.8","Humidity":"93","Sea Level PressureIn":"29.86","VisibilityMPH":"-9999","Wind Direction":"South","Wind SpeedMPH":"6.7","Gust SpeedMPH":"-","PrecipitationIn":"N/A","Events":"","Conditions":"Clear","FullMetar":"METAR UWKD 052300Z 18003MPS CAVOK M08/M09 Q1011 R11/150050 NOSIG RMK QFE748/0998","WindDirDegrees":"180","DateUTC\r":"2/5/16 23:00\r"},{"TimeMSK":"2:30 AM","TemperatureF":"19.4","Dew PointF":"17.6","Humidity":"93","Sea Level PressureIn":"29.86","VisibilityMPH":"6.2","Wind Direction":"South","Wind SpeedMPH":"8.9","Gust SpeedMPH":"-","PrecipitationIn":"N/A","Events":"","Conditions":"Scattered Clouds","FullMetar":"METAR UWKD 052330Z 19004MPS 9999 SCT042 M07/M08 Q1011 R11/150050 NOSIG RMK QFE748/0998","WindDirDegrees":"190","DateUTC\r":"2/5/16 23:30\r"},{"TimeMSK":"3:00 AM","TemperatureF":"24","Dew PointF":"20","Humidity":"78","Sea Level PressureIn":"29.91","VisibilityMPH":"6","Wind Direction":"SSE","Wind SpeedMPH":"2.2","Gust SpeedMPH":"","PrecipitationIn":"","Events":"","Conditions":"Partly Cloudy","FullMetar":"AAXX 06001 27595 41697 71501 11046 21067 39976 40128 52005 70272 87500 333 87642","WindDirDegrees":"150","DateUTC\r":"2/6/16 0:00\r"},{"TimeMSK":"3:00 AM","TemperatureF":"19.4","Dew PointF":"17.6","Humidity":"93","Sea Level PressureIn":"29.86","VisibilityMPH":"6.2","Wind Direction":"SSE","Wind SpeedMPH":"6.7","Gust SpeedMPH":"-","PrecipitationIn":"N/A","Events":"","Conditions":"Scattered Clouds","FullMetar":"METAR UWKD 060000Z 15003MPS 9999 SCT033 M07/M08 Q1011 R11/150050 NOSIG RMK QFE748/0998","WindDirDegrees":"150","DateUTC\r":"2/6/16 0:00\r"},{"TimeMSK":"3:30 AM","TemperatureF":"19.4","Dew PointF":"19.4","Humidity":"100","Sea Level PressureIn":"29.86","VisibilityMPH":"6.2","Wind Direction":"SSE","Wind SpeedMPH":"6.7","Gust SpeedMPH":"-","PrecipitationIn":"N/A","Events":"","Conditions":"Scattered Clouds","FullMetar":"METAR UWKD 060030Z 16003MPS 9999 SCT033 M07/M07 Q1011 R11/150050 NOSIG RMK QFE748/0998","WindDirDegrees":"160","DateUTC\r":"2/6/16 0:30\r"},{"TimeMSK":"4:00 AM","TemperatureF":"21.2","Dew PointF":"19.4","Humidity":"93","Sea Level PressureIn":"29.86","VisibilityMPH":"6.2","Wind Direction":"SSE","Wind SpeedMPH":"8.9","Gust SpeedMPH":"-","PrecipitationIn":"N/A","Events":"","Conditions":"Scattered Clouds","FullMetar":"METAR UWKD 060100Z 15004MPS 9999 SCT028 M06/M07 Q1011 R11/150050 NOSIG RMK QFE748/0998","WindDirDegrees":"150","DateUTC\r":"2/6/16 1:00\r"},{"TimeMSK":"4:30 AM","TemperatureF":"19.4","Dew PointF":"17.6","Humidity":"93","Sea Level PressureIn":"29.89","VisibilityMPH":"5","Wind Direction":"South","Wind SpeedMPH":"8.9","Gust SpeedMPH":"-","PrecipitationIn":"N/A","Events":"","Conditions":"Scattered Clouds","FullMetar":"METAR UWKD 060130Z 17004MPS 8000 SCT020 M07/M08 Q1012 R11/4/0150 TEMPO 0700 FZFG BKN003 RMK QFE749/0998","WindDirDegrees":"170","DateUTC\r":"2/6/16 1:30\r"},{"TimeMSK":"5:00 AM","TemperatureF":"19.4","Dew PointF":"17.6","Humidity":"93","Sea Level PressureIn":"29.89","VisibilityMPH":"6.2","Wind Direction":"South","Wind SpeedMPH":"8.9","Gust SpeedMPH":"-","PrecipitationIn":"N/A","Events":"","Conditions":"Scattered Clouds","FullMetar":"METAR UWKD 060200Z 17004MPS 9999 SCT024 M07/M08 Q1012 R11/4/0150 TEMPO 0700 FZFG BKN003 RMK QFE749/0998","WindDirDegrees":"170","DateUTC\r":"2/6/16 2:00\r"},{"TimeMSK":"5:30 AM","TemperatureF":"21.2","Dew PointF":"19.4","Humidity":"93","Sea Level PressureIn":"29.89","VisibilityMPH":"6.2","Wind Direction":"SSE","Wind SpeedMPH":"8.9","Gust SpeedMPH":"-","PrecipitationIn":"N/A","Events":"","Conditions":"Scattered Clouds","FullMetar":"METAR UWKD 060230Z 16004MPS 9999 SCT040 M06/M07 Q1012 R11/4/0150 TEMPO 0700 FZFG BKN003 RMK QFE749/0999","WindDirDegrees":"160","DateUTC\r":"2/6/16 2:30\r"},{"TimeMSK":"6:00 AM","TemperatureF":"22","Dew PointF":"19","Humidity":"84","Sea Level PressureIn":"29.94","VisibilityMPH":"6","Wind Direction":"SE","Wind SpeedMPH":"2.2","Gust SpeedMPH":"","PrecipitationIn":"","Events":"","Conditions":"Mostly Cloudy","FullMetar":"AAXX 06031 27595 12697 71301 11057 21071 39983 40136 52007 69902 87500 333 21058 43042 55023 87643","WindDirDegrees":"130","DateUTC\r":"2/6/16 3:00\r"},{"TimeMSK":"6:00 AM","TemperatureF":"19.4","Dew PointF":"17.6","Humidity":"93","Sea Level PressureIn":"29.89","VisibilityMPH":"5.6","Wind Direction":"SSE","Wind SpeedMPH":"6.7","Gust SpeedMPH":"-","PrecipitationIn":"N/A","Events":"","Conditions":"Scattered Clouds","FullMetar":"METAR UWKD 060300Z 16003MPS 9000 SCT025 M07/M08 Q1012 R11/4/0150 NOSIG RMK QFE749/0999","WindDirDegrees":"160","DateUTC\r":"2/6/16 3:00\r"},{"TimeMSK":"6:30 AM","TemperatureF":"19.4","Dew PointF":"17.6","Humidity":"93","Sea Level PressureIn":"29.89","VisibilityMPH":"5.6","Wind Direction":"SSE","Wind SpeedMPH":"6.7","Gust SpeedMPH":"-","PrecipitationIn":"N/A","Events":"","Conditions":"Scattered Clouds","FullMetar":"METAR UWKD 060330Z 16003MPS 9000 SCT033 M07/M08 Q1012 R11/4/0150 NOSIG RMK QFE749/0999","WindDirDegrees":"160","DateUTC\r":"2/6/16 3:30\r"},{"TimeMSK":"7:00 AM","TemperatureF":"19.4","Dew PointF":"19.4","Humidity":"100","Sea Level PressureIn":"29.89","VisibilityMPH":"6.2","Wind Direction":"South","Wind SpeedMPH":"6.7","Gust SpeedMPH":"-","PrecipitationIn":"N/A","Events":"","Conditions":"Scattered Clouds","FullMetar":"METAR UWKD 060400Z 19003MPS 9999 SCT021 M07/M07 Q1012 R11/4/0150 NOSIG RMK QFE749/0999","WindDirDegrees":"190","DateUTC\r":"2/6/16 4:00\r"},{"TimeMSK":"7:30 AM","TemperatureF":"17.6","Dew PointF":"15.8","Humidity":"93","Sea Level PressureIn":"29.92","VisibilityMPH":"5","Wind Direction":"South","Wind SpeedMPH":"6.7","Gust SpeedMPH":"-","PrecipitationIn":"N/A","Events":"","Conditions":"Scattered Clouds","FullMetar":"METAR UWKD 060430Z 18003MPS 8000 SCT028 M08/M09 Q1013 R11/4/0150 NOSIG RMK QFE749/0999","WindDirDegrees":"180","DateUTC\r":"2/6/16 4:30\r"},{"TimeMSK":"8:00 AM","TemperatureF":"15.8","Dew PointF":"15.8","Humidity":"100","Sea Level PressureIn":"29.92","VisibilityMPH":"5","Wind Direction":"South","Wind SpeedMPH":"6.7","Gust SpeedMPH":"-","PrecipitationIn":"N/A","Events":"","Conditions":"Scattered Clouds","FullMetar":"METAR UWKD 060500Z 18003MPS 8000 SCT047 M09/M09 Q1013 R11/4/0150 NOSIG RMK QFE749/0999","WindDirDegrees":"180","DateUTC\r":"2/6/16 5:00\r"},{"TimeMSK":"8:30 AM","TemperatureF":"17.6","Dew PointF":"17.6","Humidity":"100","Sea Level PressureIn":"29.92","VisibilityMPH":"5.6","Wind Direction":"South","Wind SpeedMPH":"8.9","Gust SpeedMPH":"-","PrecipitationIn":"N/A","Events":"","Conditions":"Scattered Clouds","FullMetar":"METAR UWKD 060530Z 19004MPS 9000 SCT050 M08/M08 Q1013 R11/4/0150 NOSIG RMK QFE750/1000","WindDirDegrees":"190","DateUTC\r":"2/6/16 5:30\r"},{"TimeMSK":"9:00 AM","TemperatureF":"22","Dew PointF":"20","Humidity":"88","Sea Level PressureIn":"29.97","VisibilityMPH":"6","Wind Direction":"SSE","Wind SpeedMPH":"2.2","Gust SpeedMPH":"","PrecipitationIn":"","Events":"","Conditions":"Scattered Clouds","FullMetar":"AAXX 06061 27595 42697 21501 11054 21067 39996 40148 52012 82500 333 21063","WindDirDegrees":"150","DateUTC\r":"2/6/16 6:00\r"},{"TimeMSK":"9:00 AM","TemperatureF":"19.4","Dew PointF":"17.6","Humidity":"93","Sea Level PressureIn":"29.92","VisibilityMPH":"6.2","Wind Direction":"South","Wind SpeedMPH":"8.9","Gust SpeedMPH":"-","PrecipitationIn":"N/A","Events":"","Conditions":"Scattered Clouds","FullMetar":"METAR UWKD 060600Z 18004MPS 9999 SCT050 M07/M08 Q1013 R11/4/0150 NOSIG RMK QFE750/1000","WindDirDegrees":"180","DateUTC\r":"2/6/16 6:00\r"},{"TimeMSK":"9:30 AM","TemperatureF":"21.2","Dew PointF":"19.4","Humidity":"93","Sea Level PressureIn":"29.92","VisibilityMPH":"6.2","Wind Direction":"SSW","Wind SpeedMPH":"8.9","Gust SpeedMPH":"-","PrecipitationIn":"N/A","Events":"","Conditions":"Scattered Clouds","FullMetar":"METAR UWKD 060630Z 20004MPS 9999 SCT036 M06/M07 Q1013 R11/4/0150 NOSIG RMK QFE750/1000","WindDirDegrees":"200","DateUTC\r":"2/6/16 6:30\r"},{"TimeMSK":"10:00 AM","TemperatureF":"19.4","Dew PointF":"17.6","Humidity":"93","Sea Level PressureIn":"29.95","VisibilityMPH":"6.2","Wind Direction":"South","Wind SpeedMPH":"8.9","Gust SpeedMPH":"-","PrecipitationIn":"N/A","Events":"","Conditions":"Scattered Clouds","FullMetar":"METAR UWKD 060700Z 18004MPS 9999 SCT020 M07/M08 Q1014 R11/4/0150 NOSIG RMK QFE750/1000","WindDirDegrees":"180","DateUTC\r":"2/6/16 7:00\r"},{"TimeMSK":"10:30 AM","TemperatureF":"23","Dew PointF":"19.4","Humidity":"86","Sea Level PressureIn":"29.95","VisibilityMPH":"6.2","Wind Direction":"South","Wind SpeedMPH":"6.7","Gust SpeedMPH":"-","PrecipitationIn":"N/A","Events":"","Conditions":"Scattered Clouds","FullMetar":"METAR UWKD 060730Z 19003MPS 9999 SCT015 M05/M07 Q1014 R11/4/0150 NOSIG RMK QFE750/1000","WindDirDegrees":"190","DateUTC\r":"2/6/16 7:30\r"},{"TimeMSK":"11:00 AM","TemperatureF":"24.8","Dew PointF":"21.2","Humidity":"86","Sea Level PressureIn":"29.95","VisibilityMPH":"6.2","Wind Direction":"South","Wind SpeedMPH":"6.7","Gust SpeedMPH":"-","PrecipitationIn":"N/A","Events":"","Conditions":"Scattered Clouds","FullMetar":"METAR UWKD 060800Z 17003MPS 9999 SCT015 M04/M06 Q1014 R11/4/0150 NOSIG RMK QFE750/1001","WindDirDegrees":"170","DateUTC\r":"2/6/16 8:00\r"},{"TimeMSK":"11:30 AM","TemperatureF":"23","Dew PointF":"21.2","Humidity":"93","Sea Level PressureIn":"29.95","VisibilityMPH":"6.2","Wind Direction":"SE","Wind SpeedMPH":"4.5","Gust SpeedMPH":"-","PrecipitationIn":"N/A","Events":"","Conditions":"Scattered Clouds","FullMetar":"METAR UWKD 060830Z 14002MPS 9999 SCT015 M05/M06 Q1014 R11/4/0150 NOSIG RMK QFE750/1001","WindDirDegrees":"140","DateUTC\r":"2/6/16 8:30\r"},{"TimeMSK":"12:00 PM","TemperatureF":"29","Dew PointF":"24","Humidity":"72","Sea Level PressureIn":"29.99","VisibilityMPH":"6","Wind Direction":"WSW","Wind SpeedMPH":"4.5","Gust SpeedMPH":"","PrecipitationIn":"","Events":"","Conditions":"Mostly Cloudy","FullMetar":"AAXX 06091 27595 42497 62502 11015 21047 30004 40155 52008 86500 333 86618","WindDirDegrees":"250","DateUTC\r":"2/6/16 9:00\r"},{"TimeMSK":"12:00 PM","TemperatureF":"24.8","Dew PointF":"21.2","Humidity":"86","Sea Level PressureIn":"29.95","VisibilityMPH":"6.2","Wind Direction":"SE","Wind SpeedMPH":"6.7","Gust SpeedMPH":"-","PrecipitationIn":"N/A","Events":"","Conditions":"Scattered Clouds","FullMetar":"METAR UWKD 060900Z 14003MPS 9999 SCT017 M04/M06 Q1014 R11/810150 NOSIG RMK QFE750/1000","WindDirDegrees":"140","DateUTC\r":"2/6/16 9:00\r"},{"TimeMSK":"12:30 PM","TemperatureF":"24.8","Dew PointF":"21.2","Humidity":"86","Sea Level PressureIn":"29.95","VisibilityMPH":"6.2","Wind Direction":"South","Wind SpeedMPH":"6.7","Gust SpeedMPH":"-","PrecipitationIn":"N/A","Events":"","Conditions":"Scattered Clouds","FullMetar":"METAR UWKD 060930Z 17003MPS 9999 SCT016 M04/M06 Q1014 R11/810150 NOSIG RMK QFE750/1000","WindDirDegrees":"170","DateUTC\r":"2/6/16 9:30\r"},{"TimeMSK":"1:00 PM","TemperatureF":"26.6","Dew PointF":"21.2","Humidity":"80","Sea Level PressureIn":"29.95","VisibilityMPH":"6.2","Wind Direction":"South","Wind SpeedMPH":"6.7","Gust SpeedMPH":"-","PrecipitationIn":"N/A","Events":"","Conditions":"Partly Cloudy","FullMetar":"METAR UWKD 061000Z 17003MPS 9999 FEW016 M03/M06 Q1014 R11/810150 NOSIG RMK QFE750/1000","WindDirDegrees":"170","DateUTC\r":"2/6/16 10:00\r"},{"TimeMSK":"1:30 PM","TemperatureF":"28.4","Dew PointF":"24.8","Humidity":"86","Sea Level PressureIn":"29.92","VisibilityMPH":"-9999","Wind Direction":"South","Wind SpeedMPH":"6.7","Gust SpeedMPH":"-","PrecipitationIn":"N/A","Events":"","Conditions":"Clear","FullMetar":"METAR UWKD 061030Z 19003MPS CAVOK M02/M04 Q1013 R11/810150 NOSIG RMK QFE750/1000","WindDirDegrees":"190","DateUTC\r":"2/6/16 10:30\r"},{"TimeMSK":"2:00 PM","TemperatureF":"26.6","Dew PointF":"23","Humidity":"86","Sea Level PressureIn":"29.95","VisibilityMPH":"-9999","Wind Direction":"SE","Wind SpeedMPH":"8.9","Gust SpeedMPH":"-","PrecipitationIn":"N/A","Events":"","Conditions":"Clear","FullMetar":"METAR UWKD 061100Z 14004MPS CAVOK M03/M05 Q1014 R11/810150 NOSIG RMK QFE750/1000","WindDirDegrees":"140","DateUTC\r":"2/6/16 11:00\r"},{"TimeMSK":"2:30 PM","TemperatureF":"26.6","Dew PointF":"21.2","Humidity":"80","Sea Level PressureIn":"29.95","VisibilityMPH":"-9999","Wind Direction":"SSE","Wind SpeedMPH":"4.5","Gust SpeedMPH":"-","PrecipitationIn":"N/A","Events":"","Conditions":"Clear","FullMetar":"METAR UWKD 061130Z 15002MPS 120V180 CAVOK M03/M06 Q1014 R11/810150 NOSIG RMK QFE750/1000","WindDirDegrees":"150","DateUTC\r":"2/6/16 11:30\r"},{"TimeMSK":"3:00 PM","TemperatureF":"30","Dew PointF":"24","Humidity":"69","Sea Level PressureIn":"29.98","VisibilityMPH":"6","Wind Direction":"West","Wind SpeedMPH":"2.2","Gust SpeedMPH":"","PrecipitationIn":"","Events":"","Conditions":"Mostly Cloudy","FullMetar":"AAXX 06121 27595 42997 72701 11011 21046 30001 40151 56003 87070","WindDirDegrees":"270","DateUTC\r":"2/6/16 12:00\r"},{"TimeMSK":"3:00 PM","TemperatureF":"24.8","Dew PointF":"23","Humidity":"93","Sea Level PressureIn":"29.95","VisibilityMPH":"-9999","Wind Direction":"South","Wind SpeedMPH":"6.7","Gust SpeedMPH":"-","PrecipitationIn":"N/A","Events":"","Conditions":"Clear","FullMetar":"METAR UWKD 061200Z 18003MPS CAVOK M04/M05 Q1014 R11/810150 NOSIG RMK QFE750/1000","WindDirDegrees":"180","DateUTC\r":"2/6/16 12:00\r"},{"TimeMSK":"3:30 PM","TemperatureF":"26.6","Dew PointF":"23","Humidity":"86","Sea Level PressureIn":"29.95","VisibilityMPH":"-9999","Wind Direction":"South","Wind SpeedMPH":"8.9","Gust SpeedMPH":"-","PrecipitationIn":"N/A","Events":"","Conditions":"Clear","FullMetar":"METAR UWKD 061230Z 19004MPS CAVOK M03/M05 Q1014 R11/810150 NOSIG RMK QFE750/1000","WindDirDegrees":"190","DateUTC\r":"2/6/16 12:30\r"},{"TimeMSK":"4:00 PM","TemperatureF":"26.6","Dew PointF":"23","Humidity":"86","Sea Level PressureIn":"29.95","VisibilityMPH":"-9999","Wind Direction":"South","Wind SpeedMPH":"8.9","Gust SpeedMPH":"-","PrecipitationIn":"N/A","Events":"","Conditions":"Clear","FullMetar":"METAR UWKD 061300Z 19004MPS CAVOK M03/M05 Q1014 R11/810150 NOSIG RMK QFE750/1000","WindDirDegrees":"190","DateUTC\r":"2/6/16 13:00\r"},{"TimeMSK":"4:30 PM","TemperatureF":"24.8","Dew PointF":"23","Humidity":"93","Sea Level PressureIn":"29.95","VisibilityMPH":"-9999","Wind Direction":"South","Wind SpeedMPH":"6.7","Gust SpeedMPH":"-","PrecipitationIn":"N/A","Events":"","Conditions":"Clear","FullMetar":"METAR UWKD 061330Z 17003MPS CAVOK M04/M05 Q1014 R11/1/0050 NOSIG RMK QFE750/1000","WindDirDegrees":"170","DateUTC\r":"2/6/16 13:30\r"},{"TimeMSK":"5:00 PM","TemperatureF":"24.8","Dew PointF":"21.2","Humidity":"86","Sea Level PressureIn":"29.95","VisibilityMPH":"-9999","Wind Direction":"South","Wind SpeedMPH":"6.7","Gust SpeedMPH":"-","PrecipitationIn":"N/A","Events":"","Conditions":"Clear","FullMetar":"METAR UWKD 061400Z 18003MPS CAVOK M04/M06 Q1014 R11/1/0050 NOSIG RMK QFE750/1000","WindDirDegrees":"180","DateUTC\r":"2/6/16 14:00\r"},{"TimeMSK":"5:30 PM","TemperatureF":"24.8","Dew PointF":"23","Humidity":"93","Sea Level PressureIn":"29.95","VisibilityMPH":"-9999","Wind Direction":"South","Wind SpeedMPH":"6.7","Gust SpeedMPH":"-","PrecipitationIn":"N/A","Events":"","Conditions":"Clear","FullMetar":"METAR UWKD 061430Z 19003MPS CAVOK M04/M05 Q1014 R11/1/0050 NOSIG RMK QFE750/1000","WindDirDegrees":"190","DateUTC\r":"2/6/16 14:30\r"},{"TimeMSK":"6:00 PM","TemperatureF":"28","Dew PointF":"23","Humidity":"76","Sea Level PressureIn":"29.99","VisibilityMPH":"6","Wind Direction":"WSW","Wind SpeedMPH":"4.5","Gust SpeedMPH":"","PrecipitationIn":"","Events":"","Conditions":"Overcast","FullMetar":"AAXX 06151 27595 12997 82402 11020 21048 30003 40154 52002 60002 8807/ 333 11003","WindDirDegrees":"240","DateUTC\r":"2/6/16 15:00\r"},{"TimeMSK":"6:00 PM","TemperatureF":"23","Dew PointF":"21.2","Humidity":"93","Sea Level PressureIn":"29.95","VisibilityMPH":"-9999","Wind Direction":"South","Wind SpeedMPH":"4.5","Gust SpeedMPH":"-","PrecipitationIn":"N/A","Events":"","Conditions":"Clear","FullMetar":"METAR UWKD 061500Z 19002MPS CAVOK M05/M06 Q1014 R11/1/0050 NOSIG RMK QFE750/1001","WindDirDegrees":"190","DateUTC\r":"2/6/16 15:00\r"},{"TimeMSK":"6:30 PM","TemperatureF":"24.8","Dew PointF":"23","Humidity":"93","Sea Level PressureIn":"29.95","VisibilityMPH":"-9999","Wind Direction":"SSW","Wind SpeedMPH":"4.5","Gust SpeedMPH":"-","PrecipitationIn":"N/A","Events":"","Conditions":"Clear","FullMetar":"METAR UWKD 061530Z 20002MPS CAVOK M04/M05 Q1014 R11/1/0050 NOSIG RMK QFE750/1001","WindDirDegrees":"200","DateUTC\r":"2/6/16 15:30\r"},{"TimeMSK":"7:00 PM","TemperatureF":"24.8","Dew PointF":"23","Humidity":"93","Sea Level PressureIn":"29.95","VisibilityMPH":"-9999","Wind Direction":"SSW","Wind SpeedMPH":"4.5","Gust SpeedMPH":"-","PrecipitationIn":"N/A","Events":"","Conditions":"Clear","FullMetar":"METAR UWKD 061600Z 21002MPS CAVOK M04/M05 Q1014 R11/1/0050 NOSIG RMK QFE750/1001","WindDirDegrees":"210","DateUTC\r":"2/6/16 16:00\r"},{"TimeMSK":"7:30 PM","TemperatureF":"23","Dew PointF":"21.2","Humidity":"93","Sea Level PressureIn":"29.95","VisibilityMPH":"-9999","Wind Direction":"South","Wind SpeedMPH":"4.5","Gust SpeedMPH":"-","PrecipitationIn":"N/A","Events":"","Conditions":"Clear","FullMetar":"METAR UWKD 061630Z 17002MPS CAVOK M05/M06 Q1014 R11/1/0050 NOSIG RMK QFE751/1001","WindDirDegrees":"170","DateUTC\r":"2/6/16 16:30\r"},{"TimeMSK":"8:00 PM","TemperatureF":"23","Dew PointF":"21.2","Humidity":"93","Sea Level PressureIn":"29.98","VisibilityMPH":"-9999","Wind Direction":"South","Wind SpeedMPH":"4.5","Gust SpeedMPH":"-","PrecipitationIn":"N/A","Events":"","Conditions":"Clear","FullMetar":"METAR UWKD 061700Z 17002MPS CAVOK M05/M06 Q1015 R11/1/0050 NOSIG RMK QFE751/1001","WindDirDegrees":"170","DateUTC\r":"2/6/16 17:00\r"},{"TimeMSK":"8:30 PM","TemperatureF":"23","Dew PointF":"21.2","Humidity":"93","Sea Level PressureIn":"29.98","VisibilityMPH":"5.6","Wind Direction":"South","Wind SpeedMPH":"4.5","Gust SpeedMPH":"-","PrecipitationIn":"N/A","Events":"","Conditions":"Unknown","FullMetar":"METAR UWKD 061730Z 18002MPS 9000 NSC M05/M06 Q1015 R11/1/0050 NOSIG RMK QFE751/1001","WindDirDegrees":"180","DateUTC\r":"2/6/16 17:30\r"},{"TimeMSK":"9:00 PM","TemperatureF":"27","Dew PointF":"23","Humidity":"79","Sea Level PressureIn":"30.01","VisibilityMPH":"6","Wind Direction":"West","Wind SpeedMPH":"2.2","Gust SpeedMPH":"","PrecipitationIn":"","Events":"","Conditions":"Overcast","FullMetar":"AAXX 06181 27595 42997 82601 11027 21049 30011 40162 52008 8805/","WindDirDegrees":"260","DateUTC\r":"2/6/16 18:00\r"},{"TimeMSK":"9:00 PM","TemperatureF":"23","Dew PointF":"21.2","Humidity":"93","Sea Level PressureIn":"29.98","VisibilityMPH":"5","Wind Direction":"South","Wind SpeedMPH":"4.5","Gust SpeedMPH":"-","PrecipitationIn":"N/A","Events":"","Conditions":"Unknown","FullMetar":"METAR UWKD 061800Z 18002MPS 8000 NSC M05/M06 Q1015 R11/1/0050 NOSIG RMK QFE751/1001","WindDirDegrees":"180","DateUTC\r":"2/6/16 18:00\r"},{"TimeMSK":"9:30 PM","TemperatureF":"23","Dew PointF":"23","Humidity":"100","Sea Level PressureIn":"29.98","VisibilityMPH":"5","Wind Direction":"SSW","Wind SpeedMPH":"2.2","Gust SpeedMPH":"-","PrecipitationIn":"N/A","Events":"","Conditions":"Unknown","FullMetar":"METAR UWKD 061830Z 21001MPS 8000 NSC M05/M05 Q1015 R11/1/0050 NOSIG RMK QFE751/1001","WindDirDegrees":"210","DateUTC\r":"2/6/16 18:30\r"},{"TimeMSK":"10:00 PM","TemperatureF":"23","Dew PointF":"21.2","Humidity":"93","Sea Level PressureIn":"29.98","VisibilityMPH":"5","Wind Direction":"SSW","Wind SpeedMPH":"2.2","Gust SpeedMPH":"-","PrecipitationIn":"N/A","Events":"","Conditions":"Unknown","FullMetar":"METAR UWKD 061900Z 20001MPS 8000 NSC M05/M06 Q1015 R11/1/0050 NOSIG RMK QFE751/1001","WindDirDegrees":"200","DateUTC\r":"2/6/16 19:00\r"},{"TimeMSK":"10:30 PM","TemperatureF":"23","Dew PointF":"21.2","Humidity":"93","Sea Level PressureIn":"29.98","VisibilityMPH":"5","Wind Direction":"South","Wind SpeedMPH":"2.2","Gust SpeedMPH":"-","PrecipitationIn":"N/A","Events":"","Conditions":"Unknown","FullMetar":"METAR UWKD 061930Z 19001MPS 8000 NSC M05/M06 Q1015 R11/1/0050 NOSIG RMK QFE751/1002","WindDirDegrees":"190","DateUTC\r":"2/6/16 19:30\r"},{"TimeMSK":"11:00 PM","TemperatureF":"23","Dew PointF":"21.2","Humidity":"93","Sea Level PressureIn":"29.98","VisibilityMPH":"4.3","Wind Direction":"SW","Wind SpeedMPH":"2.2","Gust SpeedMPH":"-","PrecipitationIn":"N/A","Events":"","Conditions":"Unknown","FullMetar":"METAR UWKD 062000Z 23001MPS 7000 NSC M05/M06 Q1015 R11/1/0050 NOSIG RMK QFE751/1002","WindDirDegrees":"230","DateUTC\r":"2/6/16 20:00\r"},{"TimeMSK":"11:30 PM","TemperatureF":"23","Dew PointF":"23","Humidity":"100","Sea Level PressureIn":"29.98","VisibilityMPH":"4.3","Wind Direction":"WSW","Wind SpeedMPH":"2.2","Gust SpeedMPH":"-","PrecipitationIn":"N/A","Events":"","Conditions":"Mostly Cloudy","FullMetar":"METAR UWKD 062030Z 25001MPS 7000 BKN039 M05/M05 Q1015 R11/1/0050 NOSIG RMK QFE751/1002","WindDirDegrees":"250","DateUTC\r":"2/6/16 20:30\r"},{"TimeMSK":"12:00 AM","TemperatureF":"27","Dew PointF":"24","Humidity":"81","Sea Level PressureIn":"30.03","VisibilityMPH":"6","Wind Direction":"WNW","Wind SpeedMPH":"4.5","Gust SpeedMPH":"","PrecipitationIn":"","Events":"Snow","Conditions":"Light Snow","FullMetar":"AAXX 06211 27595 41997 82902 11027 21047 30016 40167 52005 77072 8807/","WindDirDegrees":"290","DateUTC\r":"2/6/16 21:00\r"},{"TimeMSK":"12:00 AM","TemperatureF":"24.8","Dew PointF":"23","Humidity":"93","Sea Level PressureIn":"29.98","VisibilityMPH":"4.3","Wind Direction":"West","Wind SpeedMPH":"4.5","Gust SpeedMPH":"-","PrecipitationIn":"N/A","Events":"","Conditions":"Mostly Cloudy","FullMetar":"METAR UWKD 062100Z 27002MPS 7000 BKN032 M04/M05 Q1015 R11/1/0050 NOSIG RMK QFE751/1002","WindDirDegrees":"270","DateUTC\r":"2/6/16 21:00\r"},{"TimeMSK":"12:30 AM","TemperatureF":"23","Dew PointF":"23","Humidity":"100","Sea Level PressureIn":"29.98","VisibilityMPH":"5","Wind Direction":"WNW","Wind SpeedMPH":"4.5","Gust SpeedMPH":"-","PrecipitationIn":"N/A","Events":"","Conditions":"Overcast","FullMetar":"METAR UWKD 062130Z 29002MPS 8000 OVC050 M05/M05 Q1015 R11/1/0050 NOSIG RMK QFE751/1002","WindDirDegrees":"290","DateUTC\r":"2/6/16 21:30\r"},{"TimeMSK":"1:00 AM","TemperatureF":"23","Dew PointF":"23","Humidity":"100","Sea Level PressureIn":"29.98","VisibilityMPH":"4.3","Wind Direction":"WNW","Wind SpeedMPH":"4.5","Gust SpeedMPH":"-","PrecipitationIn":"N/A","Events":"","Conditions":"Unknown","FullMetar":"METAR UWKD 062200Z 30002MPS 7000 NSC M05/M05 Q1015 R11/1/0050 NOSIG RMK QFE751/1002","WindDirDegrees":"300","DateUTC\r":"2/6/16 22:00\r"},{"TimeMSK":"1:30 AM","TemperatureF":"24.8","Dew PointF":"23","Humidity":"93","Sea Level PressureIn":"29.98","VisibilityMPH":"4.3","Wind Direction":"NW","Wind SpeedMPH":"6.7","Gust SpeedMPH":"-","PrecipitationIn":"N/A","Events":"","Conditions":"Unknown","FullMetar":"METAR UWKD 062230Z 31003MPS 7000 NSC M04/M05 Q1015 R11/750045 TEMPO 0500 FZFG VV002 RMK QFE751/1002","WindDirDegrees":"310","DateUTC\r":"2/6/16 22:30\r"},{"TimeMSK":"2:00 AM","TemperatureF":"24.8","Dew PointF":"24.8","Humidity":"100","Sea Level PressureIn":"29.98","VisibilityMPH":"3.7","Wind Direction":"NNW","Wind SpeedMPH":"4.5","Gust SpeedMPH":"-","PrecipitationIn":"N/A","Events":"","Conditions":"Mostly Cloudy","FullMetar":"METAR UWKD 062300Z 33002MPS 6000 BKN050 M04/M04 Q1015 R29/750045 TEMPO 0500 FZFG VV002 RMK QFE750/1000","WindDirDegrees":"330","DateUTC\r":"2/6/16 23:00\r"},{"TimeMSK":"2:30 AM","TemperatureF":"23","Dew PointF":"23","Humidity":"100","Sea Level PressureIn":"29.98","VisibilityMPH":"2.8","Wind Direction":"NNW","Wind SpeedMPH":"4.5","Gust SpeedMPH":"-","PrecipitationIn":"N/A","Events":"","Conditions":"Partly Cloudy","FullMetar":"METAR UWKD 062330Z 34002MPS 4500 BR FEW050 M05/M05 Q1015 R29/750045 TEMPO 0500 FZFG VV002 RMK QFE750/1001","WindDirDegrees":"340","DateUTC\r":"2/6/16 23:30\r"},{"TimeMSK":"3:00 AM","TemperatureF":"26","Dew PointF":"23","Humidity":"84","Sea Level PressureIn":"30.04","VisibilityMPH":"6","Wind Direction":"WNW","Wind SpeedMPH":"2.2","Gust SpeedMPH":"","PrecipitationIn":"","Events":"Snow","Conditions":"Light Snow","FullMetar":"AAXX 07001 27595 41997 82901 11033 21049 30020 40171 52004 72272 8805/","WindDirDegrees":"290","DateUTC\r":"2/7/16 0:00\r"},{"TimeMSK":"3:00 AM","TemperatureF":"23","Dew PointF":"23","Humidity":"100","Sea Level PressureIn":"30.01","VisibilityMPH":"2.2","Wind Direction":"NNW","Wind SpeedMPH":"6.7","Gust SpeedMPH":"-","PrecipitationIn":"N/A","Events":"","Conditions":"Partly Cloudy","FullMetar":"METAR UWKD 070000Z 34003MPS 3500 BR FEW046 M05/M05 Q1016 R29/750045 TEMPO 0500 FZFG VV002 RMK QFE750/1001","WindDirDegrees":"340","DateUTC\r":"2/7/16 0:00\r"},{"TimeMSK":"3:30 AM","TemperatureF":"23","Dew PointF":"23","Humidity":"100","Sea Level PressureIn":"30.01","VisibilityMPH":"-9999","Wind Direction":"NNW","Wind SpeedMPH":"6.7","Gust SpeedMPH":"-","PrecipitationIn":"N/A","Events":"","Conditions":"Partly Cloudy","FullMetar":"METAR UWKD 070030Z 33003MPS 4100 BR FEW050 M05/M05 Q1016 R29/750045 TEMPO 0500 FZFG VV002 RMK QFE750/1001","WindDirDegrees":"330","DateUTC\r":"2/7/16 0:30\r"},{"TimeMSK":"4:00 AM","TemperatureF":"23","Dew PointF":"21.2","Humidity":"93","Sea Level PressureIn":"30.01","VisibilityMPH":"1.6","Wind Direction":"NNW","Wind SpeedMPH":"4.5","Gust SpeedMPH":"-","PrecipitationIn":"N/A","Events":"","Conditions":"Partly Cloudy","FullMetar":"METAR UWKD 070100Z 33002MPS 2500 BR FEW050 M05/M06 Q1016 R29/750045 TEMPO 0500 FZFG VV002 RMK QFE750/1001","WindDirDegrees":"330","DateUTC\r":"2/7/16 1:00\r"},{"TimeMSK":"4:30 AM","TemperatureF":"23","Dew PointF":"23","Humidity":"100","Sea Level PressureIn":"30.01","VisibilityMPH":"1.2","Wind Direction":"WNW","Wind SpeedMPH":"4.5","Gust SpeedMPH":"-","PrecipitationIn":"N/A","Events":"","Conditions":"Partly Cloudy","FullMetar":"METAR UWKD 070130Z 30002MPS 1900 R29/P2000D BR FEW050 M05/M05 Q1016 R29/750045 TEMPO 0500 FZFG VV002 RMK QFE751/1001","WindDirDegrees":"300","DateUTC\r":"2/7/16 1:30\r"},{"TimeMSK":"5:00 AM","TemperatureF":"23","Dew PointF":"21.2","Humidity":"93","Sea Level PressureIn":"30.01","VisibilityMPH":"1.1","Wind Direction":"WNW","Wind SpeedMPH":"4.5","Gust SpeedMPH":"-","PrecipitationIn":"N/A","Events":"","Conditions":"Partly Cloudy","FullMetar":"METAR UWKD 070200Z 29002MPS 1800 1200SE R29/P2000N BR FEW050 M05/M06 Q1016 R29/750045 TEMPO 0500 FZFG VV002 RMK QFE751/1001","WindDirDegrees":"290","DateUTC\r":"2/7/16 2:00\r"},{"TimeMSK":"5:30 AM","TemperatureF":"23","Dew PointF":"23","Humidity":"100","Sea Level PressureIn":"30.01","VisibilityMPH":"1.9","Wind Direction":"WNW","Wind SpeedMPH":"6.7","Gust SpeedMPH":"-","PrecipitationIn":"N/A","Events":"","Conditions":"Partly Cloudy","FullMetar":"METAR UWKD 070230Z 29003MPS 3000 1200SE R29/P2000U BR FEW050 M05/M05 Q1016 R29/750045 TEMPO 0500 FZFG VV002 RMK QFE751/1001","WindDirDegrees":"290","DateUTC\r":"2/7/16 2:30\r"},{"TimeMSK":"6:00 AM","TemperatureF":"26","Dew PointF":"23","Humidity":"84","Sea Level PressureIn":"30.06","VisibilityMPH":"6","Wind Direction":"WNW","Wind SpeedMPH":"4.5","Gust SpeedMPH":"","PrecipitationIn":"","Events":"","Conditions":"Overcast","FullMetar":"AAXX 07031 27595 12997 83002 11034 21049 30027 40179 52008 69902 8805/ 333 21035 43041 55023","WindDirDegrees":"300","DateUTC\r":"2/7/16 3:00\r"},{"TimeMSK":"6:00 AM","TemperatureF":"23","Dew PointF":"21.2","Humidity":"93","Sea Level PressureIn":"30.01","VisibilityMPH":"1.4","Wind Direction":"WNW","Wind SpeedMPH":"4.5","Gust SpeedMPH":"-","PrecipitationIn":"N/A","Events":"","Conditions":"Partly Cloudy","FullMetar":"METAR UWKD 070300Z 29002MPS 2300 BR FEW050 M05/M06 Q1016 R29/750045 TEMPO 0500 FZFG VV002 RMK QFE751/1002","WindDirDegrees":"290","DateUTC\r":"2/7/16 3:00\r"},{"TimeMSK":"6:30 AM","TemperatureF":"23","Dew PointF":"23","Humidity":"100","Sea Level PressureIn":"30.04","VisibilityMPH":"1.1","Wind Direction":"WNW","Wind SpeedMPH":"4.5","Gust SpeedMPH":"-","PrecipitationIn":"N/A","Events":"","Conditions":"Partly Cloudy","FullMetar":"METAR UWKD 070330Z 29002MPS 1800 R29/P2000D BR FEW050 M05/M05 Q1017 R29/750045 TEMPO 0500 FZFG VV002 RMK QFE751/1002","WindDirDegrees":"290","DateUTC\r":"2/7/16 3:30\r"},{"TimeMSK":"7:00 AM","TemperatureF":"21.2","Dew PointF":"21.2","Humidity":"100","Sea Level PressureIn":"30.04","VisibilityMPH":"1.7","Wind Direction":"WNW","Wind SpeedMPH":"6.7","Gust SpeedMPH":"-","PrecipitationIn":"N/A","Events":"","Conditions":"Partly Cloudy","FullMetar":"METAR UWKD 070400Z 30003MPS 2800 BR FEW050 M06/M06 Q1017 R29/1/0050 TEMPO 0500 FZFG VV002 RMK QFE751/1002","WindDirDegrees":"300","DateUTC\r":"2/7/16 4:00\r"},{"TimeMSK":"7:30 AM","TemperatureF":"23","Dew PointF":"23","Humidity":"100","Sea Level PressureIn":"30.04","VisibilityMPH":"0.6","Wind Direction":"WNW","Wind SpeedMPH":"6.7","Gust SpeedMPH":"-","PrecipitationIn":"N/A","Events":"Fog-Snow","Conditions":"Snow","FullMetar":"METAR UWKD 070430Z 30003MPS 3300 0900SE R29/P2000D SN FZFG OVC007 M05/M05 Q1017 R29/4/0240 TEMPO 0500 FZFG VV002 RMK QFE752/1003","WindDirDegrees":"300","DateUTC\r":"2/7/16 4:30\r"},{"TimeMSK":"8:00 AM","TemperatureF":"23","Dew PointF":"23","Humidity":"100","Sea Level PressureIn":"30.06","VisibilityMPH":"-9999","Wind Direction":"WNW","Wind SpeedMPH":"6.7","Gust SpeedMPH":"-","PrecipitationIn":"N/A","Events":"Snow","Conditions":"Light Snow","FullMetar":"METAR UWKD 070500Z 30003MPS 3900 -SN BR NSC M05/M05 Q1018 R29/4/0240 TEMPO 0500 FZFG VV002 RMK QFE752/1003","WindDirDegrees":"300","DateUTC\r":"2/7/16 5:00\r"},{"TimeMSK":"8:30 AM","TemperatureF":"23","Dew PointF":"23","Humidity":"100","Sea Level PressureIn":"30.06","VisibilityMPH":"-9999","Wind Direction":"WNW","Wind SpeedMPH":"4.5","Gust SpeedMPH":"-","PrecipitationIn":"N/A","Events":"Snow","Conditions":"Light Snow","FullMetar":"METAR UWKD 070530Z 29002MPS 4600 -SN BR NSC M05/M05 Q1018 R29/4/0240 TEMPO 0500 FZFG VV002 RMK QFE752/1003","WindDirDegrees":"290","DateUTC\r":"2/7/16 5:30\r"},{"TimeMSK":"9:00 AM","TemperatureF":"26","Dew PointF":"24","Humidity":"88","Sea Level PressureIn":"30.12","VisibilityMPH":"6","Wind Direction":"WNW","Wind SpeedMPH":"4.5","Gust SpeedMPH":"","PrecipitationIn":"","Events":"Snow","Conditions":"Light Snow","FullMetar":"AAXX 07061 27595 41997 83002 11032 21045 30046 40198 52018 72272 8807/","WindDirDegrees":"300","DateUTC\r":"2/7/16 6:00\r"},{"TimeMSK":"9:00 AM","TemperatureF":"23","Dew PointF":"23","Humidity":"100","Sea Level PressureIn":"30.06","VisibilityMPH":"-9999","Wind Direction":"West","Wind SpeedMPH":"4.5","Gust SpeedMPH":"-","PrecipitationIn":"N/A","Events":"Snow","Conditions":"Light Snow","FullMetar":"METAR UWKD 070600Z 26002MPS 3900 -SN BR BKN033 M05/M05 Q1018 R29/4/0240 TEMPO 2000 BR RMK QFE752/1003","WindDirDegrees":"260","DateUTC\r":"2/7/16 6:00\r"},{"TimeMSK":"9:30 AM","TemperatureF":"24.8","Dew PointF":"23","Humidity":"93","Sea Level PressureIn":"30.06","VisibilityMPH":"-9999","Wind Direction":"West","Wind SpeedMPH":"6.7","Gust SpeedMPH":"-","PrecipitationIn":"N/A","Events":"","Conditions":"Mostly Cloudy","FullMetar":"METAR UWKD 070630Z 28003MPS 4900 BR BKN008 M04/M05 Q1018 R29/4/0240 TEMPO 2000 BR BKN005 RMK QFE753/1004","WindDirDegrees":"280","DateUTC\r":"2/7/16 6:30\r"},{"TimeMSK":"10:00 AM","TemperatureF":"24.8","Dew PointF":"24.8","Humidity":"100","Sea Level PressureIn":"30.09","VisibilityMPH":"3.7","Wind Direction":"WNW","Wind SpeedMPH":"8.9","Gust SpeedMPH":"-","PrecipitationIn":"N/A","Events":"","Conditions":"Unknown","FullMetar":"METAR UWKD 070700Z 30004MPS 6000 NSC M04/M04 Q1019 R29/4/0240 TEMPO 2000 BR BKN005 RMK QFE753/1004","WindDirDegrees":"300","DateUTC\r":"2/7/16 7:00\r"},{"TimeMSK":"10:30 AM","TemperatureF":"26.6","Dew PointF":"26.6","Humidity":"100","Sea Level PressureIn":"30.09","VisibilityMPH":"5","Wind Direction":"WNW","Wind SpeedMPH":"8.9","Gust SpeedMPH":"-","PrecipitationIn":"N/A","Events":"","Conditions":"Scattered Clouds","FullMetar":"METAR UWKD 070730Z 30004MPS 8000 SCT007 M03/M03 Q1019 R29/4/0240 TEMPO 2000 SN BKN005 RMK QFE753/1004","WindDirDegrees":"300","DateUTC\r":"2/7/16 7:30\r"},{"TimeMSK":"11:00 AM","TemperatureF":"28.4","Dew PointF":"24.8","Humidity":"86","Sea Level PressureIn":"30.09","VisibilityMPH":"6.2","Wind Direction":"NW","Wind SpeedMPH":"13.4","Gust SpeedMPH":"-","PrecipitationIn":"N/A","Events":"","Conditions":"Scattered Clouds","FullMetar":"METAR UWKD 070800Z 31006MPS 9999 SCT007 M02/M04 Q1019 R29/810050 TEMPO 2000 SN BKN005 RMK QFE753/1004","WindDirDegrees":"310","DateUTC\r":"2/7/16 8:00\r"},{"TimeMSK":"11:30 AM","TemperatureF":"28.4","Dew PointF":"26.6","Humidity":"93","Sea Level PressureIn":"30.09","VisibilityMPH":"6.2","Wind Direction":"NW","Wind SpeedMPH":"15.7","Gust SpeedMPH":"-","PrecipitationIn":"N/A","Events":"","Conditions":"Overcast","FullMetar":"METAR UWKD 070830Z 32007MPS 9999 OVC008 M02/M03 Q1019 R29/810050 TEMPO 2000 SN BKN005 RMK QFE753/1004","WindDirDegrees":"320","DateUTC\r":"2/7/16 8:30\r"},{"TimeMSK":"12:00 PM","TemperatureF":"29","Dew PointF":"25","Humidity":"79","Sea Level PressureIn":"30.15","VisibilityMPH":"6","Wind Direction":"NW","Wind SpeedMPH":"2.2","Gust SpeedMPH":"","PrecipitationIn":"","Events":"","Conditions":"Overcast","FullMetar":"AAXX 07091 27595 42497 83101 11019 21039 30057 40209 52011 885// 333 88616","WindDirDegrees":"310","DateUTC\r":"2/7/16 9:00\r"},{"TimeMSK":"12:00 PM","TemperatureF":"28.4","Dew PointF":"24.8","Humidity":"86","Sea Level PressureIn":"30.09","VisibilityMPH":"6.2","Wind Direction":"NW","Wind SpeedMPH":"13.4","Gust SpeedMPH":"-","PrecipitationIn":"N/A","Events":"","Conditions":"Overcast","FullMetar":"METAR UWKD 070900Z 32006MPS 9999 OVC010 M02/M04 Q1019 R29/810050 TEMPO 2000 SN BKN005 RMK QFE753/1004","WindDirDegrees":"320","DateUTC\r":"2/7/16 9:00\r"},{"TimeMSK":"12:30 PM","TemperatureF":"28.4","Dew PointF":"24.8","Humidity":"86","Sea Level PressureIn":"30.09","VisibilityMPH":"6.2","Wind Direction":"NW","Wind SpeedMPH":"11.2","Gust SpeedMPH":"-","PrecipitationIn":"N/A","Events":"","Conditions":"Mostly Cloudy","FullMetar":"METAR UWKD 070930Z 31005MPS 9999 BKN010 M02/M04 Q1019 R29/810050 TEMPO 2000 SN BKN005 RMK QFE753/1004","WindDirDegrees":"310","DateUTC\r":"2/7/16 9:30\r"},{"TimeMSK":"1:00 PM","TemperatureF":"28.4","Dew PointF":"24.8","Humidity":"86","Sea Level PressureIn":"30.09","VisibilityMPH":"6.2","Wind Direction":"WNW","Wind SpeedMPH":"8.9","Gust SpeedMPH":"-","PrecipitationIn":"N/A","Events":"","Conditions":"Mostly Cloudy","FullMetar":"METAR UWKD 071000Z 30004MPS 9999 BKN014 M02/M04 Q1019 R29/810050 TEMPO 2000 SN BKN005 RMK QFE753/1004","WindDirDegrees":"300","DateUTC\r":"2/7/16 10:00\r"},{"TimeMSK":"1:30 PM","TemperatureF":"28.4","Dew PointF":"24.8","Humidity":"86","Sea Level PressureIn":"30.09","VisibilityMPH":"6.2","Wind Direction":"WNW","Wind SpeedMPH":"8.9","Gust SpeedMPH":"-","PrecipitationIn":"N/A","Events":"","Conditions":"Mostly Cloudy","FullMetar":"METAR UWKD 071030Z 30004MPS 9999 BKN013 M02/M04 Q1019 R29/810050 TEMPO 2000 SN BKN005 RMK QFE753/1004","WindDirDegrees":"300","DateUTC\r":"2/7/16 10:30\r"},{"TimeMSK":"2:00 PM","TemperatureF":"28.4","Dew PointF":"24.8","Humidity":"86","Sea Level PressureIn":"30.09","VisibilityMPH":"6.2","Wind Direction":"WNW","Wind SpeedMPH":"11.2","Gust SpeedMPH":"-","PrecipitationIn":"N/A","Events":"","Conditions":"Mostly Cloudy","FullMetar":"METAR UWKD 071100Z 29005MPS 9999 BKN022 M02/M04 Q1019 R29/810050 TEMPO 2000 SN BKN005 RMK QFE753/1004","WindDirDegrees":"290","DateUTC\r":"2/7/16 11:00\r"},{"TimeMSK":"2:30 PM","TemperatureF":"28.4","Dew PointF":"24.8","Humidity":"86","Sea Level PressureIn":"30.09","VisibilityMPH":"6.2","Wind Direction":"West","Wind SpeedMPH":"13.4","Gust SpeedMPH":"-","PrecipitationIn":"N/A","Events":"","Conditions":"Mostly Cloudy","FullMetar":"METAR UWKD 071130Z 28006MPS 9999 BKN011 M02/M04 Q1019 R29/810050 TEMPO 2000 SN BKN005 RMK QFE753/1004","WindDirDegrees":"280","DateUTC\r":"2/7/16 11:30\r"},{"TimeMSK":"3:00 PM","TemperatureF":"28","Dew PointF":"23","Humidity":"75","Sea Level PressureIn":"30.16","VisibilityMPH":"6","Wind Direction":"West","Wind SpeedMPH":"4.5","Gust SpeedMPH":"","PrecipitationIn":"","Events":"Snow","Conditions":"Light Snow","FullMetar":"AAXX 07121 27595 41497 82602 11023 21049 30059 40211 52002 77172 885// 333 88616","WindDirDegrees":"260","DateUTC\r":"2/7/16 12:00\r"},{"TimeMSK":"3:00 PM","TemperatureF":"26.6","Dew PointF":"23","Humidity":"86","Sea Level PressureIn":"30.09","VisibilityMPH":"6.2","Wind Direction":"WNW","Wind SpeedMPH":"13.4","Gust SpeedMPH":"-","PrecipitationIn":"N/A","Events":"","Conditions":"Mostly Cloudy","FullMetar":"METAR UWKD 071200Z 29006MPS 9999 BKN012 M03/M05 Q1019 R29/810050 TEMPO 2000 SN BKN005 RMK QFE753/1005","WindDirDegrees":"290","DateUTC\r":"2/7/16 12:00\r"},{"TimeMSK":"3:30 PM","TemperatureF":"26.6","Dew PointF":"23","Humidity":"86","Sea Level PressureIn":"30.12","VisibilityMPH":"6.2","Wind Direction":"WNW","Wind SpeedMPH":"11.2","Gust SpeedMPH":"-","PrecipitationIn":"N/A","Events":"","Conditions":"Mostly Cloudy","FullMetar":"METAR UWKD 071230Z 29005MPS 9999 BKN014 M03/M05 Q1020 R29/810050 TEMPO 2000 SN BKN005 RMK QFE753/1005","WindDirDegrees":"290","DateUTC\r":"2/7/16 12:30\r"},{"TimeMSK":"4:00 PM","TemperatureF":"24.8","Dew PointF":"21.2","Humidity":"86","Sea Level PressureIn":"30.12","VisibilityMPH":"6.2","Wind Direction":"West","Wind SpeedMPH":"15.7","Gust SpeedMPH":"-","PrecipitationIn":"N/A","Events":"","Conditions":"Mostly Cloudy","FullMetar":"METAR UWKD 071300Z 28007MPS 9999 BKN038 M04/M06 Q1020 R29/810050 TEMPO 2000 SN BKN005 RMK QFE754/1005","WindDirDegrees":"280","DateUTC\r":"2/7/16 13:00\r"},{"TimeMSK":"4:30 PM","TemperatureF":"24.8","Dew PointF":"19.4","Humidity":"80","Sea Level PressureIn":"30.12","VisibilityMPH":"6.2","Wind Direction":"WNW","Wind SpeedMPH":"13.4","Gust SpeedMPH":"-","PrecipitationIn":"N/A","Events":"Snow","Conditions":"Light Snow","FullMetar":"METAR UWKD 071330Z 29006MPS 9999 -SN BKN025 M04/M07 Q1020 R29/810050 TEMPO 2000 SN BKN005 RMK QFE754/1005","WindDirDegrees":"290","DateUTC\r":"2/7/16 13:30\r"},{"TimeMSK":"5:00 PM","TemperatureF":"23","Dew PointF":"19.4","Humidity":"86","Sea Level PressureIn":"30.12","VisibilityMPH":"6.2","Wind Direction":"WNW","Wind SpeedMPH":"13.4","Gust SpeedMPH":"-","PrecipitationIn":"N/A","Events":"","Conditions":"Mostly Cloudy","FullMetar":"METAR UWKD 071400Z 29006MPS 9999 BKN015 M05/M07 Q1020 R29/810050 TEMPO 2000 SN BKN005 RMK QFE754/1006","WindDirDegrees":"290","DateUTC\r":"2/7/16 14:00\r"},{"TimeMSK":"5:30 PM","TemperatureF":"23","Dew PointF":"19.4","Humidity":"86","Sea Level PressureIn":"30.15","VisibilityMPH":"6.2","Wind Direction":"West","Wind SpeedMPH":"11.2","Gust SpeedMPH":"-","PrecipitationIn":"N/A","Events":"","Conditions":"Mostly Cloudy","FullMetar":"METAR UWKD 071430Z 28005MPS 9999 BKN013 M05/M07 Q1021 R29/710050 TEMPO 2000 SN BKN005 RMK QFE754/1006","WindDirDegrees":"280","DateUTC\r":"2/7/16 14:30\r"},{"TimeMSK":"6:00 PM","TemperatureF":"24","Dew PointF":"19","Humidity":"73","Sea Level PressureIn":"30.2","VisibilityMPH":"6","Wind Direction":"West","Wind SpeedMPH":"4.5","Gust SpeedMPH":"","PrecipitationIn":"","Events":"Snow","Conditions":"Light Snow","FullMetar":"AAXX 07151 27595 11497 82702 11044 21073 30072 40226 52013 69922 77172 885// 333 11015 88618","WindDirDegrees":"270","DateUTC\r":"2/7/16 15:00\r"},{"TimeMSK":"6:00 PM","TemperatureF":"23","Dew PointF":"19.4","Humidity":"86","Sea Level PressureIn":"30.15","VisibilityMPH":"6.2","Wind Direction":"West","Wind SpeedMPH":"13.4","Gust SpeedMPH":"-","PrecipitationIn":"N/A","Events":"","Conditions":"Mostly Cloudy","FullMetar":"METAR UWKD 071500Z 28006MPS 9999 BKN015 M05/M07 Q1021 R29/710050 NOSIG RMK QFE754/1006","WindDirDegrees":"280","DateUTC\r":"2/7/16 15:00\r"},{"TimeMSK":"6:30 PM","TemperatureF":"23","Dew PointF":"19.4","Humidity":"86","Sea Level PressureIn":"30.15","VisibilityMPH":"6.2","Wind Direction":"West","Wind SpeedMPH":"13.4","Gust SpeedMPH":"-","PrecipitationIn":"N/A","Events":"","Conditions":"Mostly Cloudy","FullMetar":"METAR UWKD 071530Z 28006MPS 9999 BKN016 M05/M07 Q1021 R29/710050 NOSIG RMK QFE754/1006","WindDirDegrees":"280","DateUTC\r":"2/7/16 15:30\r"},{"TimeMSK":"7:00 PM","TemperatureF":"23","Dew PointF":"19.4","Humidity":"86","Sea Level PressureIn":"30.15","VisibilityMPH":"6.2","Wind Direction":"WNW","Wind SpeedMPH":"13.4","Gust SpeedMPH":"-","PrecipitationIn":"N/A","Events":"Snow","Conditions":"Light Snow","FullMetar":"METAR UWKD 071600Z 29006MPS 9999 -SN OVC016 M05/M07 Q1021 R29/710050 NOSIG RMK QFE755/1006","WindDirDegrees":"290","DateUTC\r":"2/7/16 16:00\r"},{"TimeMSK":"7:30 PM","TemperatureF":"23","Dew PointF":"17.6","Humidity":"80","Sea Level PressureIn":"30.15","VisibilityMPH":"6.2","Wind Direction":"WNW","Wind SpeedMPH":"15.7","Gust SpeedMPH":"-","PrecipitationIn":"N/A","Events":"Snow","Conditions":"Light Snow","FullMetar":"METAR UWKD 071630Z 30007MPS 9999 -SN OVC015 M05/M08 Q1021 R29/710050 NOSIG RMK QFE755/1006","WindDirDegrees":"300","DateUTC\r":"2/7/16 16:30\r"},{"TimeMSK":"8:00 PM","TemperatureF":"23","Dew PointF":"17.6","Humidity":"80","Sea Level PressureIn":"30.18","VisibilityMPH":"6.2","Wind Direction":"WNW","Wind SpeedMPH":"15.7","Gust SpeedMPH":"-","PrecipitationIn":"N/A","Events":"Snow","Conditions":"Light Snow","FullMetar":"METAR UWKD 071700Z 30007MPS 9999 -SN OVC017 M05/M08 Q1022 R29/710050 NOSIG RMK QFE755/1007","WindDirDegrees":"300","DateUTC\r":"2/7/16 17:00\r"},{"TimeMSK":"8:30 PM","TemperatureF":"21.2","Dew PointF":"17.6","Humidity":"86","Sea Level PressureIn":"30.18","VisibilityMPH":"6.2","Wind Direction":"WNW","Wind SpeedMPH":"13.4","Gust SpeedMPH":"-","PrecipitationIn":"N/A","Events":"Snow","Conditions":"Light Snow","FullMetar":"METAR UWKD 071730Z 30006MPS 9999 -SN OVC015 M06/M08 Q1022 R29/710050 NOSIG RMK QFE755/1007","WindDirDegrees":"300","DateUTC\r":"2/7/16 17:30\r"},{"TimeMSK":"9:00 PM","TemperatureF":"22","Dew PointF":"16","Humidity":"70","Sea Level PressureIn":"30.24","VisibilityMPH":"6","Wind Direction":"West","Wind SpeedMPH":"6.7","Gust SpeedMPH":"","PrecipitationIn":"","Events":"","Conditions":"Partly Cloudy","FullMetar":"AAXX 07181 27595 41497 82803 11054 21087 30084 40238 52011 70272 885// 333 88618","WindDirDegrees":"280","DateUTC\r":"2/7/16 18:00\r"},{"TimeMSK":"9:00 PM","TemperatureF":"21.2","Dew PointF":"15.8","Humidity":"80","Sea Level PressureIn":"30.18","VisibilityMPH":"6.2","Wind Direction":"WNW","Wind SpeedMPH":"13.4","Gust SpeedMPH":"-","PrecipitationIn":"N/A","Events":"Snow","Conditions":"Light Snow","FullMetar":"METAR UWKD 071800Z 30006MPS 9999 -SN OVC015 M06/M09 Q1022 R29/710050 NOSIG RMK QFE755/1007","WindDirDegrees":"300","DateUTC\r":"2/7/16 18:00\r"},{"TimeMSK":"9:30 PM","TemperatureF":"21.2","Dew PointF":"15.8","Humidity":"80","Sea Level PressureIn":"30.18","VisibilityMPH":"6.2","Wind Direction":"WNW","Wind SpeedMPH":"13.4","Gust SpeedMPH":"-","PrecipitationIn":"N/A","Events":"Snow","Conditions":"Light Snow","FullMetar":"METAR UWKD 071830Z 30006MPS 9999 -SN OVC038 M06/M09 Q1022 R29/710050 NOSIG RMK QFE755/1007","WindDirDegrees":"300","DateUTC\r":"2/7/16 18:30\r"},{"TimeMSK":"10:00 PM","TemperatureF":"21.2","Dew PointF":"15.8","Humidity":"80","Sea Level PressureIn":"30.18","VisibilityMPH":"6.2","Wind Direction":"WNW","Wind SpeedMPH":"15.7","Gust SpeedMPH":"-","PrecipitationIn":"N/A","Events":"","Conditions":"Mostly Cloudy","FullMetar":"METAR UWKD 071900Z 30007MPS 9999 BKN024 M06/M09 Q1022 R29/710050 NOSIG RMK QFE755/1007","WindDirDegrees":"300","DateUTC\r":"2/7/16 19:00\r"},{"TimeMSK":"10:30 PM","TemperatureF":"21.2","Dew PointF":"14","Humidity":"74","Sea Level PressureIn":"30.18","VisibilityMPH":"6.2","Wind Direction":"NW","Wind SpeedMPH":"13.4","Gust SpeedMPH":"-","PrecipitationIn":"N/A","Events":"","Conditions":"Mostly Cloudy","FullMetar":"METAR UWKD 071930Z 31006MPS 9999 BKN024 M06/M10 Q1022 R29/710050 NOSIG RMK QFE755/1007","WindDirDegrees":"310","DateUTC\r":"2/7/16 19:30\r"},{"TimeMSK":"11:00 PM","TemperatureF":"19.4","Dew PointF":"14","Humidity":"80","Sea Level PressureIn":"30.21","VisibilityMPH":"6.2","Wind Direction":"Variable","Wind SpeedMPH":"2.2","Gust SpeedMPH":"-","PrecipitationIn":"N/A","Events":"","Conditions":"Mostly Cloudy","FullMetar":"METAR UWKD 072000Z VRB01MPS 9999 BKN026 M07/M10 Q1023 R29/710050 NOSIG RMK QFE756/1008","WindDirDegrees":"0","DateUTC\r":"2/7/16 20:00\r"},{"TimeMSK":"11:30 PM","TemperatureF":"17.6","Dew PointF":"12.2","Humidity":"79","Sea Level PressureIn":"30.18","VisibilityMPH":"6.2","Wind Direction":"West","Wind SpeedMPH":"6.7","Gust SpeedMPH":"-","PrecipitationIn":"N/A","Events":"","Conditions":"Scattered Clouds","FullMetar":"METAR UWKD 072030Z 27003MPS 9999 SCT034 M08/M11 Q1022 R29/710050 NOSIG RMK QFE755/1007","WindDirDegrees":"270","DateUTC\r":"2/7/16 20:30\r"},{"TimeMSK":"12:00 AM","TemperatureF":"21","Dew PointF":"13","Humidity":"59","Sea Level PressureIn":"30.25","VisibilityMPH":"6","Wind Direction":"West","Wind SpeedMPH":"4.5","Gust SpeedMPH":"","PrecipitationIn":"","Events":"","Conditions":"Clear","FullMetar":"AAXX 07211 27595 42997 32802 11063 21107 30087 40242 50003 80040","WindDirDegrees":"280","DateUTC\r":"2/7/16 21:00\r"},{"TimeMSK":"12:00 AM","TemperatureF":"15.8","Dew PointF":"10.4","Humidity":"79","Sea Level PressureIn":"30.21","VisibilityMPH":"6.2","Wind Direction":"SW","Wind SpeedMPH":"4.5","Gust SpeedMPH":"-","PrecipitationIn":"N/A","Events":"","Conditions":"Scattered Clouds","FullMetar":"METAR UWKD 072100Z 23002MPS 9999 SCT034 M09/M12 Q1023 R29/710050 NOSIG RMK QFE756/1008","WindDirDegrees":"230","DateUTC\r":"2/7/16 21:00\r"},{"TimeMSK":"12:30 AM","TemperatureF":"14","Dew PointF":"10.4","Humidity":"86","Sea Level PressureIn":"30.21","VisibilityMPH":"6.2","Wind Direction":"SW","Wind SpeedMPH":"4.5","Gust SpeedMPH":"-","PrecipitationIn":"N/A","Events":"","Conditions":"Scattered Clouds","FullMetar":"METAR UWKD 072130Z 22002MPS 9999 SCT034 M10/M12 Q1023 R29/710050 NOSIG RMK QFE756/1008","WindDirDegrees":"220","DateUTC\r":"2/7/16 21:30\r"},{"TimeMSK":"1:00 AM","TemperatureF":"14","Dew PointF":"10.4","Humidity":"86","Sea Level PressureIn":"30.21","VisibilityMPH":"6.2","Wind Direction":"SSW","Wind SpeedMPH":"4.5","Gust SpeedMPH":"-","PrecipitationIn":"N/A","Events":"","Conditions":"Scattered Clouds","FullMetar":"METAR UWKD 072200Z 20002MPS 9999 SCT034 M10/M12 Q1023 R29/710050 NOSIG RMK QFE756/1008","WindDirDegrees":"200","DateUTC\r":"2/7/16 22:00\r"},{"TimeMSK":"1:30 AM","TemperatureF":"12.2","Dew PointF":"10.4","Humidity":"92","Sea Level PressureIn":"30.21","VisibilityMPH":"6.2","Wind Direction":"SSW","Wind SpeedMPH":"4.5","Gust SpeedMPH":"-","PrecipitationIn":"N/A","Events":"","Conditions":"Scattered Clouds","FullMetar":"METAR UWKD 072230Z 20002MPS 9999 SCT026 M11/M12 Q1023 R29/710050 NOSIG RMK QFE756/1008","WindDirDegrees":"200","DateUTC\r":"2/7/16 22:30\r"},{"TimeMSK":"2:00 AM","TemperatureF":"12.2","Dew PointF":"8.6","Humidity":"85","Sea Level PressureIn":"30.21","VisibilityMPH":"6.2","Wind Direction":"SSW","Wind SpeedMPH":"4.5","Gust SpeedMPH":"-","PrecipitationIn":"N/A","Events":"","Conditions":"Mostly Cloudy","FullMetar":"METAR UWKD 072300Z 21002MPS 9999 BKN026 M11/M13 Q1023 R29/710050 NOSIG RMK QFE756/1008","WindDirDegrees":"210","DateUTC\r":"2/7/16 23:00\r"},{"TimeMSK":"2:30 AM","TemperatureF":"14","Dew PointF":"10.4","Humidity":"86","Sea Level PressureIn":"30.18","VisibilityMPH":"6.2","Wind Direction":"SSW","Wind SpeedMPH":"6.7","Gust SpeedMPH":"-","PrecipitationIn":"N/A","Events":"","Conditions":"Mostly Cloudy","FullMetar":"METAR UWKD 072330Z 21003MPS 9999 BKN026 M10/M12 Q1022 R29/710050 NOSIG RMK QFE755/1007","WindDirDegrees":"210","DateUTC\r":"2/7/16 23:30\r"},{"TimeMSK":"3:00 AM","TemperatureF":"16","Dew PointF":"11","Humidity":"72","Sea Level PressureIn":"30.25","VisibilityMPH":"6","Wind Direction":"SE","Wind SpeedMPH":"2.2","Gust SpeedMPH":"","PrecipitationIn":"","Events":"","Conditions":"Overcast","FullMetar":"AAXX 08001 27595 42997 81401 11089 21117 30086 40242 57002 8007/","WindDirDegrees":"140","DateUTC\r":"2/8/16 0:00\r"},{"TimeMSK":"3:00 AM","TemperatureF":"14","Dew PointF":"12.2","Humidity":"93","Sea Level PressureIn":"30.18","VisibilityMPH":"6.2","Wind Direction":"SSW","Wind SpeedMPH":"6.7","Gust SpeedMPH":"-","PrecipitationIn":"N/A","Events":"","Conditions":"Mostly Cloudy","FullMetar":"METAR UWKD 080000Z 20003MPS 9999 BKN026 M10/M11 Q1022 R29/710050 NOSIG RMK QFE755/1007","WindDirDegrees":"200","DateUTC\r":"2/8/16 0:00\r"},{"TimeMSK":"3:30 AM","TemperatureF":"14","Dew PointF":"10.4","Humidity":"86","Sea Level PressureIn":"30.18","VisibilityMPH":"6.2","Wind Direction":"South","Wind SpeedMPH":"8.9","Gust SpeedMPH":"-","PrecipitationIn":"N/A","Events":"","Conditions":"Mostly Cloudy","FullMetar":"METAR UWKD 080030Z 19004MPS 9999 BKN030 M10/M12 Q1022 R29/710050 NOSIG RMK QFE755/1007","WindDirDegrees":"190","DateUTC\r":"2/8/16 0:30\r"},{"TimeMSK":"4:00 AM","TemperatureF":"15.8","Dew PointF":"12.2","Humidity":"86","Sea Level PressureIn":"30.18","VisibilityMPH":"6.2","Wind Direction":"SSE","Wind SpeedMPH":"8.9","Gust SpeedMPH":"-","PrecipitationIn":"N/A","Events":"","Conditions":"Mostly Cloudy","FullMetar":"METAR UWKD 080100Z 16004MPS 9999 BKN030 M09/M11 Q1022 R29/710050 NOSIG RMK QFE755/1007","WindDirDegrees":"160","DateUTC\r":"2/8/16 1:00\r"},{"TimeMSK":"4:30 AM","TemperatureF":"15.8","Dew PointF":"12.2","Humidity":"86","Sea Level PressureIn":"30.18","VisibilityMPH":"6.2","Wind Direction":"South","Wind SpeedMPH":"6.7","Gust SpeedMPH":"-","PrecipitationIn":"N/A","Events":"","Conditions":"Mostly Cloudy","FullMetar":"METAR UWKD 080130Z 17003MPS 9999 BKN031 M09/M11 Q1022 R29/710050 NOSIG RMK QFE755/1007","WindDirDegrees":"170","DateUTC\r":"2/8/16 1:30\r"},{"TimeMSK":"5:00 AM","TemperatureF":"15.8","Dew PointF":"12.2","Humidity":"86","Sea Level PressureIn":"30.18","VisibilityMPH":"6.2","Wind Direction":"South","Wind SpeedMPH":"8.9","Gust SpeedMPH":"-","PrecipitationIn":"N/A","Events":"","Conditions":"Scattered Clouds","FullMetar":"METAR UWKD 080200Z 17004MPS 9999 SCT050 M09/M11 Q1022 R11/710050 NOSIG RMK QFE756/1008","WindDirDegrees":"170","DateUTC\r":"2/8/16 2:00\r"},{"TimeMSK":"5:30 AM","TemperatureF":"17.6","Dew PointF":"14","Humidity":"86","Sea Level PressureIn":"30.15","VisibilityMPH":"6.2","Wind Direction":"SSE","Wind SpeedMPH":"11.2","Gust SpeedMPH":"-","PrecipitationIn":"N/A","Events":"","Conditions":"Scattered Clouds","FullMetar":"METAR UWKD 080230Z 16005MPS 9999 SCT050 M08/M10 Q1021 R11/710050 NOSIG RMK QFE756/1008","WindDirDegrees":"160","DateUTC\r":"2/8/16 2:30\r"},{"TimeMSK":"6:00 AM","TemperatureF":"18","Dew PointF":"13","Humidity":"75","Sea Level PressureIn":"30.22","VisibilityMPH":"6","Wind Direction":"South","Wind SpeedMPH":"2.2","Gust SpeedMPH":"","PrecipitationIn":"","Events":"","Conditions":"Overcast","FullMetar":"AAXX 08031 27595 12997 81701 11075 21103 30077 40232 57009 69902 8005/ 333 21090 43041 55000","WindDirDegrees":"170","DateUTC\r":"2/8/16 3:00\r"},{"TimeMSK":"6:00 AM","TemperatureF":"17.6","Dew PointF":"14","Humidity":"86","Sea Level PressureIn":"30.15","VisibilityMPH":"6.2","Wind Direction":"South","Wind SpeedMPH":"11.2","Gust SpeedMPH":"-","PrecipitationIn":"N/A","Events":"","Conditions":"Scattered Clouds","FullMetar":"METAR UWKD 080300Z 17005MPS 9999 SCT050 M08/M10 Q1021 R11/710050 TEMPO 2000 SN RMK QFE756/1008","WindDirDegrees":"170","DateUTC\r":"2/8/16 3:00\r"},{"TimeMSK":"6:30 AM","TemperatureF":"17.6","Dew PointF":"15.8","Humidity":"93","Sea Level PressureIn":"30.15","VisibilityMPH":"5.6","Wind Direction":"South","Wind SpeedMPH":"11.2","Gust SpeedMPH":"-","PrecipitationIn":"N/A","Events":"Snow","Conditions":"Light Snow","FullMetar":"METAR UWKD 080330Z 17005MPS 9000 -SN SCT050 M08/M09 Q1021 R11/710050 TEMPO 2000 SN RMK QFE756/1008","WindDirDegrees":"170","DateUTC\r":"2/8/16 3:30\r"},{"TimeMSK":"7:00 AM","TemperatureF":"19.4","Dew PointF":"17.6","Humidity":"93","Sea Level PressureIn":"30.15","VisibilityMPH":"-9999","Wind Direction":"South","Wind SpeedMPH":"11.2","Gust SpeedMPH":"-","PrecipitationIn":"N/A","Events":"Snow","Conditions":"Light Snow","FullMetar":"METAR UWKD 080400Z 18005MPS 3900 -SN BKN025 M07/M08 Q1021 R11/420150 TEMPO 2000 SN RMK QFE755/1007","WindDirDegrees":"180","DateUTC\r":"2/8/16 4:00\r"},{"TimeMSK":"7:30 AM","TemperatureF":"19.4","Dew PointF":"17.6","Humidity":"93","Sea Level PressureIn":"30.15","VisibilityMPH":"1.2","Wind Direction":"South","Wind SpeedMPH":"11.2","Gust SpeedMPH":"-","PrecipitationIn":"N/A","Events":"Snow","Conditions":"Snow","FullMetar":"METAR UWKD 080430Z 18005MPS 1900 R11/1900U SN OVC037 M07/M08 Q1021 R11/420150 TEMPO 1000 SN RMK QFE756/1008","WindDirDegrees":"180","DateUTC\r":"2/8/16 4:30\r"},{"TimeMSK":"8:00 AM","TemperatureF":"19.4","Dew PointF":"17.6","Humidity":"93","Sea Level PressureIn":"30.15","VisibilityMPH":"1.4","Wind Direction":"South","Wind SpeedMPH":"11.2","Gust SpeedMPH":"-","PrecipitationIn":"N/A","Events":"Snow","Conditions":"Light Snow","FullMetar":"METAR UWKD 080500Z 18005MPS 2300 -SN OVC019 M07/M08 Q1021 R11/420150 TEMPO 2000 SN OVC005 RMK QFE755/1007","WindDirDegrees":"180","DateUTC\r":"2/8/16 5:00\r"},{"TimeMSK":"8:30 AM","TemperatureF":"21.2","Dew PointF":"19.4","Humidity":"93","Sea Level PressureIn":"30.15","VisibilityMPH":"1.6","Wind Direction":"South","Wind SpeedMPH":"11.2","Gust SpeedMPH":"-","PrecipitationIn":"N/A","Events":"Snow","Conditions":"Light Snow","FullMetar":"METAR UWKD 080530Z 18005MPS 2500 -SN OVC027 M06/M07 Q1021 R11/411040 TEMPO 1000 SN OVC005 RMK QFE755/1007","WindDirDegrees":"180","DateUTC\r":"2/8/16 5:30\r"},{"TimeMSK":"9:00 AM","TemperatureF":"20","Dew PointF":"18","Humidity":"86","Sea Level PressureIn":"30.19","VisibilityMPH":"1","Wind Direction":"SSE","Wind SpeedMPH":"2.2","Gust SpeedMPH":"","PrecipitationIn":"","Events":"Snow","Conditions":"Snow","FullMetar":"AAXX 08061 27595 41395 81601 11065 21080 30069 40223 57008 77372 8872/ 333 88509","WindDirDegrees":"160","DateUTC\r":"2/8/16 6:00\r"},{"TimeMSK":"9:00 AM","TemperatureF":"21.2","Dew PointF":"19.4","Humidity":"93","Sea Level PressureIn":"30.15","VisibilityMPH":"0.6","Wind Direction":"South","Wind SpeedMPH":"11.2","Gust SpeedMPH":"-","PrecipitationIn":"N/A","Events":"Snow","Conditions":"Snow","FullMetar":"METAR UWKD 080600Z 18005MPS 1000 R11/1000U SN OVC019 M06/M07 Q1021 R11/411040 TEMPO 1000 SN OVC005 RMK QFE755/1007","WindDirDegrees":"180","DateUTC\r":"2/8/16 6:00\r"},{"TimeMSK":"9:30 AM","TemperatureF":"21.2","Dew PointF":"21.2","Humidity":"100","Sea Level PressureIn":"30.12","VisibilityMPH":"1.1","Wind Direction":"South","Wind SpeedMPH":"11.2","Gust SpeedMPH":"-","PrecipitationIn":"N/A","Events":"Snow","Conditions":"Snow","FullMetar":"METAR UWKD 080630Z 18005MPS 1800 R11/1700D SN OVC015 M06/M06 Q1020 R11/411040 TEMPO 1000 SN OVC005 RMK QFE755/1007","WindDirDegrees":"180","DateUTC\r":"2/8/16 6:30\r"},{"TimeMSK":"10:00 AM","TemperatureF":"23","Dew PointF":"21.2","Humidity":"93","Sea Level PressureIn":"30.12","VisibilityMPH":"1","Wind Direction":"South","Wind SpeedMPH":"11.2","Gust SpeedMPH":"-","PrecipitationIn":"N/A","Events":"Snow","Conditions":"Snow","FullMetar":"METAR UWKD 080700Z 18005MPS 1600 R11/1600N SN OVC017 M05/M06 Q1020 R11/411040 TEMPO 1000 SN OVC005 RMK QFE755/1007","WindDirDegrees":"180","DateUTC\r":"2/8/16 7:00\r"},{"TimeMSK":"10:30 AM","TemperatureF":"23","Dew PointF":"21.2","Humidity":"93","Sea Level PressureIn":"30.12","VisibilityMPH":"1.2","Wind Direction":"South","Wind SpeedMPH":"11.2","Gust SpeedMPH":"-","PrecipitationIn":"N/A","Events":"Snow","Conditions":"Snow","FullMetar":"METAR UWKD 080730Z 18005MPS 2000 SN OVC028 M05/M06 Q1020 R11/411040 NOSIG RMK QFE755/1007","WindDirDegrees":"180","DateUTC\r":"2/8/16 7:30\r"},{"TimeMSK":"11:00 AM","TemperatureF":"23","Dew PointF":"23","Humidity":"100","Sea Level PressureIn":"30.12","VisibilityMPH":"-9999","Wind Direction":"South","Wind SpeedMPH":"11.2","Gust SpeedMPH":"-","PrecipitationIn":"N/A","Events":"Snow","Conditions":"Light Snow","FullMetar":"METAR UWKD 080800Z 19005MPS 3400 -SN OVC033 M05/M05 Q1020 R11/411040 NOSIG RMK QFE755/1006","WindDirDegrees":"190","DateUTC\r":"2/8/16 8:00\r"},{"TimeMSK":"11:30 AM","TemperatureF":"24.8","Dew PointF":"23","Humidity":"93","Sea Level PressureIn":"30.12","VisibilityMPH":"-9999","Wind Direction":"South","Wind SpeedMPH":"8.9","Gust SpeedMPH":"-","PrecipitationIn":"N/A","Events":"Snow","Conditions":"Light Snow","FullMetar":"METAR UWKD 080830Z 19004MPS 4200 -SN OVC031 M04/M05 Q1020 R11/411040 NOSIG RMK QFE755/1006","WindDirDegrees":"190","DateUTC\r":"2/8/16 8:30\r"},{"TimeMSK":"12:00 PM","TemperatureF":"24","Dew PointF":"22","Humidity":"86","Sea Level PressureIn":"30.16","VisibilityMPH":"2","Wind Direction":"SSE","Wind SpeedMPH":"2.2","Gust SpeedMPH":"","PrecipitationIn":"","Events":"Snow","Conditions":"Light Snow","FullMetar":"AAXX 08091 27595 41396 81601 11044 21058 30060 40213 57008 77172 8872/ 333 88509","WindDirDegrees":"160","DateUTC\r":"2/8/16 9:00\r"},{"TimeMSK":"12:00 PM","TemperatureF":"24.8","Dew PointF":"23","Humidity":"93","Sea Level PressureIn":"30.12","VisibilityMPH":"-9999","Wind Direction":"South","Wind SpeedMPH":"8.9","Gust SpeedMPH":"-","PrecipitationIn":"N/A","Events":"Snow","Conditions":"Light Snow","FullMetar":"METAR UWKD 080900Z 19004MPS 4300 -SN OVC031 M04/M05 Q1020 R11/411040 NOSIG RMK QFE754/1006","WindDirDegrees":"190","DateUTC\r":"2/8/16 9:00\r"},{"TimeMSK":"12:30 PM","TemperatureF":"24.8","Dew PointF":"23","Humidity":"93","Sea Level PressureIn":"30.12","VisibilityMPH":"-9999","Wind Direction":"South","Wind SpeedMPH":"8.9","Gust SpeedMPH":"-","PrecipitationIn":"N/A","Events":"Snow","Conditions":"Light Snow","FullMetar":"METAR UWKD 080930Z 19004MPS 3400 -SN OVC024 M04/M05 Q1020 R11/411040 NOSIG RMK QFE754/1006","WindDirDegrees":"190","DateUTC\r":"2/8/16 9:30\r"},{"TimeMSK":"1:00 PM","TemperatureF":"24.8","Dew PointF":"24.8","Humidity":"100","Sea Level PressureIn":"30.12","VisibilityMPH":"-9999","Wind Direction":"South","Wind SpeedMPH":"6.7","Gust SpeedMPH":"-","PrecipitationIn":"N/A","Events":"Snow","Conditions":"Light Snow","FullMetar":"METAR UWKD 081000Z 18003MPS 4300 -SN OVC011 M04/M04 Q1020 R11/411040 NOSIG RMK QFE754/1006","WindDirDegrees":"180","DateUTC\r":"2/8/16 10:00\r"},{"TimeMSK":"1:30 PM","TemperatureF":"24.8","Dew PointF":"24.8","Humidity":"100","Sea Level PressureIn":"30.12","VisibilityMPH":"6.2","Wind Direction":"South","Wind SpeedMPH":"6.7","Gust SpeedMPH":"-","PrecipitationIn":"N/A","Events":"Snow","Conditions":"Light Snow","FullMetar":"METAR UWKD 081030Z 18003MPS 9999 -SN OVC012 M04/M04 Q1020 R11/411040 NOSIG RMK QFE754/1006","WindDirDegrees":"180","DateUTC\r":"2/8/16 10:30\r"},{"TimeMSK":"2:00 PM","TemperatureF":"26.6","Dew PointF":"24.8","Humidity":"93","Sea Level PressureIn":"30.09","VisibilityMPH":"6.2","Wind Direction":"South","Wind SpeedMPH":"6.7","Gust SpeedMPH":"-","PrecipitationIn":"N/A","Events":"Snow","Conditions":"Light Snow","FullMetar":"METAR UWKD 081100Z 19003MPS 9999 -SN OVC012 M03/M04 Q1019 R11/450336 NOSIG RMK QFE754/1006","WindDirDegrees":"190","DateUTC\r":"2/8/16 11:00\r"},{"TimeMSK":"2:30 PM","TemperatureF":"26.6","Dew PointF":"24.8","Humidity":"93","Sea Level PressureIn":"30.12","VisibilityMPH":"6.2","Wind Direction":"South","Wind SpeedMPH":"6.7","Gust SpeedMPH":"-","PrecipitationIn":"N/A","Events":"","Conditions":"Overcast","FullMetar":"METAR UWKD 081130Z 19003MPS 9999 OVC012 M03/M04 Q1020 R11/450336 NOSIG RMK QFE754/1006","WindDirDegrees":"190","DateUTC\r":"2/8/16 11:30\r"},{"TimeMSK":"3:00 PM","TemperatureF":"26","Dew PointF":"23","Humidity":"85","Sea Level PressureIn":"30.15","VisibilityMPH":"6","Wind Direction":"Calm","Wind SpeedMPH":"Calm","Gust SpeedMPH":"","PrecipitationIn":"","Events":"","Conditions":"Partly Cloudy","FullMetar":"AAXX 08121 27595 41997 80000 11032 21048 30057 40209 57003 70272 8002/","WindDirDegrees":"","DateUTC\r":"2/8/16 12:00\r"},{"TimeMSK":"3:00 PM","TemperatureF":"26.6","Dew PointF":"24.8","Humidity":"93","Sea Level PressureIn":"30.09","VisibilityMPH":"6.2","Wind Direction":"South","Wind SpeedMPH":"4.5","Gust SpeedMPH":"-","PrecipitationIn":"N/A","Events":"","Conditions":"Overcast","FullMetar":"METAR UWKD 081200Z 18002MPS 9999 OVC013 M03/M04 Q1019 R11/810042 NOSIG RMK QFE754/1006","WindDirDegrees":"180","DateUTC\r":"2/8/16 12:00\r"},{"TimeMSK":"3:30 PM","TemperatureF":"26.6","Dew PointF":"24.8","Humidity":"93","Sea Level PressureIn":"30.09","VisibilityMPH":"6.2","Wind Direction":"South","Wind SpeedMPH":"4.5","Gust SpeedMPH":"-","PrecipitationIn":"N/A","Events":"","Conditions":"Overcast","FullMetar":"METAR UWKD 081230Z 19002MPS 9999 OVC015 M03/M04 Q1019 R11/810042 NOSIG RMK QFE754/1006","WindDirDegrees":"190","DateUTC\r":"2/8/16 12:30\r"},{"TimeMSK":"4:00 PM","TemperatureF":"26.6","Dew PointF":"24.8","Humidity":"93","Sea Level PressureIn":"30.12","VisibilityMPH":"6.2","Wind Direction":"South","Wind SpeedMPH":"6.7","Gust SpeedMPH":"-","PrecipitationIn":"N/A","Events":"","Conditions":"Overcast","FullMetar":"METAR UWKD 081300Z 19003MPS 9999 OVC015 M03/M04 Q1020 R11/810042 NOSIG RMK QFE754/1006","WindDirDegrees":"190","DateUTC\r":"2/8/16 13:00\r"},{"TimeMSK":"4:30 PM","TemperatureF":"26.6","Dew PointF":"24.8","Humidity":"93","Sea Level PressureIn":"30.12","VisibilityMPH":"6.2","Wind Direction":"SSW","Wind SpeedMPH":"4.5","Gust SpeedMPH":"-","PrecipitationIn":"N/A","Events":"","Conditions":"Overcast","FullMetar":"METAR UWKD 081330Z 20002MPS 9999 OVC017 M03/M04 Q1020 R11/350045 NOSIG RMK QFE755/1006","WindDirDegrees":"200","DateUTC\r":"2/8/16 13:30\r"},{"TimeMSK":"5:00 PM","TemperatureF":"26.6","Dew PointF":"26.6","Humidity":"100","Sea Level PressureIn":"30.12","VisibilityMPH":"6.2","Wind Direction":"SSW","Wind SpeedMPH":"4.5","Gust SpeedMPH":"-","PrecipitationIn":"N/A","Events":"","Conditions":"Overcast","FullMetar":"METAR UWKD 081400Z 20002MPS 9999 OVC019 M03/M03 Q1020 R11/350045 NOSIG RMK QFE755/1006","WindDirDegrees":"200","DateUTC\r":"2/8/16 14:00\r"},{"TimeMSK":"5:30 PM","TemperatureF":"28.4","Dew PointF":"26.6","Humidity":"93","Sea Level PressureIn":"30.12","VisibilityMPH":"6.2","Wind Direction":"SW","Wind SpeedMPH":"4.5","Gust SpeedMPH":"-","PrecipitationIn":"N/A","Events":"","Conditions":"Overcast","FullMetar":"METAR UWKD 081430Z 22002MPS 9999 OVC020 M02/M03 Q1020 R29/350045 NOSIG RMK QFE754/1005","WindDirDegrees":"220","DateUTC\r":"2/8/16 14:30\r"},{"TimeMSK":"6:00 PM","TemperatureF":"28","Dew PointF":"25","Humidity":"83","Sea Level PressureIn":"30.17","VisibilityMPH":"6","Wind Direction":"WSW","Wind SpeedMPH":"4.5","Gust SpeedMPH":"","PrecipitationIn":"","Events":"","Conditions":"Overcast","FullMetar":"AAXX 08151 27595 12697 82402 11022 21040 30064 40216 52007 60022 885// 333 11022 88604","WindDirDegrees":"240","DateUTC\r":"2/8/16 15:00\r"},{"TimeMSK":"6:00 PM","TemperatureF":"26.6","Dew PointF":"24.8","Humidity":"93","Sea Level PressureIn":"30.12","VisibilityMPH":"6.2","Wind Direction":"SW","Wind SpeedMPH":"6.7","Gust SpeedMPH":"-","PrecipitationIn":"N/A","Events":"","Conditions":"Overcast","FullMetar":"METAR UWKD 081500Z 23003MPS 9999 OVC031 M03/M04 Q1020 R29/350045 NOSIG RMK QFE754/1005","WindDirDegrees":"230","DateUTC\r":"2/8/16 15:00\r"},{"TimeMSK":"6:30 PM","TemperatureF":"28.4","Dew PointF":"26.6","Humidity":"93","Sea Level PressureIn":"30.12","VisibilityMPH":"-9999","Wind Direction":"WSW","Wind SpeedMPH":"6.7","Gust SpeedMPH":"-","PrecipitationIn":"N/A","Events":"","Conditions":"Clear","FullMetar":"METAR UWKD 081530Z 24003MPS CAVOK M02/M03 Q1020 R29/350045 NOSIG RMK QFE754/1005","WindDirDegrees":"240","DateUTC\r":"2/8/16 15:30\r"},{"TimeMSK":"7:00 PM","TemperatureF":"28.4","Dew PointF":"24.8","Humidity":"86","Sea Level PressureIn":"30.12","VisibilityMPH":"-9999","Wind Direction":"WSW","Wind SpeedMPH":"8.9","Gust SpeedMPH":"-","PrecipitationIn":"N/A","Events":"","Conditions":"Clear","FullMetar":"METAR UWKD 081600Z 24004MPS CAVOK M02/M04 Q1020 R29/350045 NOSIG RMK QFE754/1005","WindDirDegrees":"240","DateUTC\r":"2/8/16 16:00\r"},{"TimeMSK":"7:30 PM","TemperatureF":"28.4","Dew PointF":"24.8","Humidity":"86","Sea Level PressureIn":"30.12","VisibilityMPH":"-9999","Wind Direction":"SW","Wind SpeedMPH":"6.7","Gust SpeedMPH":"-","PrecipitationIn":"N/A","Events":"","Conditions":"Clear","FullMetar":"METAR UWKD 081630Z 23003MPS CAVOK M02/M04 Q1020 R29/350045 NOSIG RMK QFE754/1005","WindDirDegrees":"230","DateUTC\r":"2/8/16 16:30\r"},{"TimeMSK":"8:00 PM","TemperatureF":"26.6","Dew PointF":"24.8","Humidity":"93","Sea Level PressureIn":"30.12","VisibilityMPH":"-9999","Wind Direction":"SW","Wind SpeedMPH":"4.5","Gust SpeedMPH":"-","PrecipitationIn":"N/A","Events":"","Conditions":"Clear","FullMetar":"METAR UWKD 081700Z 23002MPS 190V250 CAVOK M03/M04 Q1020 R29/350045 NOSIG RMK QFE754/1005","WindDirDegrees":"230","DateUTC\r":"2/8/16 17:00\r"},{"TimeMSK":"8:30 PM","TemperatureF":"26.6","Dew PointF":"24.8","Humidity":"93","Sea Level PressureIn":"30.12","VisibilityMPH":"-9999","Wind Direction":"SW","Wind SpeedMPH":"4.5","Gust SpeedMPH":"-","PrecipitationIn":"N/A","Events":"","Conditions":"Clear","FullMetar":"METAR UWKD 081730Z 23002MPS 190V250 CAVOK M03/M04 Q1020 R29/810045 NOSIG RMK QFE754/1005","WindDirDegrees":"230","DateUTC\r":"2/8/16 17:30\r"},{"TimeMSK":"9:00 PM","TemperatureF":"27","Dew PointF":"23","Humidity":"79","Sea Level PressureIn":"30.18","VisibilityMPH":"6","Wind Direction":"SSW","Wind SpeedMPH":"2.2","Gust SpeedMPH":"","PrecipitationIn":"","Events":"","Conditions":"Mostly Cloudy","FullMetar":"AAXX 08181 27595 42997 62101 11026 21050 30066 40219 52002 86040","WindDirDegrees":"210","DateUTC\r":"2/8/16 18:00\r"},{"TimeMSK":"9:00 PM","TemperatureF":"23","Dew PointF":"21.2","Humidity":"93","Sea Level PressureIn":"30.15","VisibilityMPH":"-9999","Wind Direction":"SSW","Wind SpeedMPH":"4.5","Gust SpeedMPH":"-","PrecipitationIn":"N/A","Events":"","Conditions":"Clear","FullMetar":"METAR UWKD 081800Z 21002MPS CAVOK M05/M06 Q1021 R29/810045 NOSIG RMK QFE754/1006","WindDirDegrees":"210","DateUTC\r":"2/8/16 18:00\r"},{"TimeMSK":"9:30 PM","TemperatureF":"21.2","Dew PointF":"21.2","Humidity":"100","Sea Level PressureIn":"30.12","VisibilityMPH":"-9999","Wind Direction":"SW","Wind SpeedMPH":"4.5","Gust SpeedMPH":"-","PrecipitationIn":"N/A","Events":"","Conditions":"Clear","FullMetar":"METAR UWKD 081830Z 22002MPS CAVOK M06/M06 Q1020 R29/810045 NOSIG RMK QFE754/1005","WindDirDegrees":"220","DateUTC\r":"2/8/16 18:30\r"},{"TimeMSK":"10:00 PM","TemperatureF":"23","Dew PointF":"21.2","Humidity":"93","Sea Level PressureIn":"30.15","VisibilityMPH":"-9999","Wind Direction":"SW","Wind SpeedMPH":"6.7","Gust SpeedMPH":"-","PrecipitationIn":"N/A","Events":"","Conditions":"Clear","FullMetar":"METAR UWKD 081900Z 22003MPS CAVOK M05/M06 Q1021 R29/810045 NOSIG RMK QFE754/1006","WindDirDegrees":"220","DateUTC\r":"2/8/16 19:00\r"},{"TimeMSK":"10:30 PM","TemperatureF":"21.2","Dew PointF":"19.4","Humidity":"93","Sea Level PressureIn":"30.15","VisibilityMPH":"-9999","Wind Direction":"South","Wind SpeedMPH":"6.7","Gust SpeedMPH":"-","PrecipitationIn":"N/A","Events":"","Conditions":"Clear","FullMetar":"METAR UWKD 081930Z 17003MPS CAVOK M06/M07 Q1021 R11/810045 NOSIG RMK QFE755/1007","WindDirDegrees":"170","DateUTC\r":"2/8/16 19:30\r"},{"TimeMSK":"11:00 PM","TemperatureF":"23","Dew PointF":"21.2","Humidity":"93","Sea Level PressureIn":"30.15","VisibilityMPH":"-9999","Wind Direction":"South","Wind SpeedMPH":"6.7","Gust SpeedMPH":"-","PrecipitationIn":"N/A","Events":"","Conditions":"Clear","FullMetar":"METAR UWKD 082000Z 17003MPS CAVOK M05/M06 Q1021 R11/810045 NOSIG RMK QFE755/1007","WindDirDegrees":"170","DateUTC\r":"2/8/16 20:00\r"},{"TimeMSK":"11:30 PM","TemperatureF":"21.2","Dew PointF":"17.6","Humidity":"86","Sea Level PressureIn":"30.15","VisibilityMPH":"-9999","Wind Direction":"South","Wind SpeedMPH":"6.7","Gust SpeedMPH":"-","PrecipitationIn":"N/A","Events":"","Conditions":"Clear","FullMetar":"METAR UWKD 082030Z 17003MPS CAVOK M06/M08 Q1021 R11/810045 NOSIG RMK QFE755/1007","WindDirDegrees":"170","DateUTC\r":"2/8/16 20:30\r"},{"TimeMSK":"12:00 AM","TemperatureF":"25","Dew PointF":"21","Humidity":"78","Sea Level PressureIn":"30.19","VisibilityMPH":"6","Wind Direction":"SSE","Wind SpeedMPH":"2.2","Gust SpeedMPH":"","PrecipitationIn":"","Events":"","Conditions":"Mostly Cloudy","FullMetar":"AAXX 08211 27595 42997 61601 11041 21061 30071 40224 52005 86040","WindDirDegrees":"160","DateUTC\r":"2/8/16 21:00\r"},{"TimeMSK":"12:00 AM","TemperatureF":"21.2","Dew PointF":"19.4","Humidity":"93","Sea Level PressureIn":"30.15","VisibilityMPH":"-9999","Wind Direction":"South","Wind SpeedMPH":"6.7","Gust SpeedMPH":"-","PrecipitationIn":"N/A","Events":"","Conditions":"Clear","FullMetar":"METAR UWKD 082100Z 17003MPS CAVOK M06/M07 Q1021 R11/810045 NOSIG RMK QFE755/1007","WindDirDegrees":"170","DateUTC\r":"2/8/16 21:00\r"},{"TimeMSK":"12:30 AM","TemperatureF":"21.2","Dew PointF":"19.4","Humidity":"93","Sea Level PressureIn":"30.15","VisibilityMPH":"-9999","Wind Direction":"South","Wind SpeedMPH":"6.7","Gust SpeedMPH":"-","PrecipitationIn":"N/A","Events":"","Conditions":"Clear","FullMetar":"METAR UWKD 082130Z 17003MPS CAVOK M06/M07 Q1021 R11/810045 NOSIG RMK QFE755/1007","WindDirDegrees":"170","DateUTC\r":"2/8/16 21:30\r"},{"TimeMSK":"1:00 AM","TemperatureF":"21.2","Dew PointF":"17.6","Humidity":"86","Sea Level PressureIn":"30.15","VisibilityMPH":"-9999","Wind Direction":"South","Wind SpeedMPH":"6.7","Gust SpeedMPH":"-","PrecipitationIn":"N/A","Events":"","Conditions":"Clear","FullMetar":"METAR UWKD 082200Z 17003MPS CAVOK M06/M08 Q1021 R11/810045 NOSIG RMK QFE755/1007","WindDirDegrees":"170","DateUTC\r":"2/8/16 22:00\r"},{"TimeMSK":"1:30 AM","TemperatureF":"21.2","Dew PointF":"17.6","Humidity":"86","Sea Level PressureIn":"30.15","VisibilityMPH":"-9999","Wind Direction":"South","Wind SpeedMPH":"6.7","Gust SpeedMPH":"-","PrecipitationIn":"N/A","Events":"","Conditions":"Clear","FullMetar":"METAR UWKD 082230Z 18003MPS CAVOK M06/M08 Q1021 R11/810045 NOSIG RMK QFE755/1007","WindDirDegrees":"180","DateUTC\r":"2/8/16 22:30\r"},{"TimeMSK":"2:00 AM","TemperatureF":"21.2","Dew PointF":"17.6","Humidity":"86","Sea Level PressureIn":"30.15","VisibilityMPH":"-9999","Wind Direction":"South","Wind SpeedMPH":"6.7","Gust SpeedMPH":"-","PrecipitationIn":"N/A","Events":"","Conditions":"Clear","FullMetar":"METAR UWKD 082300Z 17003MPS CAVOK M06/M08 Q1021 R11/810045 NOSIG RMK QFE756/1008","WindDirDegrees":"170","DateUTC\r":"2/8/16 23:00\r"},{"TimeMSK":"2:30 AM","TemperatureF":"21.2","Dew PointF":"15.8","Humidity":"80","Sea Level PressureIn":"30.15","VisibilityMPH":"-9999","Wind Direction":"South","Wind SpeedMPH":"8.9","Gust SpeedMPH":"-","PrecipitationIn":"N/A","Events":"","Conditions":"Clear","FullMetar":"METAR UWKD 082330Z 17004MPS CAVOK M06/M09 Q1021 R11/810045 NOSIG RMK QFE756/1008","WindDirDegrees":"170","DateUTC\r":"2/8/16 23:30\r"},{"TimeMSK":"3:00 AM","TemperatureF":"23","Dew PointF":"18","Humidity":"76","Sea Level PressureIn":"30.2","VisibilityMPH":"6","Wind Direction":"SSE","Wind SpeedMPH":"2.2","Gust SpeedMPH":"","PrecipitationIn":"","Events":"","Conditions":"Mostly Cloudy","FullMetar":"AAXX 09001 27595 42997 51501 11049 21075 30073 40226 52002 85040","WindDirDegrees":"150","DateUTC\r":"2/9/16 0:00\r"},{"TimeMSK":"3:00 AM","TemperatureF":"19.4","Dew PointF":"15.8","Humidity":"86","Sea Level PressureIn":"30.15","VisibilityMPH":"-9999","Wind Direction":"South","Wind SpeedMPH":"6.7","Gust SpeedMPH":"-","PrecipitationIn":"N/A","Events":"","Conditions":"Clear","FullMetar":"METAR UWKD 090000Z 18003MPS CAVOK M07/M09 Q1021 R11/810045 NOSIG RMK QFE756/1008","WindDirDegrees":"180","DateUTC\r":"2/9/16 0:00\r"},{"TimeMSK":"3:30 AM","TemperatureF":"17.6","Dew PointF":"14","Humidity":"86","Sea Level PressureIn":"30.15","VisibilityMPH":"-9999","Wind Direction":"South","Wind SpeedMPH":"8.9","Gust SpeedMPH":"-","PrecipitationIn":"N/A","Events":"","Conditions":"Clear","FullMetar":"METAR UWKD 090030Z 17004MPS CAVOK M08/M10 Q1021 R11/810045 NOSIG RMK QFE756/1008","WindDirDegrees":"170","DateUTC\r":"2/9/16 0:30\r"},{"TimeMSK":"4:00 AM","TemperatureF":"17.6","Dew PointF":"15.8","Humidity":"93","Sea Level PressureIn":"30.15","VisibilityMPH":"-9999","Wind Direction":"SSW","Wind SpeedMPH":"8.9","Gust SpeedMPH":"-","PrecipitationIn":"N/A","Events":"","Conditions":"Clear","FullMetar":"METAR UWKD 090100Z 21004MPS CAVOK M08/M09 Q1021 R11/810045 NOSIG RMK QFE756/1008","WindDirDegrees":"210","DateUTC\r":"2/9/16 1:00\r"},{"TimeMSK":"4:30 AM","TemperatureF":"19.4","Dew PointF":"14","Humidity":"80","Sea Level PressureIn":"30.15","VisibilityMPH":"-9999","Wind Direction":"SW","Wind SpeedMPH":"11.2","Gust SpeedMPH":"-","PrecipitationIn":"N/A","Events":"","Conditions":"Clear","FullMetar":"METAR UWKD 090130Z 23005MPS CAVOK M07/M10 Q1021 R11/810045 NOSIG RMK QFE756/1008","WindDirDegrees":"230","DateUTC\r":"2/9/16 1:30\r"},{"TimeMSK":"5:00 AM","TemperatureF":"21.2","Dew PointF":"15.8","Humidity":"80","Sea Level PressureIn":"30.15","VisibilityMPH":"-9999","Wind Direction":"SSW","Wind SpeedMPH":"8.9","Gust SpeedMPH":"-","PrecipitationIn":"N/A","Events":"","Conditions":"Clear","FullMetar":"METAR UWKD 090200Z 21004MPS CAVOK M06/M09 Q1021 R11/810045 NOSIG RMK QFE756/1008","WindDirDegrees":"210","DateUTC\r":"2/9/16 2:00\r"},{"TimeMSK":"5:30 AM","TemperatureF":"21.2","Dew PointF":"15.8","Humidity":"80","Sea Level PressureIn":"30.18","VisibilityMPH":"-9999","Wind Direction":"SSW","Wind SpeedMPH":"8.9","Gust SpeedMPH":"-","PrecipitationIn":"N/A","Events":"","Conditions":"Clear","FullMetar":"METAR UWKD 090230Z 21004MPS CAVOK M06/M09 Q1022 R11/810045 NOSIG RMK QFE756/1008","WindDirDegrees":"210","DateUTC\r":"2/9/16 2:30\r"},{"TimeMSK":"6:00 AM","TemperatureF":"20","Dew PointF":"15","Humidity":"75","Sea Level PressureIn":"30.22","VisibilityMPH":"6","Wind Direction":"SW","Wind SpeedMPH":"2.2","Gust SpeedMPH":"","PrecipitationIn":"","Events":"","Conditions":"","FullMetar":"AAXX 09031 27595 12997 02301 11067 21092 30079 40234 52006 60002 333 21068 47044 55000","WindDirDegrees":"230","DateUTC\r":"2/9/16 3:00\r"},{"TimeMSK":"6:00 AM","TemperatureF":"23","Dew PointF":"15.8","Humidity":"74","Sea Level PressureIn":"30.18","VisibilityMPH":"-9999","Wind Direction":"SSW","Wind SpeedMPH":"11.2","Gust SpeedMPH":"-","PrecipitationIn":"N/A","Events":"","Conditions":"Clear","FullMetar":"METAR UWKD 090300Z 21005MPS CAVOK M05/M09 Q1022 R11/810045 NOSIG RMK QFE756/1008","WindDirDegrees":"210","DateUTC\r":"2/9/16 3:00\r"},{"TimeMSK":"6:30 AM","TemperatureF":"21.2","Dew PointF":"15.8","Humidity":"80","Sea Level PressureIn":"30.18","VisibilityMPH":"-9999","Wind Direction":"SW","Wind SpeedMPH":"8.9","Gust SpeedMPH":"-","PrecipitationIn":"N/A","Events":"","Conditions":"Clear","FullMetar":"METAR UWKD 090330Z 23004MPS CAVOK M06/M09 Q1022 R29/810045 NOSIG RMK QFE755/1007","WindDirDegrees":"230","DateUTC\r":"2/9/16 3:30\r"},{"TimeMSK":"7:00 AM","TemperatureF":"21.2","Dew PointF":"15.8","Humidity":"80","Sea Level PressureIn":"30.18","VisibilityMPH":"-9999","Wind Direction":"SW","Wind SpeedMPH":"8.9","Gust SpeedMPH":"-","PrecipitationIn":"N/A","Events":"","Conditions":"Clear","FullMetar":"METAR UWKD 090400Z 23004MPS CAVOK M06/M09 Q1022 R29/810050 NOSIG RMK QFE755/1007","WindDirDegrees":"230","DateUTC\r":"2/9/16 4:00\r"},{"TimeMSK":"7:30 AM","TemperatureF":"21.2","Dew PointF":"15.8","Humidity":"80","Sea Level PressureIn":"30.18","VisibilityMPH":"-9999","Wind Direction":"SW","Wind SpeedMPH":"6.7","Gust SpeedMPH":"-","PrecipitationIn":"N/A","Events":"","Conditions":"Clear","FullMetar":"METAR UWKD 090430Z 23003MPS CAVOK M06/M09 Q1022 R29/810050 NOSIG RMK QFE755/1007","WindDirDegrees":"230","DateUTC\r":"2/9/16 4:30\r"},{"TimeMSK":"8:00 AM","TemperatureF":"21.2","Dew PointF":"15.8","Humidity":"80","Sea Level PressureIn":"30.18","VisibilityMPH":"-9999","Wind Direction":"SW","Wind SpeedMPH":"8.9","Gust SpeedMPH":"-","PrecipitationIn":"N/A","Events":"","Conditions":"Clear","FullMetar":"METAR UWKD 090500Z 23004MPS CAVOK M06/M09 Q1022 R29/810050 NOSIG RMK QFE755/1007","WindDirDegrees":"230","DateUTC\r":"2/9/16 5:00\r"},{"TimeMSK":"8:30 AM","TemperatureF":"17.6","Dew PointF":"12.2","Humidity":"79","Sea Level PressureIn":"30.18","VisibilityMPH":"-9999","Wind Direction":"SW","Wind SpeedMPH":"6.7","Gust SpeedMPH":"-","PrecipitationIn":"N/A","Events":"","Conditions":"Clear","FullMetar":"METAR UWKD 090530Z 22003MPS CAVOK M08/M11 Q1022 R29/810050 NOSIG RMK QFE755/1007","WindDirDegrees":"220","DateUTC\r":"2/9/16 5:30\r"},{"TimeMSK":"9:00 AM","TemperatureF":"22","Dew PointF":"16","Humidity":"70","Sea Level PressureIn":"30.24","VisibilityMPH":"6","Wind Direction":"SW","Wind SpeedMPH":"6.7","Gust SpeedMPH":"","PrecipitationIn":"","Events":"","Conditions":"Clear","FullMetar":"AAXX 09061 27595 42997 62303 11054 21087 30085 40239 53006 80004 333 21069","WindDirDegrees":"230","DateUTC\r":"2/9/16 6:00\r"},{"TimeMSK":"9:00 AM","TemperatureF":"21.2","Dew PointF":"15.8","Humidity":"80","Sea Level PressureIn":"30.18","VisibilityMPH":"-9999","Wind Direction":"SW","Wind SpeedMPH":"8.9","Gust SpeedMPH":"-","PrecipitationIn":"N/A","Events":"","Conditions":"Clear","FullMetar":"METAR UWKD 090600Z 22004MPS CAVOK M06/M09 Q1022 R29/810050 NOSIG RMK QFE755/1007","WindDirDegrees":"220","DateUTC\r":"2/9/16 6:00\r"},{"TimeMSK":"9:30 AM","TemperatureF":"21.2","Dew PointF":"15.8","Humidity":"80","Sea Level PressureIn":"30.18","VisibilityMPH":"-9999","Wind Direction":"SSW","Wind SpeedMPH":"8.9","Gust SpeedMPH":"-","PrecipitationIn":"N/A","Events":"","Conditions":"Clear","FullMetar":"METAR UWKD 090630Z 21004MPS CAVOK M06/M09 Q1022 R29/810050 NOSIG RMK QFE756/1008","WindDirDegrees":"210","DateUTC\r":"2/9/16 6:30\r"},{"TimeMSK":"10:00 AM","TemperatureF":"21.2","Dew PointF":"15.8","Humidity":"80","Sea Level PressureIn":"30.18","VisibilityMPH":"-9999","Wind Direction":"SSW","Wind SpeedMPH":"8.9","Gust SpeedMPH":"-","PrecipitationIn":"N/A","Events":"","Conditions":"Clear","FullMetar":"METAR UWKD 090700Z 21004MPS CAVOK M06/M09 Q1022 R29/810050 NOSIG RMK QFE756/1008","WindDirDegrees":"210","DateUTC\r":"2/9/16 7:00\r"},{"TimeMSK":"10:30 AM","TemperatureF":"23","Dew PointF":"17.6","Humidity":"80","Sea Level PressureIn":"30.21","VisibilityMPH":"-9999","Wind Direction":"SSW","Wind SpeedMPH":"8.9","Gust SpeedMPH":"-","PrecipitationIn":"N/A","Events":"","Conditions":"Clear","FullMetar":"METAR UWKD 090730Z 21004MPS CAVOK M05/M08 Q1023 R29/810050 NOSIG RMK QFE756/1008","WindDirDegrees":"210","DateUTC\r":"2/9/16 7:30\r"},{"TimeMSK":"11:00 AM","TemperatureF":"23","Dew PointF":"17.6","Humidity":"80","Sea Level PressureIn":"30.21","VisibilityMPH":"-9999","Wind Direction":"SSW","Wind SpeedMPH":"11.2","Gust SpeedMPH":"-","PrecipitationIn":"N/A","Events":"","Conditions":"Clear","FullMetar":"METAR UWKD 090800Z 21005MPS CAVOK M05/M08 Q1023 R29/810050 NOSIG RMK QFE756/1008","WindDirDegrees":"210","DateUTC\r":"2/9/16 8:00\r"},{"TimeMSK":"11:30 AM","TemperatureF":"23","Dew PointF":"17.6","Humidity":"80","Sea Level PressureIn":"30.21","VisibilityMPH":"-9999","Wind Direction":"South","Wind SpeedMPH":"11.2","Gust SpeedMPH":"-","PrecipitationIn":"N/A","Events":"","Conditions":"Clear","FullMetar":"METAR UWKD 090830Z 18005MPS CAVOK M05/M08 Q1023 R11/810050 NOSIG RMK QFE757/1009","WindDirDegrees":"180","DateUTC\r":"2/9/16 8:30\r"},{"TimeMSK":"12:00 PM","TemperatureF":"27","Dew PointF":"17","Humidity":"54","Sea Level PressureIn":"30.25","VisibilityMPH":"6","Wind Direction":"WSW","Wind SpeedMPH":"8.9","Gust SpeedMPH":"","PrecipitationIn":"","Events":"","Conditions":"Clear","FullMetar":"AAXX 09091 27595 42997 52404 11026 21084 30089 40241 52003 80001","WindDirDegrees":"240","DateUTC\r":"2/9/16 9:00\r"},{"TimeMSK":"12:00 PM","TemperatureF":"23","Dew PointF":"15.8","Humidity":"74","Sea Level PressureIn":"30.21","VisibilityMPH":"-9999","Wind Direction":"South","Wind SpeedMPH":"8.9","Gust SpeedMPH":"-","PrecipitationIn":"N/A","Events":"","Conditions":"Clear","FullMetar":"METAR UWKD 090900Z 18004MPS CAVOK M05/M09 Q1023 R11/810050 NOSIG RMK QFE757/1009","WindDirDegrees":"180","DateUTC\r":"2/9/16 9:00\r"},{"TimeMSK":"12:30 PM","TemperatureF":"21.2","Dew PointF":"15.8","Humidity":"80","Sea Level PressureIn":"30.21","VisibilityMPH":"-9999","Wind Direction":"South","Wind SpeedMPH":"8.9","Gust SpeedMPH":"-","PrecipitationIn":"N/A","Events":"","Conditions":"Clear","FullMetar":"METAR UWKD 090930Z 18004MPS CAVOK M06/M09 Q1023 R11/810050 NOSIG RMK QFE757/1009","WindDirDegrees":"180","DateUTC\r":"2/9/16 9:30\r"},{"TimeMSK":"1:00 PM","TemperatureF":"24.8","Dew PointF":"17.6","Humidity":"74","Sea Level PressureIn":"30.21","VisibilityMPH":"-9999","Wind Direction":"South","Wind SpeedMPH":"11.2","Gust SpeedMPH":"-","PrecipitationIn":"N/A","Events":"","Conditions":"Clear","FullMetar":"METAR UWKD 091000Z 19005MPS CAVOK M04/M08 Q1023 R11/810050 NOSIG RMK QFE757/1009","WindDirDegrees":"190","DateUTC\r":"2/9/16 10:00\r"},{"TimeMSK":"1:30 PM","TemperatureF":"24.8","Dew PointF":"17.6","Humidity":"74","Sea Level PressureIn":"30.18","VisibilityMPH":"-9999","Wind Direction":"South","Wind SpeedMPH":"8.9","Gust SpeedMPH":"-","PrecipitationIn":"N/A","Events":"","Conditions":"Clear","FullMetar":"METAR UWKD 091030Z 18004MPS CAVOK M04/M08 Q1022 R11/810050 NOSIG RMK QFE756/1009","WindDirDegrees":"180","DateUTC\r":"2/9/16 10:30\r"},{"TimeMSK":"2:00 PM","TemperatureF":"24.8","Dew PointF":"17.6","Humidity":"74","Sea Level PressureIn":"30.18","VisibilityMPH":"-9999","Wind Direction":"South","Wind SpeedMPH":"11.2","Gust SpeedMPH":"-","PrecipitationIn":"N/A","Events":"","Conditions":"Clear","FullMetar":"METAR UWKD 091100Z 18005MPS CAVOK M04/M08 Q1022 R11/810050 NOSIG RMK QFE757/1009","WindDirDegrees":"180","DateUTC\r":"2/9/16 11:00\r"},{"TimeMSK":"2:30 PM","TemperatureF":"24.8","Dew PointF":"15.8","Humidity":"69","Sea Level PressureIn":"30.18","VisibilityMPH":"-9999","Wind Direction":"South","Wind SpeedMPH":"8.9","Gust SpeedMPH":"-","PrecipitationIn":"N/A","Events":"","Conditions":"Clear","FullMetar":"METAR UWKD 091130Z 17004MPS CAVOK M04/M09 Q1022 R11/810050 NOSIG RMK QFE756/1009","WindDirDegrees":"170","DateUTC\r":"2/9/16 11:30\r"},{"TimeMSK":"3:00 PM","TemperatureF":"28","Dew PointF":"17","Humidity":"50","Sea Level PressureIn":"30.23","VisibilityMPH":"6","Wind Direction":"SSE","Wind SpeedMPH":"2.2","Gust SpeedMPH":"","PrecipitationIn":"","Events":"","Conditions":"Clear","FullMetar":"AAXX 09121 27595 42997 31601 11020 21085 30084 40236 57005 80002","WindDirDegrees":"160","DateUTC\r":"2/9/16 12:00\r"},{"TimeMSK":"3:00 PM","TemperatureF":"24.8","Dew PointF":"17.6","Humidity":"74","Sea Level PressureIn":"30.18","VisibilityMPH":"-9999","Wind Direction":"South","Wind SpeedMPH":"11.2","Gust SpeedMPH":"-","PrecipitationIn":"N/A","Events":"","Conditions":"Clear","FullMetar":"METAR UWKD 091200Z 19005MPS CAVOK M04/M08 Q1022 R11/810050 NOSIG RMK QFE756/1009","WindDirDegrees":"190","DateUTC\r":"2/9/16 12:00\r"},{"TimeMSK":"3:30 PM","TemperatureF":"24.8","Dew PointF":"15.8","Humidity":"69","Sea Level PressureIn":"30.18","VisibilityMPH":"-9999","Wind Direction":"South","Wind SpeedMPH":"13.4","Gust SpeedMPH":"-","PrecipitationIn":"N/A","Events":"","Conditions":"Clear","FullMetar":"METAR UWKD 091230Z 18006MPS CAVOK M04/M09 Q1022 R11/810050 NOSIG RMK QFE756/1009","WindDirDegrees":"180","DateUTC\r":"2/9/16 12:30\r"},{"TimeMSK":"4:00 PM","TemperatureF":"24.8","Dew PointF":"15.8","Humidity":"69","Sea Level PressureIn":"30.18","VisibilityMPH":"-9999","Wind Direction":"South","Wind SpeedMPH":"11.2","Gust SpeedMPH":"-","PrecipitationIn":"N/A","Events":"","Conditions":"Clear","FullMetar":"METAR UWKD 091300Z 19005MPS CAVOK M04/M09 Q1022 R11/810050 NOSIG RMK QFE757/1009","WindDirDegrees":"190","DateUTC\r":"2/9/16 13:00\r"},{"TimeMSK":"4:30 PM","TemperatureF":"24.8","Dew PointF":"15.8","Humidity":"69","Sea Level PressureIn":"30.21","VisibilityMPH":"-9999","Wind Direction":"South","Wind SpeedMPH":"11.2","Gust SpeedMPH":"-","PrecipitationIn":"N/A","Events":"","Conditions":"Clear","FullMetar":"METAR UWKD 091330Z 19005MPS CAVOK M04/M09 Q1023 R11/810050 NOSIG RMK QFE757/1009","WindDirDegrees":"190","DateUTC\r":"2/9/16 13:30\r"},{"TimeMSK":"5:00 PM","TemperatureF":"24.8","Dew PointF":"15.8","Humidity":"69","Sea Level PressureIn":"30.21","VisibilityMPH":"-9999","Wind Direction":"South","Wind SpeedMPH":"11.2","Gust SpeedMPH":"-","PrecipitationIn":"N/A","Events":"","Conditions":"Clear","FullMetar":"METAR UWKD 091400Z 19005MPS CAVOK M04/M09 Q1023 R11/810050 NOSIG RMK QFE757/1009","WindDirDegrees":"190","DateUTC\r":"2/9/16 14:00\r"},{"TimeMSK":"5:30 PM","TemperatureF":"23","Dew PointF":"14","Humidity":"68","Sea Level PressureIn":"30.21","VisibilityMPH":"-9999","Wind Direction":"South","Wind SpeedMPH":"11.2","Gust SpeedMPH":"-","PrecipitationIn":"N/A","Events":"","Conditions":"Clear","FullMetar":"METAR UWKD 091430Z 19005MPS CAVOK M05/M10 Q1023 R11/810050 NOSIG RMK QFE757/1009","WindDirDegrees":"190","DateUTC\r":"2/9/16 14:30\r"},{"TimeMSK":"6:00 PM","TemperatureF":"26","Dew PointF":"14","Humidity":"47","Sea Level PressureIn":"30.25","VisibilityMPH":"6","Wind Direction":"SSE","Wind SpeedMPH":"4.5","Gust SpeedMPH":"","PrecipitationIn":"","Events":"","Conditions":"Clear","FullMetar":"AAXX 09151 27595 12997 11502 11033 21100 30089 40242 52005 60002 80001 333 11007","WindDirDegrees":"150","DateUTC\r":"2/9/16 15:00\r"},{"TimeMSK":"6:00 PM","TemperatureF":"19.4","Dew PointF":"12.2","Humidity":"74","Sea Level PressureIn":"30.21","VisibilityMPH":"-9999","Wind Direction":"South","Wind SpeedMPH":"8.9","Gust SpeedMPH":"-","PrecipitationIn":"N/A","Events":"","Conditions":"Clear","FullMetar":"METAR UWKD 091500Z 18004MPS CAVOK M07/M11 Q1023 R11/810050 NOSIG RMK QFE757/1009","WindDirDegrees":"180","DateUTC\r":"2/9/16 15:00\r"},{"TimeMSK":"6:30 PM","TemperatureF":"21.2","Dew PointF":"12.2","Humidity":"68","Sea Level PressureIn":"30.21","VisibilityMPH":"-9999","Wind Direction":"South","Wind SpeedMPH":"8.9","Gust SpeedMPH":"-","PrecipitationIn":"N/A","Events":"","Conditions":"Clear","FullMetar":"METAR UWKD 091530Z 19004MPS CAVOK M06/M11 Q1023 R11/810050 NOSIG RMK QFE757/1009","WindDirDegrees":"190","DateUTC\r":"2/9/16 15:30\r"},{"TimeMSK":"7:00 PM","TemperatureF":"28.4","Dew PointF":"14","Humidity":"55","Sea Level PressureIn":"30.21","VisibilityMPH":"-9999","Wind Direction":"SSW","Wind SpeedMPH":"8.9","Gust SpeedMPH":"-","PrecipitationIn":"N/A","Events":"","Conditions":"Clear","FullMetar":"METAR UWKD 091600Z 20004MPS CAVOK M02/M10 Q1023 R11/810050 NOSIG RMK QFE757/1009","WindDirDegrees":"200","DateUTC\r":"2/9/16 16:00\r"},{"TimeMSK":"7:30 PM","TemperatureF":"28.4","Dew PointF":"14","Humidity":"55","Sea Level PressureIn":"30.21","VisibilityMPH":"-9999","Wind Direction":"SSW","Wind SpeedMPH":"11.2","Gust SpeedMPH":"-","PrecipitationIn":"N/A","Events":"","Conditions":"Clear","FullMetar":"METAR UWKD 091630Z 20005MPS CAVOK M02/M10 Q1023 R11/810050 NOSIG RMK QFE757/1009","WindDirDegrees":"200","DateUTC\r":"2/9/16 16:30\r"},{"TimeMSK":"8:00 PM","TemperatureF":"30.2","Dew PointF":"14","Humidity":"51","Sea Level PressureIn":"30.21","VisibilityMPH":"-9999","Wind Direction":"SSW","Wind SpeedMPH":"13.4","Gust SpeedMPH":"-","PrecipitationIn":"N/A","Events":"","Conditions":"Clear","FullMetar":"METAR UWKD 091700Z 21006MPS CAVOK M01/M10 Q1023 R11/810050 NOSIG RMK QFE757/1009","WindDirDegrees":"210","DateUTC\r":"2/9/16 17:00\r"},{"TimeMSK":"8:30 PM","TemperatureF":"28.4","Dew PointF":"14","Humidity":"55","Sea Level PressureIn":"30.21","VisibilityMPH":"-9999","Wind Direction":"SSW","Wind SpeedMPH":"11.2","Gust SpeedMPH":"-","PrecipitationIn":"N/A","Events":"","Conditions":"Clear","FullMetar":"METAR UWKD 091730Z 21005MPS CAVOK M02/M10 Q1023 R11/810055 NOSIG RMK QFE757/1009","WindDirDegrees":"210","DateUTC\r":"2/9/16 17:30\r"},{"TimeMSK":"9:00 PM","TemperatureF":"27","Dew PointF":"12","Humidity":"40","Sea Level PressureIn":"30.25","VisibilityMPH":"6","Wind Direction":"South","Wind SpeedMPH":"4.5","Gust SpeedMPH":"","PrecipitationIn":"","Events":"","Conditions":"Clear","FullMetar":"AAXX 09181 27595 42997 31902 11027 21109 30090 40242 54001 80001","WindDirDegrees":"190","DateUTC\r":"2/9/16 18:00\r"},{"TimeMSK":"9:00 PM","TemperatureF":"28.4","Dew PointF":"14","Humidity":"55","Sea Level PressureIn":"30.21","VisibilityMPH":"-9999","Wind Direction":"SSW","Wind SpeedMPH":"11.2","Gust SpeedMPH":"-","PrecipitationIn":"N/A","Events":"","Conditions":"Clear","FullMetar":"METAR UWKD 091800Z 20005MPS CAVOK M02/M10 Q1023 R11/810055 NOSIG RMK QFE757/1009","WindDirDegrees":"200","DateUTC\r":"2/9/16 18:00\r"},{"TimeMSK":"9:30 PM","TemperatureF":"28.4","Dew PointF":"12.2","Humidity":"51","Sea Level PressureIn":"30.21","VisibilityMPH":"-9999","Wind Direction":"SSW","Wind SpeedMPH":"11.2","Gust SpeedMPH":"-","PrecipitationIn":"N/A","Events":"","Conditions":"Clear","FullMetar":"METAR UWKD 091830Z 20005MPS CAVOK M02/M11 Q1023 R11/810055 NOSIG RMK QFE757/1009","WindDirDegrees":"200","DateUTC\r":"2/9/16 18:30\r"},{"TimeMSK":"10:00 PM","TemperatureF":"24.8","Dew PointF":"12.2","Humidity":"59","Sea Level PressureIn":"30.21","VisibilityMPH":"-9999","Wind Direction":"South","Wind SpeedMPH":"13.4","Gust SpeedMPH":"-","PrecipitationIn":"N/A","Events":"","Conditions":"Clear","FullMetar":"METAR UWKD 091900Z 19006MPS CAVOK M04/M11 Q1023 R11/810055 NOSIG RMK QFE757/1009","WindDirDegrees":"190","DateUTC\r":"2/9/16 19:00\r"},{"TimeMSK":"10:30 PM","TemperatureF":"23","Dew PointF":"10.4","Humidity":"59","Sea Level PressureIn":"30.21","VisibilityMPH":"-9999","Wind Direction":"South","Wind SpeedMPH":"11.2","Gust SpeedMPH":"-","PrecipitationIn":"N/A","Events":"","Conditions":"Clear","FullMetar":"METAR UWKD 091930Z 18005MPS CAVOK M05/M12 Q1023 R11/810055 NOSIG RMK QFE757/1010","WindDirDegrees":"180","DateUTC\r":"2/9/16 19:30\r"},{"TimeMSK":"11:00 PM","TemperatureF":"23","Dew PointF":"8.6","Humidity":"54","Sea Level PressureIn":"30.21","VisibilityMPH":"-9999","Wind Direction":"South","Wind SpeedMPH":"8.9","Gust SpeedMPH":"-","PrecipitationIn":"N/A","Events":"","Conditions":"Clear","FullMetar":"METAR UWKD 092000Z 19004MPS CAVOK M05/M13 Q1023 R11/810055 NOSIG RMK QFE757/1010","WindDirDegrees":"190","DateUTC\r":"2/9/16 20:00\r"},{"TimeMSK":"11:30 PM","TemperatureF":"23","Dew PointF":"10.4","Humidity":"59","Sea Level PressureIn":"30.24","VisibilityMPH":"-9999","Wind Direction":"South","Wind SpeedMPH":"6.7","Gust SpeedMPH":"-","PrecipitationIn":"N/A","Events":"","Conditions":"Clear","FullMetar":"METAR UWKD 092030Z 18003MPS CAVOK M05/M12 Q1024 R11/810055 NOSIG RMK QFE757/1010","WindDirDegrees":"180","DateUTC\r":"2/9/16 20:30\r"},{"TimeMSK":"12:00 AM","TemperatureF":"26","Dew PointF":"8","Humidity":"32","Sea Level PressureIn":"30.27","VisibilityMPH":"6","Wind Direction":"South","Wind SpeedMPH":"2.2","Gust SpeedMPH":"","PrecipitationIn":"","Events":"","Conditions":"Clear","FullMetar":"AAXX 09211 27595 42997 21801 11034 21134 30095 40248 52005 80001","WindDirDegrees":"180","DateUTC\r":"2/9/16 21:00\r"},{"TimeMSK":"12:00 AM","TemperatureF":"21.2","Dew PointF":"10.4","Humidity":"63","Sea Level PressureIn":"30.21","VisibilityMPH":"-9999","Wind Direction":"South","Wind SpeedMPH":"6.7","Gust SpeedMPH":"-","PrecipitationIn":"N/A","Events":"","Conditions":"Clear","FullMetar":"METAR UWKD 092100Z 18003MPS CAVOK M06/M12 Q1023 R11/810055 NOSIG RMK QFE757/1010","WindDirDegrees":"180","DateUTC\r":"2/9/16 21:00\r"},{"TimeMSK":"12:30 AM","TemperatureF":"21.2","Dew PointF":"10.4","Humidity":"63","Sea Level PressureIn":"30.21","VisibilityMPH":"-9999","Wind Direction":"South","Wind SpeedMPH":"8.9","Gust SpeedMPH":"-","PrecipitationIn":"N/A","Events":"","Conditions":"Clear","FullMetar":"METAR UWKD 092130Z 18004MPS CAVOK M06/M12 Q1023 R11/810055 NOSIG RMK QFE757/1010","WindDirDegrees":"180","DateUTC\r":"2/9/16 21:30\r"},{"TimeMSK":"1:00 AM","TemperatureF":"21.2","Dew PointF":"10.4","Humidity":"63","Sea Level PressureIn":"30.24","VisibilityMPH":"-9999","Wind Direction":"South","Wind SpeedMPH":"6.7","Gust SpeedMPH":"-","PrecipitationIn":"N/A","Events":"","Conditions":"Clear","FullMetar":"METAR UWKD 092200Z 18003MPS CAVOK M06/M12 Q1024 R11/810055 NOSIG RMK QFE757/1010","WindDirDegrees":"180","DateUTC\r":"2/9/16 22:00\r"},{"TimeMSK":"1:30 AM","TemperatureF":"19.4","Dew PointF":"8.6","Humidity":"63","Sea Level PressureIn":"30.24","VisibilityMPH":"-9999","Wind Direction":"South","Wind SpeedMPH":"8.9","Gust SpeedMPH":"-","PrecipitationIn":"N/A","Events":"","Conditions":"Clear","FullMetar":"METAR UWKD 092230Z 18004MPS CAVOK M07/M13 Q1024 R11/810055 NOSIG RMK QFE758/1010","WindDirDegrees":"180","DateUTC\r":"2/9/16 22:30\r"},{"TimeMSK":"2:00 AM","TemperatureF":"17.6","Dew PointF":"10.4","Humidity":"73","Sea Level PressureIn":"30.24","VisibilityMPH":"-9999","Wind Direction":"South","Wind SpeedMPH":"8.9","Gust SpeedMPH":"-","PrecipitationIn":"N/A","Events":"","Conditions":"Clear","FullMetar":"METAR UWKD 092300Z 18004MPS CAVOK M08/M12 Q1024 R11/810055 NOSIG RMK QFE757/1010","WindDirDegrees":"180","DateUTC\r":"2/9/16 23:00\r"},{"TimeMSK":"2:30 AM","TemperatureF":"21.2","Dew PointF":"10.4","Humidity":"63","Sea Level PressureIn":"30.24","VisibilityMPH":"-9999","Wind Direction":"South","Wind SpeedMPH":"11.2","Gust SpeedMPH":"-","PrecipitationIn":"N/A","Events":"","Conditions":"Clear","FullMetar":"METAR UWKD 092330Z 18005MPS CAVOK M06/M12 Q1024 R11/810055 NOSIG RMK QFE757/1010","WindDirDegrees":"180","DateUTC\r":"2/9/16 23:30\r"},{"TimeMSK":"3:00 AM","TemperatureF":"25","Dew PointF":"11","Humidity":"41","Sea Level PressureIn":"30.28","VisibilityMPH":"6","Wind Direction":"SSE","Wind SpeedMPH":"2.2","Gust SpeedMPH":"","PrecipitationIn":"","Events":"","Conditions":"Clear","FullMetar":"AAXX 10001 27595 42997 21501 11040 21118 30100 40254 52006 80001","WindDirDegrees":"150","DateUTC\r":"2/10/16 0:00\r"},{"TimeMSK":"3:00 AM","TemperatureF":"21.2","Dew PointF":"12.2","Humidity":"68","Sea Level PressureIn":"30.24","VisibilityMPH":"-9999","Wind Direction":"South","Wind SpeedMPH":"13.4","Gust SpeedMPH":"-","PrecipitationIn":"N/A","Events":"","Conditions":"Clear","FullMetar":"METAR UWKD 100000Z 19006MPS CAVOK M06/M11 Q1024 R11/810055 NOSIG RMK QFE758/1010","WindDirDegrees":"190","DateUTC\r":"2/10/16 0:00\r"},{"TimeMSK":"3:30 AM","TemperatureF":"21.2","Dew PointF":"14","Humidity":"74","Sea Level PressureIn":"30.24","VisibilityMPH":"-9999","Wind Direction":"South","Wind SpeedMPH":"13.4","Gust SpeedMPH":"-","PrecipitationIn":"N/A","Events":"","Conditions":"Clear","FullMetar":"METAR UWKD 100030Z 18006MPS CAVOK M06/M10 Q1024 R11/810055 NOSIG RMK QFE757/1010","WindDirDegrees":"180","DateUTC\r":"2/10/16 0:30\r"},{"TimeMSK":"4:00 AM","TemperatureF":"21.2","Dew PointF":"14","Humidity":"74","Sea Level PressureIn":"30.24","VisibilityMPH":"-9999","Wind Direction":"South","Wind SpeedMPH":"15.7","Gust SpeedMPH":"-","PrecipitationIn":"N/A","Events":"","Conditions":"Clear","FullMetar":"METAR UWKD 100100Z 18007MPS CAVOK M06/M10 Q1024 R11/810055 NOSIG RMK QFE757/1010","WindDirDegrees":"180","DateUTC\r":"2/10/16 1:00\r"},{"TimeMSK":"4:30 AM","TemperatureF":"21.2","Dew PointF":"14","Humidity":"74","Sea Level PressureIn":"30.24","VisibilityMPH":"-9999","Wind Direction":"South","Wind SpeedMPH":"15.7","Gust SpeedMPH":"-","PrecipitationIn":"N/A","Events":"","Conditions":"Clear","FullMetar":"METAR UWKD 100130Z 17007MPS CAVOK M06/M10 Q1024 R11/810055 NOSIG RMK QFE758/1010","WindDirDegrees":"170","DateUTC\r":"2/10/16 1:30\r"},{"TimeMSK":"5:00 AM","TemperatureF":"21.2","Dew PointF":"14","Humidity":"74","Sea Level PressureIn":"30.24","VisibilityMPH":"-9999","Wind Direction":"South","Wind SpeedMPH":"13.4","Gust SpeedMPH":"-","PrecipitationIn":"N/A","Events":"","Conditions":"Clear","FullMetar":"METAR UWKD 100200Z 18006MPS CAVOK M06/M10 Q1024 R11/810055 NOSIG RMK QFE758/1010","WindDirDegrees":"180","DateUTC\r":"2/10/16 2:00\r"},{"TimeMSK":"5:30 AM","TemperatureF":"21.2","Dew PointF":"15.8","Humidity":"80","Sea Level PressureIn":"30.24","VisibilityMPH":"-9999","Wind Direction":"South","Wind SpeedMPH":"15.7","Gust SpeedMPH":"-","PrecipitationIn":"N/A","Events":"","Conditions":"Clear","FullMetar":"METAR UWKD 100230Z 18007MPS CAVOK M06/M09 Q1024 R11/810055 NOSIG RMK QFE758/1010","WindDirDegrees":"180","DateUTC\r":"2/10/16 2:30\r"},{"TimeMSK":"6:00 AM","TemperatureF":"23","Dew PointF":"15","Humidity":"60","Sea Level PressureIn":"30.3","VisibilityMPH":"6","Wind Direction":"SSE","Wind SpeedMPH":"4.5","Gust SpeedMPH":"","PrecipitationIn":"","Events":"","Conditions":"Clear","FullMetar":"AAXX 10031 27595 12997 41602 11048 21095 30104 40258 53004 60002 80001 333 21049 47044 55057","WindDirDegrees":"160","DateUTC\r":"2/10/16 3:00\r"},{"TimeMSK":"6:00 AM","TemperatureF":"21.2","Dew PointF":"14","Humidity":"74","Sea Level PressureIn":"30.24","VisibilityMPH":"-9999","Wind Direction":"South","Wind SpeedMPH":"11.2","Gust SpeedMPH":"-","PrecipitationIn":"N/A","Events":"","Conditions":"Clear","FullMetar":"METAR UWKD 100300Z 18005MPS CAVOK M06/M10 Q1024 R11/810055 NOSIG RMK QFE758/1011","WindDirDegrees":"180","DateUTC\r":"2/10/16 3:00\r"},{"TimeMSK":"6:30 AM","TemperatureF":"21.2","Dew PointF":"14","Humidity":"74","Sea Level PressureIn":"30.27","VisibilityMPH":"-9999","Wind Direction":"South","Wind SpeedMPH":"11.2","Gust SpeedMPH":"-","PrecipitationIn":"N/A","Events":"","Conditions":"Clear","FullMetar":"METAR UWKD 100330Z 17005MPS CAVOK M06/M10 Q1025 R11/810055 NOSIG RMK QFE758/1011","WindDirDegrees":"170","DateUTC\r":"2/10/16 3:30\r"},{"TimeMSK":"7:00 AM","TemperatureF":"19.4","Dew PointF":"15.8","Humidity":"86","Sea Level PressureIn":"30.27","VisibilityMPH":"6.2","Wind Direction":"South","Wind SpeedMPH":"11.2","Gust SpeedMPH":"-","PrecipitationIn":"N/A","Events":"","Conditions":"Scattered Clouds","FullMetar":"METAR UWKD 100400Z 18005MPS 9999 SCT020 M07/M09 Q1025 R11/810055 NOSIG RMK QFE758/1011","WindDirDegrees":"180","DateUTC\r":"2/10/16 4:00\r"},{"TimeMSK":"7:30 AM","TemperatureF":"23","Dew PointF":"19.4","Humidity":"86","Sea Level PressureIn":"30.27","VisibilityMPH":"6.2","Wind Direction":"South","Wind SpeedMPH":"8.9","Gust SpeedMPH":"-","PrecipitationIn":"N/A","Events":"","Conditions":"Mostly Cloudy","FullMetar":"METAR UWKD 100430Z 19004MPS 9999 BKN016 M05/M07 Q1025 R11/810055 NOSIG RMK QFE759/1012","WindDirDegrees":"190","DateUTC\r":"2/10/16 4:30\r"},{"TimeMSK":"8:00 AM","TemperatureF":"24.8","Dew PointF":"19.4","Humidity":"80","Sea Level PressureIn":"30.27","VisibilityMPH":"6.2","Wind Direction":"South","Wind SpeedMPH":"11.2","Gust SpeedMPH":"-","PrecipitationIn":"N/A","Events":"","Conditions":"Mostly Cloudy","FullMetar":"METAR UWKD 100500Z 18005MPS 9999 BKN017 M04/M07 Q1025 R11/810055 NOSIG RMK QFE759/1012","WindDirDegrees":"180","DateUTC\r":"2/10/16 5:00\r"},{"TimeMSK":"8:30 AM","TemperatureF":"24.8","Dew PointF":"21.2","Humidity":"86","Sea Level PressureIn":"30.27","VisibilityMPH":"6.2","Wind Direction":"South","Wind SpeedMPH":"13.4","Gust SpeedMPH":"-","PrecipitationIn":"N/A","Events":"","Conditions":"Mostly Cloudy","FullMetar":"METAR UWKD 100530Z 18006MPS 9999 BKN019 M04/M06 Q1025 R11/810055 NOSIG RMK QFE759/1012","WindDirDegrees":"180","DateUTC\r":"2/10/16 5:30\r"},{"TimeMSK":"9:00 AM","TemperatureF":"26","Dew PointF":"20","Humidity":"71","Sea Level PressureIn":"30.32","VisibilityMPH":"6","Wind Direction":"South","Wind SpeedMPH":"2.2","Gust SpeedMPH":"","PrecipitationIn":"","Events":"","Conditions":"Overcast","FullMetar":"AAXX 10061 27595 42597 81801 11031 21065 30113 40266 51009 885// 333 88624","WindDirDegrees":"180","DateUTC\r":"2/10/16 6:00\r"},{"TimeMSK":"9:00 AM","TemperatureF":"26.6","Dew PointF":"21.2","Humidity":"80","Sea Level PressureIn":"30.3","VisibilityMPH":"6.2","Wind Direction":"South","Wind SpeedMPH":"13.4","Gust SpeedMPH":"-","PrecipitationIn":"N/A","Events":"","Conditions":"Mostly Cloudy","FullMetar":"METAR UWKD 100600Z 18006MPS 9999 BKN019 M03/M06 Q1026 R11/810055 NOSIG RMK QFE759/1012","WindDirDegrees":"180","DateUTC\r":"2/10/16 6:00\r"},{"TimeMSK":"9:30 AM","TemperatureF":"26.6","Dew PointF":"23","Humidity":"86","Sea Level PressureIn":"30.3","VisibilityMPH":"6.2","Wind Direction":"South","Wind SpeedMPH":"13.4","Gust SpeedMPH":"-","PrecipitationIn":"N/A","Events":"","Conditions":"Mostly Cloudy","FullMetar":"METAR UWKD 100630Z 18006MPS 9999 BKN018 M03/M05 Q1026 R11/810055 NOSIG RMK QFE759/1012","WindDirDegrees":"180","DateUTC\r":"2/10/16 6:30\r"},{"TimeMSK":"10:00 AM","TemperatureF":"28.4","Dew PointF":"24.8","Humidity":"86","Sea Level PressureIn":"30.3","VisibilityMPH":"6.2","Wind Direction":"South","Wind SpeedMPH":"13.4","Gust SpeedMPH":"-","PrecipitationIn":"N/A","Events":"","Conditions":"Mostly Cloudy","FullMetar":"METAR UWKD 100700Z 19006MPS 9999 BKN017 M02/M04 Q1026 R11/810055 NOSIG RMK QFE759/1012","WindDirDegrees":"190","DateUTC\r":"2/10/16 7:00\r"},{"TimeMSK":"10:30 AM","TemperatureF":"28.4","Dew PointF":"24.8","Humidity":"86","Sea Level PressureIn":"30.3","VisibilityMPH":"6.2","Wind Direction":"South","Wind SpeedMPH":"13.4","Gust SpeedMPH":"-","PrecipitationIn":"N/A","Events":"","Conditions":"Mostly Cloudy","FullMetar":"METAR UWKD 100730Z 19006MPS 9999 BKN017 M02/M04 Q1026 R11/810055 NOSIG RMK QFE759/1012","WindDirDegrees":"190","DateUTC\r":"2/10/16 7:30\r"},{"TimeMSK":"11:00 AM","TemperatureF":"28.4","Dew PointF":"24.8","Humidity":"86","Sea Level PressureIn":"30.3","VisibilityMPH":"6.2","Wind Direction":"South","Wind SpeedMPH":"13.4","Gust SpeedMPH":"-","PrecipitationIn":"N/A","Events":"","Conditions":"Mostly Cloudy","FullMetar":"METAR UWKD 100800Z 19006MPS 9999 BKN017 M02/M04 Q1026 R11/810055 NOSIG RMK QFE759/1012","WindDirDegrees":"190","DateUTC\r":"2/10/16 8:00\r"},{"TimeMSK":"11:30 AM","TemperatureF":"26.6","Dew PointF":"23","Humidity":"86","Sea Level PressureIn":"30.3","VisibilityMPH":"6.2","Wind Direction":"South","Wind SpeedMPH":"15.7","Gust SpeedMPH":"-","PrecipitationIn":"N/A","Events":"","Conditions":"Mostly Cloudy","FullMetar":"METAR UWKD 100830Z 17007MPS 9999 BKN015 M03/M05 Q1026 R11/810055 NOSIG RMK QFE759/1012","WindDirDegrees":"170","DateUTC\r":"2/10/16 8:30\r"},{"TimeMSK":"12:00 PM","TemperatureF":"30","Dew PointF":"23","Humidity":"64","Sea Level PressureIn":"30.33","VisibilityMPH":"6","Wind Direction":"SW","Wind SpeedMPH":"4.5","Gust SpeedMPH":"","PrecipitationIn":"","Events":"","Conditions":"Mostly Cloudy","FullMetar":"AAXX 10091 27595 42597 72202 11013 21052 30119 40271 52006 87500 333 87623","WindDirDegrees":"220","DateUTC\r":"2/10/16 9:00\r"},{"TimeMSK":"12:00 PM","TemperatureF":"26.6","Dew PointF":"23","Humidity":"86","Sea Level PressureIn":"30.3","VisibilityMPH":"6.2","Wind Direction":"South","Wind SpeedMPH":"15.7","Gust SpeedMPH":"26.8","PrecipitationIn":"N/A","Events":"","Conditions":"Mostly Cloudy","FullMetar":"METAR UWKD 100900Z 19007G12MPS 9999 BKN015 M03/M05 Q1026 R11/810055 NOSIG RMK QFE759/1012","WindDirDegrees":"190","DateUTC\r":"2/10/16 9:00\r"},{"TimeMSK":"12:30 PM","TemperatureF":"28.4","Dew PointF":"23","Humidity":"80","Sea Level PressureIn":"30.3","VisibilityMPH":"6.2","Wind Direction":"SSW","Wind SpeedMPH":"15.7","Gust SpeedMPH":"26.8","PrecipitationIn":"N/A","Events":"","Conditions":"Mostly Cloudy","FullMetar":"METAR UWKD 100930Z 20007G12MPS 9999 BKN016 M02/M05 Q1026 R11/810055 NOSIG RMK QFE759/1012","WindDirDegrees":"200","DateUTC\r":"2/10/16 9:30\r"},{"TimeMSK":"1:00 PM","TemperatureF":"28.4","Dew PointF":"23","Humidity":"80","Sea Level PressureIn":"30.3","VisibilityMPH":"6.2","Wind Direction":"SSW","Wind SpeedMPH":"15.7","Gust SpeedMPH":"26.8","PrecipitationIn":"N/A","Events":"","Conditions":"Mostly Cloudy","FullMetar":"METAR UWKD 101000Z 20007G12MPS 9999 BKN018 M02/M05 Q1026 R11/810055 NOSIG RMK QFE759/1013","WindDirDegrees":"200","DateUTC\r":"2/10/16 10:00\r"},{"TimeMSK":"1:30 PM","TemperatureF":"28.4","Dew PointF":"23","Humidity":"80","Sea Level PressureIn":"30.3","VisibilityMPH":"6.2","Wind Direction":"SSW","Wind SpeedMPH":"11.2","Gust SpeedMPH":"22.4","PrecipitationIn":"N/A","Events":"","Conditions":"Mostly Cloudy","FullMetar":"METAR UWKD 101030Z 20005G10MPS 9999 BKN020 M02/M05 Q1026 R11/810055 NOSIG RMK QFE759/1013","WindDirDegrees":"200","DateUTC\r":"2/10/16 10:30\r"},{"TimeMSK":"2:00 PM","TemperatureF":"28.4","Dew PointF":"23","Humidity":"80","Sea Level PressureIn":"30.33","VisibilityMPH":"6.2","Wind Direction":"SSW","Wind SpeedMPH":"11.2","Gust SpeedMPH":"22.4","PrecipitationIn":"N/A","Events":"","Conditions":"Mostly Cloudy","FullMetar":"METAR UWKD 101100Z 20005G10MPS 9999 BKN018 M02/M05 Q1027 R11/8/0050 NOSIG RMK QFE760/1013","WindDirDegrees":"200","DateUTC\r":"2/10/16 11:00\r"},{"TimeMSK":"2:30 PM","TemperatureF":"28.4","Dew PointF":"23","Humidity":"80","Sea Level PressureIn":"30.33","VisibilityMPH":"6.2","Wind Direction":"SSW","Wind SpeedMPH":"11.2","Gust SpeedMPH":"-","PrecipitationIn":"N/A","Events":"","Conditions":"Mostly Cloudy","FullMetar":"METAR UWKD 101130Z 20005MPS 170V240 9999 BKN018 M02/M05 Q1027 R11/8/0050 NOSIG RMK QFE760/1013","WindDirDegrees":"200","DateUTC\r":"2/10/16 11:30\r"},{"TimeMSK":"3:00 PM","TemperatureF":"30","Dew PointF":"23","Humidity":"67","Sea Level PressureIn":"30.37","VisibilityMPH":"6","Wind Direction":"SSW","Wind SpeedMPH":"4.5","Gust SpeedMPH":"","PrecipitationIn":"","Events":"","Conditions":"Overcast","FullMetar":"AAXX 10121 27595 42597 82002 11011 21049 30130 40282 52011 885// 333 88623","WindDirDegrees":"200","DateUTC\r":"2/10/16 12:00\r"},{"TimeMSK":"3:00 PM","TemperatureF":"28.4","Dew PointF":"23","Humidity":"80","Sea Level PressureIn":"30.33","VisibilityMPH":"6.2","Wind Direction":"SSW","Wind SpeedMPH":"11.2","Gust SpeedMPH":"-","PrecipitationIn":"N/A","Events":"","Conditions":"Mostly Cloudy","FullMetar":"METAR UWKD 101200Z 20005MPS 9999 BKN018 M02/M05 Q1027 R11/8/0050 NOSIG RMK QFE760/1014","WindDirDegrees":"200","DateUTC\r":"2/10/16 12:00\r"},{"TimeMSK":"3:30 PM","TemperatureF":"28.4","Dew PointF":"24.8","Humidity":"86","Sea Level PressureIn":"30.33","VisibilityMPH":"6.2","Wind Direction":"South","Wind SpeedMPH":"13.4","Gust SpeedMPH":"-","PrecipitationIn":"N/A","Events":"","Conditions":"Mostly Cloudy","FullMetar":"METAR UWKD 101230Z 19006MPS 9999 BKN018 M02/M04 Q1027 R11/8/0050 NOSIG RMK QFE760/1014","WindDirDegrees":"190","DateUTC\r":"2/10/16 12:30\r"},{"TimeMSK":"4:00 PM","TemperatureF":"28.4","Dew PointF":"24.8","Humidity":"86","Sea Level PressureIn":"30.33","VisibilityMPH":"6.2","Wind Direction":"SSW","Wind SpeedMPH":"13.4","Gust SpeedMPH":"-","PrecipitationIn":"N/A","Events":"","Conditions":"Mostly Cloudy","FullMetar":"METAR UWKD 101300Z 20006MPS 9999 BKN022 M02/M04 Q1027 R11/8/0050 NOSIG RMK QFE760/1014","WindDirDegrees":"200","DateUTC\r":"2/10/16 13:00\r"},{"TimeMSK":"4:30 PM","TemperatureF":"28.4","Dew PointF":"23","Humidity":"80","Sea Level PressureIn":"30.36","VisibilityMPH":"6.2","Wind Direction":"South","Wind SpeedMPH":"15.7","Gust SpeedMPH":"-","PrecipitationIn":"N/A","Events":"","Conditions":"Mostly Cloudy","FullMetar":"METAR UWKD 101330Z 19007MPS 9999 BKN024 M02/M05 Q1028 R11/8/0050 NOSIG RMK QFE761/1014","WindDirDegrees":"190","DateUTC\r":"2/10/16 13:30\r"},{"TimeMSK":"5:00 PM","TemperatureF":"26.6","Dew PointF":"21.2","Humidity":"80","Sea Level PressureIn":"30.36","VisibilityMPH":"6.2","Wind Direction":"South","Wind SpeedMPH":"13.4","Gust SpeedMPH":"-","PrecipitationIn":"N/A","Events":"","Conditions":"Scattered Clouds","FullMetar":"METAR UWKD 101400Z 19006MPS 9999 SCT025 M03/M06 Q1028 R11/8/0050 NOSIG RMK QFE761/1014","WindDirDegrees":"190","DateUTC\r":"2/10/16 14:00\r"},{"TimeMSK":"5:30 PM","TemperatureF":"24.8","Dew PointF":"21.2","Humidity":"86","Sea Level PressureIn":"30.36","VisibilityMPH":"6.2","Wind Direction":"South","Wind SpeedMPH":"11.2","Gust SpeedMPH":"-","PrecipitationIn":"N/A","Events":"","Conditions":"Scattered Clouds","FullMetar":"METAR UWKD 101430Z 18005MPS 9999 SCT025 M04/M06 Q1028 R11/8/0050 NOSIG RMK QFE761/1015","WindDirDegrees":"180","DateUTC\r":"2/10/16 14:30\r"},{"TimeMSK":"6:00 PM","TemperatureF":"27","Dew PointF":"21","Humidity":"69","Sea Level PressureIn":"30.39","VisibilityMPH":"6","Wind Direction":"SSW","Wind SpeedMPH":"4.5","Gust SpeedMPH":"","PrecipitationIn":"","Events":"","Conditions":"Scattered Clouds","FullMetar":"AAXX 10151 27595 12697 52102 11026 21062 30138 40291 51008 60002 82530 333 11011","WindDirDegrees":"210","DateUTC\r":"2/10/16 15:00\r"},{"TimeMSK":"6:00 PM","TemperatureF":"23","Dew PointF":"17.6","Humidity":"80","Sea Level PressureIn":"30.36","VisibilityMPH":"6.2","Wind Direction":"SSE","Wind SpeedMPH":"11.2","Gust SpeedMPH":"-","PrecipitationIn":"N/A","Events":"","Conditions":"Scattered Clouds","FullMetar":"METAR UWKD 101500Z 16005MPS 9999 SCT033 M05/M08 Q1028 R11/8/0050 NOSIG RMK QFE761/1014","WindDirDegrees":"160","DateUTC\r":"2/10/16 15:00\r"},{"TimeMSK":"6:30 PM","TemperatureF":"23","Dew PointF":"19.4","Humidity":"86","Sea Level PressureIn":"30.36","VisibilityMPH":"6.2","Wind Direction":"SSE","Wind SpeedMPH":"11.2","Gust SpeedMPH":"-","PrecipitationIn":"N/A","Events":"","Conditions":"Scattered Clouds","FullMetar":"METAR UWKD 101530Z 15005MPS 9999 SCT033 M05/M07 Q1028 R11/8/0050 NOSIG RMK QFE761/1014","WindDirDegrees":"150","DateUTC\r":"2/10/16 15:30\r"},{"TimeMSK":"7:00 PM","TemperatureF":"21.2","Dew PointF":"17.6","Humidity":"86","Sea Level PressureIn":"30.36","VisibilityMPH":"6.2","Wind Direction":"SSE","Wind SpeedMPH":"15.7","Gust SpeedMPH":"-","PrecipitationIn":"N/A","Events":"","Conditions":"Scattered Clouds","FullMetar":"METAR UWKD 101600Z 16007MPS 9999 SCT033 M06/M08 Q1028 R11/8/0050 NOSIG RMK QFE761/1015","WindDirDegrees":"160","DateUTC\r":"2/10/16 16:00\r"},{"TimeMSK":"7:30 PM","TemperatureF":"19.4","Dew PointF":"15.8","Humidity":"86","Sea Level PressureIn":"30.36","VisibilityMPH":"6.2","Wind Direction":"South","Wind SpeedMPH":"11.2","Gust SpeedMPH":"-","PrecipitationIn":"N/A","Events":"","Conditions":"Scattered Clouds","FullMetar":"METAR UWKD 101630Z 17005MPS 9999 SCT033 M07/M09 Q1028 R11/710050 NOSIG RMK QFE761/1015","WindDirDegrees":"170","DateUTC\r":"2/10/16 16:30\r"},{"TimeMSK":"8:00 PM","TemperatureF":"21.2","Dew PointF":"17.6","Humidity":"86","Sea Level PressureIn":"30.36","VisibilityMPH":"-9999","Wind Direction":"South","Wind SpeedMPH":"11.2","Gust SpeedMPH":"-","PrecipitationIn":"N/A","Events":"","Conditions":"Clear","FullMetar":"METAR UWKD 101700Z 17005MPS CAVOK M06/M08 Q1028 R11/710050 NOSIG RMK QFE761/1015","WindDirDegrees":"170","DateUTC\r":"2/10/16 17:00\r"},{"TimeMSK":"8:30 PM","TemperatureF":"21.2","Dew PointF":"17.6","Humidity":"86","Sea Level PressureIn":"30.36","VisibilityMPH":"-9999","Wind Direction":"South","Wind SpeedMPH":"8.9","Gust SpeedMPH":"-","PrecipitationIn":"N/A","Events":"","Conditions":"Clear","FullMetar":"METAR UWKD 101730Z 17004MPS CAVOK M06/M08 Q1028 R11/710050 NOSIG RMK QFE761/1015","WindDirDegrees":"170","DateUTC\r":"2/10/16 17:30\r"},{"TimeMSK":"9:00 PM","TemperatureF":"25","Dew PointF":"19","Humidity":"68","Sea Level PressureIn":"30.42","VisibilityMPH":"6","Wind Direction":"SSE","Wind SpeedMPH":"2.2","Gust SpeedMPH":"","PrecipitationIn":"","Events":"","Conditions":"Mostly Cloudy","FullMetar":"AAXX 10181 27595 42997 51501 11040 21074 30147 40301 51009 85030","WindDirDegrees":"150","DateUTC\r":"2/10/16 18:00\r"},{"TimeMSK":"9:00 PM","TemperatureF":"21.2","Dew PointF":"15.8","Humidity":"80","Sea Level PressureIn":"30.36","VisibilityMPH":"-9999","Wind Direction":"South","Wind SpeedMPH":"8.9","Gust SpeedMPH":"-","PrecipitationIn":"N/A","Events":"","Conditions":"Clear","FullMetar":"METAR UWKD 101800Z 18004MPS CAVOK M06/M09 Q1028 R11/710050 NOSIG RMK QFE761/1015","WindDirDegrees":"180","DateUTC\r":"2/10/16 18:00\r"},{"TimeMSK":"9:30 PM","TemperatureF":"19.4","Dew PointF":"15.8","Humidity":"86","Sea Level PressureIn":"30.39","VisibilityMPH":"-9999","Wind Direction":"South","Wind SpeedMPH":"6.7","Gust SpeedMPH":"-","PrecipitationIn":"N/A","Events":"","Conditions":"Clear","FullMetar":"METAR UWKD 101830Z 17003MPS CAVOK M07/M09 Q1029 R11/710050 NOSIG RMK QFE761/1015","WindDirDegrees":"170","DateUTC\r":"2/10/16 18:30\r"},{"TimeMSK":"10:00 PM","TemperatureF":"19.4","Dew PointF":"14","Humidity":"80","Sea Level PressureIn":"30.39","VisibilityMPH":"-9999","Wind Direction":"SSE","Wind SpeedMPH":"6.7","Gust SpeedMPH":"-","PrecipitationIn":"N/A","Events":"","Conditions":"Clear","FullMetar":"METAR UWKD 101900Z 15003MPS CAVOK M07/M10 Q1029 R11/710050 NOSIG RMK QFE761/1015","WindDirDegrees":"150","DateUTC\r":"2/10/16 19:00\r"},{"TimeMSK":"10:30 PM","TemperatureF":"19.4","Dew PointF":"15.8","Humidity":"86","Sea Level PressureIn":"30.39","VisibilityMPH":"-9999","Wind Direction":"South","Wind SpeedMPH":"11.2","Gust SpeedMPH":"-","PrecipitationIn":"N/A","Events":"","Conditions":"Clear","FullMetar":"METAR UWKD 101930Z 17005MPS CAVOK M07/M09 Q1029 R11/710050 NOSIG RMK QFE761/1015","WindDirDegrees":"170","DateUTC\r":"2/10/16 19:30\r"},{"TimeMSK":"11:00 PM","TemperatureF":"21.2","Dew PointF":"15.8","Humidity":"80","Sea Level PressureIn":"30.39","VisibilityMPH":"-9999","Wind Direction":"South","Wind SpeedMPH":"8.9","Gust SpeedMPH":"-","PrecipitationIn":"N/A","Events":"","Conditions":"Clear","FullMetar":"METAR UWKD 102000Z 19004MPS CAVOK M06/M09 Q1029 R11/710050 NOSIG RMK QFE761/1015","WindDirDegrees":"190","DateUTC\r":"2/10/16 20:00\r"},{"TimeMSK":"11:30 PM","TemperatureF":"19.4","Dew PointF":"14","Humidity":"80","Sea Level PressureIn":"30.39","VisibilityMPH":"-9999","Wind Direction":"South","Wind SpeedMPH":"6.7","Gust SpeedMPH":"-","PrecipitationIn":"N/A","Events":"","Conditions":"Clear","FullMetar":"METAR UWKD 102030Z 17003MPS CAVOK M07/M10 Q1029 R11/710050 NOSIG RMK QFE762/1016","WindDirDegrees":"170","DateUTC\r":"2/10/16 20:30\r"},{"TimeMSK":"12:00 AM","TemperatureF":"23","Dew PointF":"15","Humidity":"61","Sea Level PressureIn":"30.45","VisibilityMPH":"6","Wind Direction":"SE","Wind SpeedMPH":"2.2","Gust SpeedMPH":"","PrecipitationIn":"","Events":"","Conditions":"","FullMetar":"AAXX 10211 27595 42997 01401 11051 21094 30155 40310 52008","WindDirDegrees":"140","DateUTC\r":"2/10/16 21:00\r"},{"TimeMSK":"12:00 AM","TemperatureF":"19.4","Dew PointF":"14","Humidity":"80","Sea Level PressureIn":"30.39","VisibilityMPH":"-9999","Wind Direction":"South","Wind SpeedMPH":"11.2","Gust SpeedMPH":"-","PrecipitationIn":"N/A","Events":"","Conditions":"Clear","FullMetar":"METAR UWKD 102100Z 18005MPS CAVOK M07/M10 Q1029 R11/710050 NOSIG RMK QFE762/1016","WindDirDegrees":"180","DateUTC\r":"2/10/16 21:00\r"},{"TimeMSK":"12:30 AM","TemperatureF":"17.6","Dew PointF":"14","Humidity":"86","Sea Level PressureIn":"30.39","VisibilityMPH":"-9999","Wind Direction":"South","Wind SpeedMPH":"13.4","Gust SpeedMPH":"-","PrecipitationIn":"N/A","Events":"","Conditions":"Clear","FullMetar":"METAR UWKD 102130Z 17006MPS CAVOK M08/M10 Q1029 R11/710050 NOSIG RMK QFE762/1016","WindDirDegrees":"170","DateUTC\r":"2/10/16 21:30\r"},{"TimeMSK":"1:00 AM","TemperatureF":"17.6","Dew PointF":"12.2","Humidity":"79","Sea Level PressureIn":"30.39","VisibilityMPH":"-9999","Wind Direction":"South","Wind SpeedMPH":"13.4","Gust SpeedMPH":"-","PrecipitationIn":"N/A","Events":"","Conditions":"Clear","FullMetar":"METAR UWKD 102200Z 17006MPS CAVOK M08/M11 Q1029 R11/710050 NOSIG RMK QFE762/1016","WindDirDegrees":"170","DateUTC\r":"2/10/16 22:00\r"},{"TimeMSK":"1:30 AM","TemperatureF":"19.4","Dew PointF":"12.2","Humidity":"74","Sea Level PressureIn":"30.42","VisibilityMPH":"-9999","Wind Direction":"South","Wind SpeedMPH":"15.7","Gust SpeedMPH":"-","PrecipitationIn":"N/A","Events":"","Conditions":"Clear","FullMetar":"METAR UWKD 102230Z 17007MPS CAVOK M07/M11 Q1030 R11/710050 NOSIG RMK QFE762/1016","WindDirDegrees":"170","DateUTC\r":"2/10/16 22:30\r"},{"TimeMSK":"2:00 AM","TemperatureF":"15.8","Dew PointF":"12.2","Humidity":"86","Sea Level PressureIn":"30.42","VisibilityMPH":"-9999","Wind Direction":"SSE","Wind SpeedMPH":"11.2","Gust SpeedMPH":"-","PrecipitationIn":"N/A","Events":"","Conditions":"Clear","FullMetar":"METAR UWKD 102300Z 16005MPS CAVOK M09/M11 Q1030 R11/710050 NOSIG RMK QFE762/1016","WindDirDegrees":"160","DateUTC\r":"2/10/16 23:00\r"},{"TimeMSK":"2:30 AM","TemperatureF":"14","Dew PointF":"10.4","Humidity":"86","Sea Level PressureIn":"30.42","VisibilityMPH":"-9999","Wind Direction":"SSE","Wind SpeedMPH":"8.9","Gust SpeedMPH":"-","PrecipitationIn":"N/A","Events":"","Conditions":"Clear","FullMetar":"METAR UWKD 102330Z 16004MPS CAVOK M10/M12 Q1030 R11/710050 NOSIG RMK QFE762/1017","WindDirDegrees":"160","DateUTC\r":"2/10/16 23:30\r"},{"TimeMSK":"3:00 AM","TemperatureF":"20","Dew PointF":"13","Humidity":"64","Sea Level PressureIn":"30.49","VisibilityMPH":"6","Wind Direction":"SE","Wind SpeedMPH":"2.2","Gust SpeedMPH":"","PrecipitationIn":"","Events":"","Conditions":"","FullMetar":"AAXX 11001 27595 42997 01301 11064 21105 30167 40323 53012","WindDirDegrees":"130","DateUTC\r":"2/11/16 0:00\r"},{"TimeMSK":"3:00 AM","TemperatureF":"17.6","Dew PointF":"12.2","Humidity":"79","Sea Level PressureIn":"30.42","VisibilityMPH":"-9999","Wind Direction":"South","Wind SpeedMPH":"13.4","Gust SpeedMPH":"-","PrecipitationIn":"N/A","Events":"","Conditions":"Clear","FullMetar":"METAR UWKD 110000Z 17006MPS CAVOK M08/M11 Q1030 R11/710050 NOSIG RMK QFE762/1017","WindDirDegrees":"170","DateUTC\r":"2/11/16 0:00\r"},{"TimeMSK":"3:30 AM","TemperatureF":"15.8","Dew PointF":"10.4","Humidity":"79","Sea Level PressureIn":"30.42","VisibilityMPH":"-9999","Wind Direction":"South","Wind SpeedMPH":"11.2","Gust SpeedMPH":"-","PrecipitationIn":"N/A","Events":"","Conditions":"Clear","FullMetar":"METAR UWKD 110030Z 17005MPS CAVOK M09/M12 Q1030 R11/710050 NOSIG RMK QFE762/1017","WindDirDegrees":"170","DateUTC\r":"2/11/16 0:30\r"},{"TimeMSK":"4:00 AM","TemperatureF":"14","Dew PointF":"10.4","Humidity":"86","Sea Level PressureIn":"30.45","VisibilityMPH":"-9999","Wind Direction":"SSE","Wind SpeedMPH":"8.9","Gust SpeedMPH":"-","PrecipitationIn":"N/A","Events":"","Conditions":"Clear","FullMetar":"METAR UWKD 110100Z 16004MPS CAVOK M10/M12 Q1031 R11/710050 NOSIG RMK QFE763/1017","WindDirDegrees":"160","DateUTC\r":"2/11/16 1:00\r"},{"TimeMSK":"4:30 AM","TemperatureF":"14","Dew PointF":"12.2","Humidity":"93","Sea Level PressureIn":"30.45","VisibilityMPH":"-9999","Wind Direction":"SSE","Wind SpeedMPH":"6.7","Gust SpeedMPH":"-","PrecipitationIn":"N/A","Events":"","Conditions":"Clear","FullMetar":"METAR UWKD 110130Z 15003MPS CAVOK M10/M11 Q1031 R11/710050 NOSIG RMK QFE763/1017","WindDirDegrees":"150","DateUTC\r":"2/11/16 1:30\r"},{"TimeMSK":"5:00 AM","TemperatureF":"15.8","Dew PointF":"12.2","Humidity":"86","Sea Level PressureIn":"30.45","VisibilityMPH":"-9999","Wind Direction":"SSE","Wind SpeedMPH":"8.9","Gust SpeedMPH":"-","PrecipitationIn":"N/A","Events":"","Conditions":"Clear","FullMetar":"METAR UWKD 110200Z 15004MPS CAVOK M09/M11 Q1031 R11/710050 NOSIG RMK QFE763/1017","WindDirDegrees":"150","DateUTC\r":"2/11/16 2:00\r"},{"TimeMSK":"5:30 AM","TemperatureF":"12.2","Dew PointF":"8.6","Humidity":"85","Sea Level PressureIn":"30.45","VisibilityMPH":"-9999","Wind Direction":"SE","Wind SpeedMPH":"6.7","Gust SpeedMPH":"-","PrecipitationIn":"N/A","Events":"","Conditions":"Clear","FullMetar":"METAR UWKD 110230Z 13003MPS CAVOK M11/M13 Q1031 R11/710050 NOSIG RMK QFE763/1018","WindDirDegrees":"130","DateUTC\r":"2/11/16 2:30\r"},{"TimeMSK":"6:00 AM","TemperatureF":"19","Dew PointF":"13","Humidity":"70","Sea Level PressureIn":"30.51","VisibilityMPH":"6","Wind Direction":"ESE","Wind SpeedMPH":"2.2","Gust SpeedMPH":"","PrecipitationIn":"","Events":"","Conditions":"","FullMetar":"AAXX 11031 27595 12997 01101 11074 21103 30175 40331 52008 60002 333 21075 47044 55000","WindDirDegrees":"110","DateUTC\r":"2/11/16 3:00\r"},{"TimeMSK":"6:00 AM","TemperatureF":"10.4","Dew PointF":"8.6","Humidity":"92","Sea Level PressureIn":"30.45","VisibilityMPH":"-9999","Wind Direction":"SE","Wind SpeedMPH":"8.9","Gust SpeedMPH":"-","PrecipitationIn":"N/A","Events":"","Conditions":"Clear","FullMetar":"METAR UWKD 110300Z 13004MPS CAVOK M12/M13 Q1031 R11/710050 NOSIG RMK QFE763/1018","WindDirDegrees":"130","DateUTC\r":"2/11/16 3:00\r"},{"TimeMSK":"6:30 AM","TemperatureF":"15.8","Dew PointF":"14","Humidity":"93","Sea Level PressureIn":"30.45","VisibilityMPH":"-9999","Wind Direction":"SE","Wind SpeedMPH":"11.2","Gust SpeedMPH":"-","PrecipitationIn":"N/A","Events":"","Conditions":"Clear","FullMetar":"METAR UWKD 110330Z 14005MPS CAVOK M09/M10 Q1031 R11/710050 NOSIG RMK QFE763/1018","WindDirDegrees":"140","DateUTC\r":"2/11/16 3:30\r"},{"TimeMSK":"7:00 AM","TemperatureF":"15.8","Dew PointF":"14","Humidity":"93","Sea Level PressureIn":"30.48","VisibilityMPH":"-9999","Wind Direction":"SE","Wind SpeedMPH":"13.4","Gust SpeedMPH":"-","PrecipitationIn":"N/A","Events":"","Conditions":"Clear","FullMetar":"METAR UWKD 110400Z 14006MPS CAVOK M09/M10 Q1032 R11/710050 NOSIG RMK QFE763/1018","WindDirDegrees":"140","DateUTC\r":"2/11/16 4:00\r"},{"TimeMSK":"7:30 AM","TemperatureF":"15.8","Dew PointF":"14","Humidity":"93","Sea Level PressureIn":"30.48","VisibilityMPH":"-9999","Wind Direction":"SE","Wind SpeedMPH":"13.4","Gust SpeedMPH":"-","PrecipitationIn":"N/A","Events":"","Conditions":"Clear","FullMetar":"METAR UWKD 110430Z 14006MPS CAVOK M09/M10 Q1032 R11/710050 NOSIG RMK QFE763/1018","WindDirDegrees":"140","DateUTC\r":"2/11/16 4:30\r"},{"TimeMSK":"8:00 AM","TemperatureF":"17.6","Dew PointF":"15.8","Humidity":"93","Sea Level PressureIn":"30.48","VisibilityMPH":"6.2","Wind Direction":"SE","Wind SpeedMPH":"13.4","Gust SpeedMPH":"-","PrecipitationIn":"N/A","Events":"","Conditions":"Unknown","FullMetar":"METAR UWKD 110500Z 14006MPS 9999 NSC M08/M09 Q1032 R11/710050 NOSIG RMK QFE763/1018","WindDirDegrees":"140","DateUTC\r":"2/11/16 5:00\r"},{"TimeMSK":"8:30 AM","TemperatureF":"17.6","Dew PointF":"14","Humidity":"86","Sea Level PressureIn":"30.48","VisibilityMPH":"-9999","Wind Direction":"SE","Wind SpeedMPH":"13.4","Gust SpeedMPH":"-","PrecipitationIn":"N/A","Events":"","Conditions":"Clear","FullMetar":"METAR UWKD 110530Z 14006MPS CAVOK M08/M10 Q1032 R11/710050 NOSIG RMK QFE764/1018","WindDirDegrees":"140","DateUTC\r":"2/11/16 5:30\r"},{"TimeMSK":"9:00 AM","TemperatureF":"20","Dew PointF":"16","Humidity":"78","Sea Level PressureIn":"30.53","VisibilityMPH":"6","Wind Direction":"SE","Wind SpeedMPH":"4.5","Gust SpeedMPH":"","PrecipitationIn":"","Events":"","Conditions":"","FullMetar":"AAXX 11061 27595 42997 01302 11065 21088 30182 40338 52008 333 21079","WindDirDegrees":"130","DateUTC\r":"2/11/16 6:00\r"},{"TimeMSK":"9:00 AM","TemperatureF":"17.6","Dew PointF":"15.8","Humidity":"93","Sea Level PressureIn":"30.48","VisibilityMPH":"-9999","Wind Direction":"SSE","Wind SpeedMPH":"13.4","Gust SpeedMPH":"-","PrecipitationIn":"N/A","Events":"","Conditions":"Clear","FullMetar":"METAR UWKD 110600Z 15006MPS CAVOK M08/M09 Q1032 R11/710050 NOSIG RMK QFE764/1018","WindDirDegrees":"150","DateUTC\r":"2/11/16 6:00\r"},{"TimeMSK":"9:30 AM","TemperatureF":"19.4","Dew PointF":"15.8","Humidity":"86","Sea Level PressureIn":"30.48","VisibilityMPH":"-9999","Wind Direction":"SSE","Wind SpeedMPH":"11.2","Gust SpeedMPH":"-","PrecipitationIn":"N/A","Events":"","Conditions":"Clear","FullMetar":"METAR UWKD 110630Z 15005MPS CAVOK M07/M09 Q1032 R11/710050 NOSIG RMK QFE764/1019","WindDirDegrees":"150","DateUTC\r":"2/11/16 6:30\r"},{"TimeMSK":"10:00 AM","TemperatureF":"19.4","Dew PointF":"15.8","Humidity":"86","Sea Level PressureIn":"30.48","VisibilityMPH":"-9999","Wind Direction":"SSE","Wind SpeedMPH":"11.2","Gust SpeedMPH":"-","PrecipitationIn":"N/A","Events":"","Conditions":"Clear","FullMetar":"METAR UWKD 110700Z 15005MPS CAVOK M07/M09 Q1032 R11/710050 NOSIG RMK QFE764/1019","WindDirDegrees":"150","DateUTC\r":"2/11/16 7:00\r"},{"TimeMSK":"10:30 AM","TemperatureF":"19.4","Dew PointF":"15.8","Humidity":"86","Sea Level PressureIn":"30.51","VisibilityMPH":"-9999","Wind Direction":"SSE","Wind SpeedMPH":"11.2","Gust SpeedMPH":"-","PrecipitationIn":"N/A","Events":"","Conditions":"Clear","FullMetar":"METAR UWKD 110730Z 15005MPS CAVOK M07/M09 Q1033 R11/710050 NOSIG RMK QFE764/1019","WindDirDegrees":"150","DateUTC\r":"2/11/16 7:30\r"},{"TimeMSK":"11:00 AM","TemperatureF":"21.2","Dew PointF":"17.6","Humidity":"86","Sea Level PressureIn":"30.51","VisibilityMPH":"-9999","Wind Direction":"SSE","Wind SpeedMPH":"11.2","Gust SpeedMPH":"-","PrecipitationIn":"N/A","Events":"","Conditions":"Clear","FullMetar":"METAR UWKD 110800Z 15005MPS CAVOK M06/M08 Q1033 R11/710050 NOSIG RMK QFE764/1019","WindDirDegrees":"150","DateUTC\r":"2/11/16 8:00\r"},{"TimeMSK":"11:30 AM","TemperatureF":"21.2","Dew PointF":"17.6","Humidity":"86","Sea Level PressureIn":"30.51","VisibilityMPH":"-9999","Wind Direction":"SSE","Wind SpeedMPH":"13.4","Gust SpeedMPH":"-","PrecipitationIn":"N/A","Events":"","Conditions":"Clear","FullMetar":"METAR UWKD 110830Z 16006MPS CAVOK M06/M08 Q1033 R11/710050 NOSIG RMK QFE764/1019","WindDirDegrees":"160","DateUTC\r":"2/11/16 8:30\r"},{"TimeMSK":"12:00 PM","TemperatureF":"28","Dew PointF":"18","Humidity":"54","Sea Level PressureIn":"30.55","VisibilityMPH":"6","Wind Direction":"SSE","Wind SpeedMPH":"2.2","Gust SpeedMPH":"","PrecipitationIn":"","Events":"","Conditions":"","FullMetar":"AAXX 11091 27595 42997 01501 11025 21079 30190 40344 52008","WindDirDegrees":"150","DateUTC\r":"2/11/16 9:00\r"},{"TimeMSK":"12:00 PM","TemperatureF":"23","Dew PointF":"17.6","Humidity":"80","Sea Level PressureIn":"30.51","VisibilityMPH":"-9999","Wind Direction":"SSE","Wind SpeedMPH":"8.9","Gust SpeedMPH":"-","PrecipitationIn":"N/A","Events":"","Conditions":"Clear","FullMetar":"METAR UWKD 110900Z 15004MPS CAVOK M05/M08 Q1033 R11/710050 NOSIG RMK QFE764/1019","WindDirDegrees":"150","DateUTC\r":"2/11/16 9:00\r"},{"TimeMSK":"12:30 PM","TemperatureF":"23","Dew PointF":"19.4","Humidity":"86","Sea Level PressureIn":"30.51","VisibilityMPH":"-9999","Wind Direction":"SSE","Wind SpeedMPH":"11.2","Gust SpeedMPH":"-","PrecipitationIn":"N/A","Events":"","Conditions":"Clear","FullMetar":"METAR UWKD 110930Z 15005MPS CAVOK M05/M07 Q1033 R11/710050 NOSIG RMK QFE764/1019","WindDirDegrees":"150","DateUTC\r":"2/11/16 9:30\r"},{"TimeMSK":"1:00 PM","TemperatureF":"24.8","Dew PointF":"19.4","Humidity":"80","Sea Level PressureIn":"30.51","VisibilityMPH":"-9999","Wind Direction":"SE","Wind SpeedMPH":"11.2","Gust SpeedMPH":"-","PrecipitationIn":"N/A","Events":"","Conditions":"Clear","FullMetar":"METAR UWKD 111000Z 14005MPS CAVOK M04/M07 Q1033 R11/710050 NOSIG RMK QFE764/1019","WindDirDegrees":"140","DateUTC\r":"2/11/16 10:00\r"},{"TimeMSK":"1:30 PM","TemperatureF":"24.8","Dew PointF":"19.4","Humidity":"80","Sea Level PressureIn":"30.51","VisibilityMPH":"-9999","Wind Direction":"SE","Wind SpeedMPH":"8.9","Gust SpeedMPH":"-","PrecipitationIn":"N/A","Events":"","Conditions":"Clear","FullMetar":"METAR UWKD 111030Z 14004MPS CAVOK M04/M07 Q1033 R11/710050 NOSIG RMK QFE764/1019","WindDirDegrees":"140","DateUTC\r":"2/11/16 10:30\r"},{"TimeMSK":"2:00 PM","TemperatureF":"24.8","Dew PointF":"19.4","Humidity":"80","Sea Level PressureIn":"30.51","VisibilityMPH":"-9999","Wind Direction":"SSE","Wind SpeedMPH":"13.4","Gust SpeedMPH":"-","PrecipitationIn":"N/A","Events":"","Conditions":"Clear","FullMetar":"METAR UWKD 111100Z 16006MPS CAVOK M04/M07 Q1033 R11/CLRD60 NOSIG RMK QFE764/1019","WindDirDegrees":"160","DateUTC\r":"2/11/16 11:00\r"},{"TimeMSK":"2:30 PM","TemperatureF":"24.8","Dew PointF":"19.4","Humidity":"80","Sea Level PressureIn":"30.51","VisibilityMPH":"-9999","Wind Direction":"SSE","Wind SpeedMPH":"11.2","Gust SpeedMPH":"-","PrecipitationIn":"N/A","Events":"","Conditions":"Clear","FullMetar":"METAR UWKD 111130Z 15005MPS CAVOK M04/M07 Q1033 R11/CLRD60 NOSIG RMK QFE764/1019","WindDirDegrees":"150","DateUTC\r":"2/11/16 11:30\r"},{"TimeMSK":"3:00 PM","TemperatureF":"28","Dew PointF":"18","Humidity":"54","Sea Level PressureIn":"30.56","VisibilityMPH":"6","Wind Direction":"SSE","Wind SpeedMPH":"4.5","Gust SpeedMPH":"","PrecipitationIn":"","Events":"","Conditions":"","FullMetar":"AAXX 11121 27595 42997 01502 11020 21079 30193 40347 52003","WindDirDegrees":"150","DateUTC\r":"2/11/16 12:00\r"},{"TimeMSK":"3:00 PM","TemperatureF":"24.8","Dew PointF":"19.4","Humidity":"80","Sea Level PressureIn":"30.51","VisibilityMPH":"-9999","Wind Direction":"SSE","Wind SpeedMPH":"13.4","Gust SpeedMPH":"-","PrecipitationIn":"N/A","Events":"","Conditions":"Clear","FullMetar":"METAR UWKD 111200Z 16006MPS CAVOK M04/M07 Q1033 R11/CLRD60 NOSIG RMK QFE764/1019","WindDirDegrees":"160","DateUTC\r":"2/11/16 12:00\r"},{"TimeMSK":"3:30 PM","TemperatureF":"24.8","Dew PointF":"19.4","Humidity":"80","Sea Level PressureIn":"30.51","VisibilityMPH":"-9999","Wind Direction":"SSE","Wind SpeedMPH":"13.4","Gust SpeedMPH":"-","PrecipitationIn":"N/A","Events":"","Conditions":"Clear","FullMetar":"METAR UWKD 111230Z 16006MPS CAVOK M04/M07 Q1033 R11/CLRD60 NOSIG RMK QFE765/1020","WindDirDegrees":"160","DateUTC\r":"2/11/16 12:30\r"},{"TimeMSK":"4:00 PM","TemperatureF":"24.8","Dew PointF":"17.6","Humidity":"74","Sea Level PressureIn":"30.54","VisibilityMPH":"-9999","Wind Direction":"SSE","Wind SpeedMPH":"8.9","Gust SpeedMPH":"-","PrecipitationIn":"N/A","Events":"","Conditions":"Clear","FullMetar":"METAR UWKD 111300Z 15004MPS CAVOK M04/M08 Q1034 R11/CLRD60 NOSIG RMK QFE765/1020","WindDirDegrees":"150","DateUTC\r":"2/11/16 13:00\r"},{"TimeMSK":"4:30 PM","TemperatureF":"24.8","Dew PointF":"17.6","Humidity":"74","Sea Level PressureIn":"30.54","VisibilityMPH":"-9999","Wind Direction":"SE","Wind SpeedMPH":"11.2","Gust SpeedMPH":"-","PrecipitationIn":"N/A","Events":"","Conditions":"Clear","FullMetar":"METAR UWKD 111330Z 14005MPS CAVOK M04/M08 Q1034 R11/CLRD60 NOSIG RMK QFE765/1020","WindDirDegrees":"140","DateUTC\r":"2/11/16 13:30\r"},{"TimeMSK":"5:00 PM","TemperatureF":"21.2","Dew PointF":"15.8","Humidity":"80","Sea Level PressureIn":"30.54","VisibilityMPH":"-9999","Wind Direction":"SE","Wind SpeedMPH":"8.9","Gust SpeedMPH":"-","PrecipitationIn":"N/A","Events":"","Conditions":"Clear","FullMetar":"METAR UWKD 111400Z 14004MPS CAVOK M06/M09 Q1034 R11/CLRD60 NOSIG RMK QFE765/1020","WindDirDegrees":"140","DateUTC\r":"2/11/16 14:00\r"},{"TimeMSK":"5:30 PM","TemperatureF":"23","Dew PointF":"17.6","Humidity":"80","Sea Level PressureIn":"30.54","VisibilityMPH":"-9999","Wind Direction":"SE","Wind SpeedMPH":"11.2","Gust SpeedMPH":"-","PrecipitationIn":"N/A","Events":"","Conditions":"Clear","FullMetar":"METAR UWKD 111430Z 14005MPS CAVOK M05/M08 Q1034 R11/CLRD60 NOSIG RMK QFE765/1020","WindDirDegrees":"140","DateUTC\r":"2/11/16 14:30\r"},{"TimeMSK":"6:00 PM","TemperatureF":"26","Dew PointF":"17","Humidity":"56","Sea Level PressureIn":"30.59","VisibilityMPH":"6","Wind Direction":"SE","Wind SpeedMPH":"4.5","Gust SpeedMPH":"","PrecipitationIn":"","Events":"","Conditions":"","FullMetar":"AAXX 11151 27595 12997 01402 11034 21085 30202 40357 52009 60002 333 11016","WindDirDegrees":"140","DateUTC\r":"2/11/16 15:00\r"},{"TimeMSK":"6:00 PM","TemperatureF":"21.2","Dew PointF":"15.8","Humidity":"80","Sea Level PressureIn":"30.54","VisibilityMPH":"-9999","Wind Direction":"SE","Wind SpeedMPH":"11.2","Gust SpeedMPH":"-","PrecipitationIn":"N/A","Events":"","Conditions":"Clear","FullMetar":"METAR UWKD 111500Z 14005MPS CAVOK M06/M09 Q1034 R11/CLRD60 NOSIG RMK QFE765/1020","WindDirDegrees":"140","DateUTC\r":"2/11/16 15:00\r"},{"TimeMSK":"6:30 PM","TemperatureF":"21.2","Dew PointF":"15.8","Humidity":"80","Sea Level PressureIn":"30.54","VisibilityMPH":"-9999","Wind Direction":"SSE","Wind SpeedMPH":"13.4","Gust SpeedMPH":"-","PrecipitationIn":"N/A","Events":"","Conditions":"Clear","FullMetar":"METAR UWKD 111530Z 15006MPS CAVOK M06/M09 Q1034 R11/CLRD60 NOSIG RMK QFE765/1020","WindDirDegrees":"150","DateUTC\r":"2/11/16 15:30\r"},{"TimeMSK":"7:00 PM","TemperatureF":"19.4","Dew PointF":"15.8","Humidity":"86","Sea Level PressureIn":"30.54","VisibilityMPH":"-9999","Wind Direction":"SSE","Wind SpeedMPH":"13.4","Gust SpeedMPH":"-","PrecipitationIn":"N/A","Events":"","Conditions":"Clear","FullMetar":"METAR UWKD 111600Z 16006MPS CAVOK M07/M09 Q1034 R11/CLRD60 NOSIG RMK QFE765/1020","WindDirDegrees":"160","DateUTC\r":"2/11/16 16:00\r"},{"TimeMSK":"7:30 PM","TemperatureF":"19.4","Dew PointF":"15.8","Humidity":"86","Sea Level PressureIn":"30.54","VisibilityMPH":"-9999","Wind Direction":"SSE","Wind SpeedMPH":"15.7","Gust SpeedMPH":"-","PrecipitationIn":"N/A","Events":"","Conditions":"Clear","FullMetar":"METAR UWKD 111630Z 16007MPS CAVOK M07/M09 Q1034 R11/CLRD60 NOSIG RMK QFE765/1020","WindDirDegrees":"160","DateUTC\r":"2/11/16 16:30\r"},{"TimeMSK":"8:00 PM","TemperatureF":"19.4","Dew PointF":"15.8","Humidity":"86","Sea Level PressureIn":"30.54","VisibilityMPH":"-9999","Wind Direction":"SSE","Wind SpeedMPH":"13.4","Gust SpeedMPH":"-","PrecipitationIn":"N/A","Events":"","Conditions":"Clear","FullMetar":"METAR UWKD 111700Z 15006MPS CAVOK M07/M09 Q1034 R11/CLRD60 NOSIG RMK QFE765/1020","WindDirDegrees":"150","DateUTC\r":"2/11/16 17:00\r"},{"TimeMSK":"8:30 PM","TemperatureF":"19.4","Dew PointF":"15.8","Humidity":"86","Sea Level PressureIn":"30.54","VisibilityMPH":"-9999","Wind Direction":"SSE","Wind SpeedMPH":"11.2","Gust SpeedMPH":"-","PrecipitationIn":"N/A","Events":"","Conditions":"Clear","FullMetar":"METAR UWKD 111730Z 15005MPS CAVOK M07/M09 Q1034 R11/CLRD60 NOSIG RMK QFE765/1020","WindDirDegrees":"150","DateUTC\r":"2/11/16 17:30\r"},{"TimeMSK":"9:00 PM","TemperatureF":"22","Dew PointF":"16","Humidity":"69","Sea Level PressureIn":"30.58","VisibilityMPH":"6","Wind Direction":"SE","Wind SpeedMPH":"4.5","Gust SpeedMPH":"","PrecipitationIn":"","Events":"","Conditions":"","FullMetar":"AAXX 11181 27595 42997 01302 11053 21089 30198 40354 57004","WindDirDegrees":"130","DateUTC\r":"2/11/16 18:00\r"},{"TimeMSK":"9:00 PM","TemperatureF":"19.4","Dew PointF":"15.8","Humidity":"86","Sea Level PressureIn":"30.54","VisibilityMPH":"-9999","Wind Direction":"SSE","Wind SpeedMPH":"15.7","Gust SpeedMPH":"-","PrecipitationIn":"N/A","Events":"","Conditions":"Clear","FullMetar":"METAR UWKD 111800Z 15007MPS CAVOK M07/M09 Q1034 R11/CLRD60 NOSIG RMK QFE765/1020","WindDirDegrees":"150","DateUTC\r":"2/11/16 18:00\r"},{"TimeMSK":"9:30 PM","TemperatureF":"19.4","Dew PointF":"15.8","Humidity":"86","Sea Level PressureIn":"30.54","VisibilityMPH":"-9999","Wind Direction":"SE","Wind SpeedMPH":"11.2","Gust SpeedMPH":"-","PrecipitationIn":"N/A","Events":"","Conditions":"Clear","FullMetar":"METAR UWKD 111830Z 14005MPS CAVOK M07/M09 Q1034 R11/CLRD60 NOSIG RMK QFE765/1020","WindDirDegrees":"140","DateUTC\r":"2/11/16 18:30\r"},{"TimeMSK":"10:00 PM","TemperatureF":"15.8","Dew PointF":"14","Humidity":"93","Sea Level PressureIn":"30.54","VisibilityMPH":"-9999","Wind Direction":"SE","Wind SpeedMPH":"8.9","Gust SpeedMPH":"-","PrecipitationIn":"N/A","Events":"","Conditions":"Clear","FullMetar":"METAR UWKD 111900Z 14004MPS CAVOK M09/M10 Q1034 R11/CLRD60 NOSIG RMK QFE765/1020","WindDirDegrees":"140","DateUTC\r":"2/11/16 19:00\r"},{"TimeMSK":"10:30 PM","TemperatureF":"19.4","Dew PointF":"15.8","Humidity":"86","Sea Level PressureIn":"30.54","VisibilityMPH":"-9999","Wind Direction":"SSE","Wind SpeedMPH":"11.2","Gust SpeedMPH":"-","PrecipitationIn":"N/A","Events":"","Conditions":"Clear","FullMetar":"METAR UWKD 111930Z 15005MPS CAVOK M07/M09 Q1034 R11/CLRD60 NOSIG RMK QFE765/1020","WindDirDegrees":"150","DateUTC\r":"2/11/16 19:30\r"},{"TimeMSK":"11:00 PM","TemperatureF":"17.6","Dew PointF":"14","Humidity":"86","Sea Level PressureIn":"30.54","VisibilityMPH":"-9999","Wind Direction":"SE","Wind SpeedMPH":"11.2","Gust SpeedMPH":"-","PrecipitationIn":"N/A","Events":"","Conditions":"Clear","FullMetar":"METAR UWKD 112000Z 14005MPS CAVOK M08/M10 Q1034 R11/CLRD60 NOSIG RMK QFE765/1020","WindDirDegrees":"140","DateUTC\r":"2/11/16 20:00\r"},{"TimeMSK":"11:30 PM","TemperatureF":"17.6","Dew PointF":"14","Humidity":"86","Sea Level PressureIn":"30.54","VisibilityMPH":"-9999","Wind Direction":"SSE","Wind SpeedMPH":"11.2","Gust SpeedMPH":"-","PrecipitationIn":"N/A","Events":"","Conditions":"Clear","FullMetar":"METAR UWKD 112030Z 15005MPS CAVOK M08/M10 Q1034 R11/CLRD60 NOSIG RMK QFE765/1020","WindDirDegrees":"150","DateUTC\r":"2/11/16 20:30\r"},{"TimeMSK":"12:00 AM","TemperatureF":"18","Dew PointF":"14","Humidity":"77","Sea Level PressureIn":"30.58","VisibilityMPH":"6","Wind Direction":"SE","Wind SpeedMPH":"4.5","Gust SpeedMPH":"","PrecipitationIn":"","Events":"","Conditions":"","FullMetar":"AAXX 11211 27595 42997 01302 11079 21101 30199 40356 54001","WindDirDegrees":"130","DateUTC\r":"2/11/16 21:00\r"},{"TimeMSK":"12:00 AM","TemperatureF":"17.6","Dew PointF":"14","Humidity":"86","Sea Level PressureIn":"30.54","VisibilityMPH":"6.2","Wind Direction":"SSE","Wind SpeedMPH":"15.7","Gust SpeedMPH":"-","PrecipitationIn":"N/A","Events":"","Conditions":"Partly Cloudy","FullMetar":"METAR UWKD 112100Z 15007MPS 9999 FEW008 M08/M10 Q1034 R11/CLRD60 NOSIG RMK QFE765/1020","WindDirDegrees":"150","DateUTC\r":"2/11/16 21:00\r"},{"TimeMSK":"12:30 AM","TemperatureF":"17.6","Dew PointF":"15.8","Humidity":"93","Sea Level PressureIn":"30.54","VisibilityMPH":"6.2","Wind Direction":"SSE","Wind SpeedMPH":"17.9","Gust SpeedMPH":"-","PrecipitationIn":"N/A","Events":"","Conditions":"Scattered Clouds","FullMetar":"METAR UWKD 112130Z 16008MPS 9999 SCT006 M08/M09 Q1034 R11/CLRD60 NOSIG RMK QFE765/1020","WindDirDegrees":"160","DateUTC\r":"2/11/16 21:30\r"},{"TimeMSK":"1:00 AM","TemperatureF":"17.6","Dew PointF":"15.8","Humidity":"93","Sea Level PressureIn":"30.54","VisibilityMPH":"3.1","Wind Direction":"SSE","Wind SpeedMPH":"17.9","Gust SpeedMPH":"-","PrecipitationIn":"N/A","Events":"","Conditions":"Mostly Cloudy","FullMetar":"METAR UWKD 112200Z 16008MPS 5000 BR BKN006 M08/M09 Q1034 R11/CLRD60 TEMPO 2000 BR SCT005 RMK QFE765/1020","WindDirDegrees":"160","DateUTC\r":"2/11/16 22:00\r"},{"TimeMSK":"1:30 AM","TemperatureF":"17.6","Dew PointF":"15.8","Humidity":"93","Sea Level PressureIn":"30.54","VisibilityMPH":"3.1","Wind Direction":"SSE","Wind SpeedMPH":"17.9","Gust SpeedMPH":"-","PrecipitationIn":"N/A","Events":"","Conditions":"Mostly Cloudy","FullMetar":"METAR UWKD 112230Z 16008MPS 5000 BR BKN006 M08/M09 Q1034 R11/CLRD60 TEMPO 2000 BR RMK QFE765/1020","WindDirDegrees":"160","DateUTC\r":"2/11/16 22:30\r"},{"TimeMSK":"2:00 AM","TemperatureF":"17.6","Dew PointF":"15.8","Humidity":"93","Sea Level PressureIn":"30.54","VisibilityMPH":"3.7","Wind Direction":"SSE","Wind SpeedMPH":"17.9","Gust SpeedMPH":"-","PrecipitationIn":"N/A","Events":"","Conditions":"Mostly Cloudy","FullMetar":"METAR UWKD 112300Z 16008MPS 6000 BKN008 M08/M09 Q1034 R11/CLRD60 TEMPO 2000 BR RMK QFE765/1020","WindDirDegrees":"160","DateUTC\r":"2/11/16 23:00\r"},{"TimeMSK":"2:30 AM","TemperatureF":"17.6","Dew PointF":"15.8","Humidity":"93","Sea Level PressureIn":"30.54","VisibilityMPH":"4.3","Wind Direction":"SSE","Wind SpeedMPH":"15.7","Gust SpeedMPH":"-","PrecipitationIn":"N/A","Events":"","Conditions":"Mostly Cloudy","FullMetar":"METAR UWKD 112330Z 16007MPS 7000 BKN008 M08/M09 Q1034 R11/CLRD60 TEMPO 2000 BR RMK QFE765/1021","WindDirDegrees":"160","DateUTC\r":"2/11/16 23:30\r"},{"TimeMSK":"3:00 AM","TemperatureF":"18","Dew PointF":"15","Humidity":"84","Sea Level PressureIn":"30.6","VisibilityMPH":"6","Wind Direction":"SSE","Wind SpeedMPH":"4.5","Gust SpeedMPH":"","PrecipitationIn":"","Events":"","Conditions":"Overcast","FullMetar":"AAXX 12001 27595 42997 81502 11077 21093 30204 40361 52005 8005/","WindDirDegrees":"150","DateUTC\r":"2/12/16 0:00\r"},{"TimeMSK":"3:00 AM","TemperatureF":"17.6","Dew PointF":"17.6","Humidity":"100","Sea Level PressureIn":"30.54","VisibilityMPH":"-9999","Wind Direction":"SSE","Wind SpeedMPH":"13.4","Gust SpeedMPH":"-","PrecipitationIn":"N/A","Events":"","Conditions":"Mostly Cloudy","FullMetar":"METAR UWKD 120000Z 15006MPS 4800 BR BKN005 M08/M08 Q1034 R11/CLRD60 TEMPO 2000 BR RMK QFE765/1021","WindDirDegrees":"150","DateUTC\r":"2/12/16 0:00\r"},{"TimeMSK":"3:30 AM","TemperatureF":"19.4","Dew PointF":"17.6","Humidity":"93","Sea Level PressureIn":"30.54","VisibilityMPH":"-9999","Wind Direction":"SSE","Wind SpeedMPH":"13.4","Gust SpeedMPH":"-","PrecipitationIn":"N/A","Events":"","Conditions":"Mostly Cloudy","FullMetar":"METAR UWKD 120030Z 15006MPS 3300 BR BKN004 M07/M08 Q1034 R11/CLRD60 TEMPO 2000 BR RMK QFE765/1020","WindDirDegrees":"150","DateUTC\r":"2/12/16 0:30\r"},{"TimeMSK":"4:00 AM","TemperatureF":"19.4","Dew PointF":"17.6","Humidity":"93","Sea Level PressureIn":"30.54","VisibilityMPH":"0.7","Wind Direction":"SSE","Wind SpeedMPH":"13.4","Gust SpeedMPH":"-","PrecipitationIn":"N/A","Events":"","Conditions":"Mostly Cloudy","FullMetar":"METAR UWKD 120100Z 15006MPS 1200 R11/P2000D BR BKN003 M07/M08 Q1034 R11/CLRD60 TEMPO 0700 FZFG VV002 RMK QFE765/1020","WindDirDegrees":"150","DateUTC\r":"2/12/16 1:00\r"},{"TimeMSK":"4:30 AM","TemperatureF":"19.4","Dew PointF":"17.6","Humidity":"93","Sea Level PressureIn":"30.54","VisibilityMPH":"0.9","Wind Direction":"SSE","Wind SpeedMPH":"15.7","Gust SpeedMPH":"-","PrecipitationIn":"N/A","Events":"","Conditions":"Mostly Cloudy","FullMetar":"METAR UWKD 120130Z 15007MPS 1400 R11/P2000N BR BKN003 M07/M08 Q1034 R11/CLRD60 TEMPO 0700 FZFG VV002 RMK QFE765/1020","WindDirDegrees":"150","DateUTC\r":"2/12/16 1:30\r"},{"TimeMSK":"5:00 AM","TemperatureF":"19.4","Dew PointF":"17.6","Humidity":"93","Sea Level PressureIn":"30.54","VisibilityMPH":"0.7","Wind Direction":"SE","Wind SpeedMPH":"11.2","Gust SpeedMPH":"-","PrecipitationIn":"N/A","Events":"Fog","Conditions":"Light Freezing Fog","FullMetar":"METAR UWKD 120200Z 14005MPS 1200 0900SE R11/P2000U FZFG BKN003 M07/M08 Q1034 R11/CLRD60 TEMPO 0700 FZFG VV002 RMK QFE765/1020","WindDirDegrees":"140","DateUTC\r":"2/12/16 2:00\r"},{"TimeMSK":"5:30 AM","TemperatureF":"19.4","Dew PointF":"17.6","Humidity":"93","Sea Level PressureIn":"30.54","VisibilityMPH":"0.5","Wind Direction":"SE","Wind SpeedMPH":"11.2","Gust SpeedMPH":"-","PrecipitationIn":"N/A","Events":"Fog","Conditions":"Light Freezing Fog","FullMetar":"METAR UWKD 120230Z 14005MPS 0800 R11/2000N FZFG BKN002 M07/M08 Q1034 R11/CLRD60 TEMPO 0500 FZFG RMK QBB080 QFE765/1020","WindDirDegrees":"140","DateUTC\r":"2/12/16 2:30\r"},{"TimeMSK":"6:00 AM","TemperatureF":"20","Dew PointF":"18","Humidity":"86","Sea Level PressureIn":"30.59","VisibilityMPH":"1","Wind Direction":"SE","Wind SpeedMPH":"6.7","Gust SpeedMPH":"","PrecipitationIn":"","Events":"","Conditions":"Mist","FullMetar":"AAXX 12031 27595 11294 81403 11068 21080 30202 40359 57002 60002 71022 886// 333 21083 47043 55078 88706","WindDirDegrees":"140","DateUTC\r":"2/12/16 3:00\r"},{"TimeMSK":"6:00 AM","TemperatureF":"19.4","Dew PointF":"19.4","Humidity":"100","Sea Level PressureIn":"30.54","VisibilityMPH":"0.9","Wind Direction":"SSE","Wind SpeedMPH":"11.2","Gust SpeedMPH":"-","PrecipitationIn":"N/A","Events":"","Conditions":"Mostly Cloudy","FullMetar":"METAR UWKD 120300Z 15005MPS 1500 1300SE R11/P2000D BR BKN003 M07/M07 Q1034 R11/CLRD60 TEMPO 0500 FZFG RMK QFE765/1020","WindDirDegrees":"150","DateUTC\r":"2/12/16 3:00\r"},{"TimeMSK":"6:30 AM","TemperatureF":"19.4","Dew PointF":"19.4","Humidity":"100","Sea Level PressureIn":"30.54","VisibilityMPH":"1","Wind Direction":"SE","Wind SpeedMPH":"11.2","Gust SpeedMPH":"-","PrecipitationIn":"N/A","Events":"","Conditions":"Mostly Cloudy","FullMetar":"METAR UWKD 120330Z 14005MPS 1600 1300SE R11/P2000N BR BKN003 M07/M07 Q1034 R11/710050 TEMPO 1200 BR BKN004 RMK QFE765/1021","WindDirDegrees":"140","DateUTC\r":"2/12/16 3:30\r"},{"TimeMSK":"7:00 AM","TemperatureF":"21.2","Dew PointF":"19.4","Humidity":"93","Sea Level PressureIn":"30.54","VisibilityMPH":"1.1","Wind Direction":"SE","Wind SpeedMPH":"13.4","Gust SpeedMPH":"-","PrecipitationIn":"N/A","Events":"","Conditions":"Mostly Cloudy","FullMetar":"METAR UWKD 120400Z 14006MPS 1800 R11/1800N BR BKN003 M06/M07 Q1034 R11/710050 TEMPO 1200 BR BKN004 RMK QFE765/1020","WindDirDegrees":"140","DateUTC\r":"2/12/16 4:00\r"},{"TimeMSK":"7:30 AM","TemperatureF":"21.2","Dew PointF":"19.4","Humidity":"93","Sea Level PressureIn":"30.54","VisibilityMPH":"1.1","Wind Direction":"SE","Wind SpeedMPH":"13.4","Gust SpeedMPH":"-","PrecipitationIn":"N/A","Events":"","Conditions":"Light Freezing Drizzle","FullMetar":"METAR UWKD 120430Z 14006MPS 1700 1200SE R11/1700U FZDZ BR OVC003 M06/M07 Q1034 R11/710050 TEMPO 1200 BR BKN004 RMK QFE765/1021","WindDirDegrees":"140","DateUTC\r":"2/12/16 4:30\r"},{"TimeMSK":"8:00 AM","TemperatureF":"21.2","Dew PointF":"19.4","Humidity":"93","Sea Level PressureIn":"30.54","VisibilityMPH":"1.1","Wind Direction":"SE","Wind SpeedMPH":"11.2","Gust SpeedMPH":"-","PrecipitationIn":"N/A","Events":"","Conditions":"Light Freezing Drizzle","FullMetar":"METAR UWKD 120500Z 14005MPS 1700 1300SE R11/1900D FZDZ BR OVC003 M06/M07 Q1034 R11/710050 TEMPO 0700 FZFG RMK QFE765/1021","WindDirDegrees":"140","DateUTC\r":"2/12/16 5:00\r"},{"TimeMSK":"8:30 AM","TemperatureF":"21.2","Dew PointF":"21.2","Humidity":"100","Sea Level PressureIn":"30.54","VisibilityMPH":"1.1","Wind Direction":"SSE","Wind SpeedMPH":"8.9","Gust SpeedMPH":"-","PrecipitationIn":"N/A","Events":"","Conditions":"Light Freezing Drizzle","FullMetar":"METAR UWKD 120530Z 15004MPS 1700 R11/1600N FZDZ BR OVC004 M06/M06 Q1034 R11/390040 TEMPO 0700 FZFG RMK QFE765/1021","WindDirDegrees":"150","DateUTC\r":"2/12/16 5:30\r"},{"TimeMSK":"9:00 AM","TemperatureF":"21","Dew PointF":"19","Humidity":"89","Sea Level PressureIn":"30.6","VisibilityMPH":"1","Wind Direction":"SSE","Wind SpeedMPH":"4.5","Gust SpeedMPH":"","PrecipitationIn":"","Events":"Snow","Conditions":"Snow Grains","FullMetar":"AAXX 12061 27595 41294 81502 11061 21072 30205 40361 52003 77774 886// 333 88704 93501","WindDirDegrees":"150","DateUTC\r":"2/12/16 6:00\r"},{"TimeMSK":"9:00 AM","TemperatureF":"21.2","Dew PointF":"21.2","Humidity":"100","Sea Level PressureIn":"30.54","VisibilityMPH":"1.1","Wind Direction":"SSE","Wind SpeedMPH":"13.4","Gust SpeedMPH":"-","PrecipitationIn":"N/A","Events":"","Conditions":"Overcast","FullMetar":"METAR UWKD 120600Z 16006MPS 1800 R11/1800U BR OVC004 M06/M06 Q1034 R11/390040 TEMPO 1000 BR RMK QFE765/1021","WindDirDegrees":"160","DateUTC\r":"2/12/16 6:00\r"},{"TimeMSK":"9:30 AM","TemperatureF":"21.2","Dew PointF":"21.2","Humidity":"100","Sea Level PressureIn":"30.54","VisibilityMPH":"1.4","Wind Direction":"SSE","Wind SpeedMPH":"13.4","Gust SpeedMPH":"-","PrecipitationIn":"N/A","Events":"","Conditions":"Overcast","FullMetar":"METAR UWKD 120630Z 15006MPS 2200 1400SE BR OVC004 M06/M06 Q1034 R11/390040 TEMPO 1000 BR RMK QFE765/1021","WindDirDegrees":"150","DateUTC\r":"2/12/16 6:30\r"},{"TimeMSK":"10:00 AM","TemperatureF":"23","Dew PointF":"21.2","Humidity":"93","Sea Level PressureIn":"30.54","VisibilityMPH":"1.5","Wind Direction":"SSE","Wind SpeedMPH":"13.4","Gust SpeedMPH":"-","PrecipitationIn":"N/A","Events":"","Conditions":"Overcast","FullMetar":"METAR UWKD 120700Z 16006MPS 2400 BR OVC004 M05/M06 Q1034 R11/390040 TEMPO 2000 BR BKN005 RMK QFE765/1021","WindDirDegrees":"160","DateUTC\r":"2/12/16 7:00\r"},{"TimeMSK":"10:30 AM","TemperatureF":"23","Dew PointF":"21.2","Humidity":"93","Sea Level PressureIn":"30.54","VisibilityMPH":"2.2","Wind Direction":"SSE","Wind SpeedMPH":"13.4","Gust SpeedMPH":"-","PrecipitationIn":"N/A","Events":"","Conditions":"Overcast","FullMetar":"METAR UWKD 120730Z 16006MPS 3500 BR OVC005 M05/M06 Q1034 R11/390040 TEMPO 2000 BR BKN005 RMK QFE765/1021","WindDirDegrees":"160","DateUTC\r":"2/12/16 7:30\r"},{"TimeMSK":"11:00 AM","TemperatureF":"23","Dew PointF":"21.2","Humidity":"93","Sea Level PressureIn":"30.54","VisibilityMPH":"3.1","Wind Direction":"SSE","Wind SpeedMPH":"13.4","Gust SpeedMPH":"-","PrecipitationIn":"N/A","Events":"","Conditions":"Overcast","FullMetar":"METAR UWKD 120800Z 16006MPS 5000 BR OVC006 M05/M06 Q1034 R11/390040 TEMPO 2000 BR BKN005 RMK QFE765/1021","WindDirDegrees":"160","DateUTC\r":"2/12/16 8:00\r"},{"TimeMSK":"11:30 AM","TemperatureF":"23","Dew PointF":"21.2","Humidity":"93","Sea Level PressureIn":"30.57","VisibilityMPH":"3.7","Wind Direction":"SSE","Wind SpeedMPH":"11.2","Gust SpeedMPH":"-","PrecipitationIn":"N/A","Events":"","Conditions":"Overcast","FullMetar":"METAR UWKD 120830Z 15005MPS 6000 OVC007 M05/M06 Q1035 R11/390040 NOSIG RMK QFE765/1021","WindDirDegrees":"150","DateUTC\r":"2/12/16 8:30\r"},{"TimeMSK":"12:00 PM","TemperatureF":"22","Dew PointF":"21","Humidity":"92","Sea Level PressureIn":"30.61","VisibilityMPH":"2","Wind Direction":"SSE","Wind SpeedMPH":"4.5","Gust SpeedMPH":"","PrecipitationIn":"","Events":"Snow","Conditions":"Snow Grains","FullMetar":"AAXX 12091 27595 41396 81502 11053 21063 30208 40364 52003 77772 886// 333 88708 93501","WindDirDegrees":"150","DateUTC\r":"2/12/16 9:00\r"},{"TimeMSK":"12:00 PM","TemperatureF":"23","Dew PointF":"21.2","Humidity":"93","Sea Level PressureIn":"30.57","VisibilityMPH":"4.3","Wind Direction":"SSE","Wind SpeedMPH":"15.7","Gust SpeedMPH":"-","PrecipitationIn":"N/A","Events":"","Conditions":"Overcast","FullMetar":"METAR UWKD 120900Z 16007MPS 7000 OVC007 M05/M06 Q1035 R11/390040 NOSIG RMK QFE766/1021","WindDirDegrees":"160","DateUTC\r":"2/12/16 9:00\r"},{"TimeMSK":"12:30 PM","TemperatureF":"23","Dew PointF":"21.2","Humidity":"93","Sea Level PressureIn":"30.54","VisibilityMPH":"5","Wind Direction":"SSE","Wind SpeedMPH":"13.4","Gust SpeedMPH":"-","PrecipitationIn":"N/A","Events":"","Conditions":"Overcast","FullMetar":"METAR UWKD 120930Z 16006MPS 8000 OVC007 M05/M06 Q1034 R11/390040 NOSIG RMK QFE765/1021","WindDirDegrees":"160","DateUTC\r":"2/12/16 9:30\r"},{"TimeMSK":"1:00 PM","TemperatureF":"23","Dew PointF":"23","Humidity":"100","Sea Level PressureIn":"30.54","VisibilityMPH":"5.6","Wind Direction":"SSE","Wind SpeedMPH":"11.2","Gust SpeedMPH":"-","PrecipitationIn":"N/A","Events":"","Conditions":"Overcast","FullMetar":"METAR UWKD 121000Z 15005MPS 9000 OVC008 M05/M05 Q1034 R11/390040 NOSIG RMK QFE765/1021","WindDirDegrees":"150","DateUTC\r":"2/12/16 10:00\r"},{"TimeMSK":"1:30 PM","TemperatureF":"23","Dew PointF":"21.2","Humidity":"93","Sea Level PressureIn":"30.54","VisibilityMPH":"6.2","Wind Direction":"SSE","Wind SpeedMPH":"13.4","Gust SpeedMPH":"-","PrecipitationIn":"N/A","Events":"","Conditions":"Overcast","FullMetar":"METAR UWKD 121030Z 15006MPS 9999 OVC008 M05/M06 Q1034 R11/810055 NOSIG RMK QFE765/1021","WindDirDegrees":"150","DateUTC\r":"2/12/16 10:30\r"},{"TimeMSK":"2:00 PM","TemperatureF":"23","Dew PointF":"21.2","Humidity":"93","Sea Level PressureIn":"30.54","VisibilityMPH":"6.2","Wind Direction":"SE","Wind SpeedMPH":"11.2","Gust SpeedMPH":"-","PrecipitationIn":"N/A","Events":"","Conditions":"Overcast","FullMetar":"METAR UWKD 121100Z 14005MPS 9999 OVC008 M05/M06 Q1034 R11/810055 NOSIG RMK QFE765/1021","WindDirDegrees":"140","DateUTC\r":"2/12/16 11:00\r"},{"TimeMSK":"2:30 PM","TemperatureF":"23","Dew PointF":"21.2","Humidity":"93","Sea Level PressureIn":"30.54","VisibilityMPH":"6.2","Wind Direction":"SE","Wind SpeedMPH":"13.4","Gust SpeedMPH":"-","PrecipitationIn":"N/A","Events":"","Conditions":"Mostly Cloudy","FullMetar":"METAR UWKD 121130Z 13006MPS 9999 BKN008 M05/M06 Q1034 R11/810055 NOSIG RMK QFE765/1020","WindDirDegrees":"130","DateUTC\r":"2/12/16 11:30\r"},{"TimeMSK":"3:00 PM","TemperatureF":"23","Dew PointF":"20","Humidity":"86","Sea Level PressureIn":"30.58","VisibilityMPH":"6","Wind Direction":"SE","Wind SpeedMPH":"4.5","Gust SpeedMPH":"","PrecipitationIn":"","Events":"","Conditions":"Partly Cloudy","FullMetar":"AAXX 12121 27595 41497 71302 11049 21064 30200 40356 57008 70272 87600 333 88711 93501","WindDirDegrees":"130","DateUTC\r":"2/12/16 12:00\r"},{"TimeMSK":"3:00 PM","TemperatureF":"23","Dew PointF":"21.2","Humidity":"93","Sea Level PressureIn":"30.54","VisibilityMPH":"6.2","Wind Direction":"SE","Wind SpeedMPH":"11.2","Gust SpeedMPH":"-","PrecipitationIn":"N/A","Events":"","Conditions":"Mostly Cloudy","FullMetar":"METAR UWKD 121200Z 13005MPS 9999 BKN008 M05/M06 Q1034 R11/810055 NOSIG RMK QFE765/1020","WindDirDegrees":"130","DateUTC\r":"2/12/16 12:00\r"},{"TimeMSK":"3:30 PM","TemperatureF":"21.2","Dew PointF":"19.4","Humidity":"93","Sea Level PressureIn":"30.54","VisibilityMPH":"6.2","Wind Direction":"ESE","Wind SpeedMPH":"11.2","Gust SpeedMPH":"-","PrecipitationIn":"N/A","Events":"","Conditions":"Mostly Cloudy","FullMetar":"METAR UWKD 121230Z 12005MPS 9999 BKN008 M06/M07 Q1034 R11/810055 NOSIG RMK QFE765/1020","WindDirDegrees":"120","DateUTC\r":"2/12/16 12:30\r"},{"TimeMSK":"4:00 PM","TemperatureF":"21.2","Dew PointF":"19.4","Humidity":"93","Sea Level PressureIn":"30.54","VisibilityMPH":"5.6","Wind Direction":"ESE","Wind SpeedMPH":"11.2","Gust SpeedMPH":"-","PrecipitationIn":"N/A","Events":"","Conditions":"Mostly Cloudy","FullMetar":"METAR UWKD 121300Z 12005MPS 9000 BKN010 M06/M07 Q1034 R11/810055 NOSIG RMK QFE765/1020","WindDirDegrees":"120","DateUTC\r":"2/12/16 13:00\r"},{"TimeMSK":"4:30 PM","TemperatureF":"17.6","Dew PointF":"15.8","Humidity":"93","Sea Level PressureIn":"30.54","VisibilityMPH":"6.2","Wind Direction":"ESE","Wind SpeedMPH":"11.2","Gust SpeedMPH":"-","PrecipitationIn":"N/A","Events":"","Conditions":"Scattered Clouds","FullMetar":"METAR UWKD 121330Z 12005MPS 9999 SCT008 M08/M09 Q1034 R11/810055 NOSIG RMK QFE765/1020","WindDirDegrees":"120","DateUTC\r":"2/12/16 13:30\r"},{"TimeMSK":"5:00 PM","TemperatureF":"17.6","Dew PointF":"15.8","Humidity":"93","Sea Level PressureIn":"30.54","VisibilityMPH":"5.6","Wind Direction":"ESE","Wind SpeedMPH":"13.4","Gust SpeedMPH":"-","PrecipitationIn":"N/A","Events":"","Conditions":"Scattered Clouds","FullMetar":"METAR UWKD 121400Z 12006MPS 9000 SCT010 M08/M09 Q1034 R11/810055 NOSIG RMK QFE765/1020","WindDirDegrees":"120","DateUTC\r":"2/12/16 14:00\r"},{"TimeMSK":"5:30 PM","TemperatureF":"17.6","Dew PointF":"15.8","Humidity":"93","Sea Level PressureIn":"30.54","VisibilityMPH":"5","Wind Direction":"ESE","Wind SpeedMPH":"11.2","Gust SpeedMPH":"-","PrecipitationIn":"N/A","Events":"","Conditions":"Scattered Clouds","FullMetar":"METAR UWKD 121430Z 11005MPS 8000 SCT020 M08/M09 Q1034 R11/810055 NOSIG RMK QFE765/1020","WindDirDegrees":"110","DateUTC\r":"2/12/16 14:30\r"},{"TimeMSK":"6:00 PM","TemperatureF":"18","Dew PointF":"15","Humidity":"84","Sea Level PressureIn":"30.58","VisibilityMPH":"6","Wind Direction":"ESE","Wind SpeedMPH":"2.2","Gust SpeedMPH":"","PrecipitationIn":"","Events":"","Conditions":"","FullMetar":"AAXX 12151 27595 12997 01101 11079 21093 30196 40353 58005 69902 333 11049","WindDirDegrees":"110","DateUTC\r":"2/12/16 15:00\r"},{"TimeMSK":"6:00 PM","TemperatureF":"17.6","Dew PointF":"15.8","Humidity":"93","Sea Level PressureIn":"30.51","VisibilityMPH":"4.3","Wind Direction":"ESE","Wind SpeedMPH":"13.4","Gust SpeedMPH":"-","PrecipitationIn":"N/A","Events":"","Conditions":"Scattered Clouds","FullMetar":"METAR UWKD 121500Z 11006MPS 7000 SCT033 M08/M09 Q1033 R11/810055 TEMPO 2000 BR BKN005 RMK QFE765/1020","WindDirDegrees":"110","DateUTC\r":"2/12/16 15:00\r"},{"TimeMSK":"6:30 PM","TemperatureF":"15.8","Dew PointF":"14","Humidity":"93","Sea Level PressureIn":"30.51","VisibilityMPH":"5.6","Wind Direction":"ESE","Wind SpeedMPH":"13.4","Gust SpeedMPH":"-","PrecipitationIn":"N/A","Events":"","Conditions":"Scattered Clouds","FullMetar":"METAR UWKD 121530Z 11006MPS 9000 SCT033 M09/M10 Q1033 R11/810055 TEMPO 2000 BR BKN005 RMK QFE764/1019","WindDirDegrees":"110","DateUTC\r":"2/12/16 15:30\r"},{"TimeMSK":"7:00 PM","TemperatureF":"14","Dew PointF":"12.2","Humidity":"93","Sea Level PressureIn":"30.51","VisibilityMPH":"6.2","Wind Direction":"ESE","Wind SpeedMPH":"13.4","Gust SpeedMPH":"-","PrecipitationIn":"N/A","Events":"","Conditions":"Scattered Clouds","FullMetar":"METAR UWKD 121600Z 12006MPS 9999 SCT033 M10/M11 Q1033 R11/810055 TEMPO 2000 BR BKN005 RMK QFE764/1019","WindDirDegrees":"120","DateUTC\r":"2/12/16 16:00\r"},{"TimeMSK":"7:30 PM","TemperatureF":"14","Dew PointF":"12.2","Humidity":"93","Sea Level PressureIn":"30.51","VisibilityMPH":"6.2","Wind Direction":"ESE","Wind SpeedMPH":"13.4","Gust SpeedMPH":"-","PrecipitationIn":"N/A","Events":"","Conditions":"Scattered Clouds","FullMetar":"METAR UWKD 121630Z 12006MPS 9999 SCT033 M10/M11 Q1033 R11/810055 TEMPO 2000 BR BKN005 RMK QFE764/1019","WindDirDegrees":"120","DateUTC\r":"2/12/16 16:30\r"},{"TimeMSK":"8:00 PM","TemperatureF":"14","Dew PointF":"12.2","Humidity":"93","Sea Level PressureIn":"30.51","VisibilityMPH":"6.2","Wind Direction":"SE","Wind SpeedMPH":"11.2","Gust SpeedMPH":"-","PrecipitationIn":"N/A","Events":"","Conditions":"Scattered Clouds","FullMetar":"METAR UWKD 121700Z 13005MPS 9999 SCT033 M10/M11 Q1033 R11/810055 TEMPO 2000 BR BKN005 RMK QFE764/1019","WindDirDegrees":"130","DateUTC\r":"2/12/16 17:00\r"},{"TimeMSK":"8:30 PM","TemperatureF":"12.2","Dew PointF":"12.2","Humidity":"100","Sea Level PressureIn":"30.51","VisibilityMPH":"-9999","Wind Direction":"SE","Wind SpeedMPH":"11.2","Gust SpeedMPH":"-","PrecipitationIn":"N/A","Events":"","Conditions":"Clear","FullMetar":"METAR UWKD 121730Z 13005MPS CAVOK M11/M11 Q1033 R11/810055 TEMPO 2000 BR BKN005 RMK QFE764/1019","WindDirDegrees":"130","DateUTC\r":"2/12/16 17:30\r"},{"TimeMSK":"9:00 PM","TemperatureF":"17","Dew PointF":"13","Humidity":"79","Sea Level PressureIn":"30.56","VisibilityMPH":"6","Wind Direction":"ESE","Wind SpeedMPH":"4.5","Gust SpeedMPH":"","PrecipitationIn":"","Events":"","Conditions":"","FullMetar":"AAXX 12181 27595 42997 01202 11084 21104 30189 40346 57007","WindDirDegrees":"120","DateUTC\r":"2/12/16 18:00\r"},{"TimeMSK":"9:00 PM","TemperatureF":"12.2","Dew PointF":"10.4","Humidity":"92","Sea Level PressureIn":"30.51","VisibilityMPH":"-9999","Wind Direction":"SE","Wind SpeedMPH":"8.9","Gust SpeedMPH":"-","PrecipitationIn":"N/A","Events":"","Conditions":"Clear","FullMetar":"METAR UWKD 121800Z 14004MPS CAVOK M11/M12 Q1033 R11/810055 TEMPO 2000 BR BKN005 RMK QFE764/1019","WindDirDegrees":"140","DateUTC\r":"2/12/16 18:00\r"},{"TimeMSK":"9:30 PM","TemperatureF":"14","Dew PointF":"12.2","Humidity":"93","Sea Level PressureIn":"30.51","VisibilityMPH":"-9999","Wind Direction":"SE","Wind SpeedMPH":"8.9","Gust SpeedMPH":"-","PrecipitationIn":"N/A","Events":"","Conditions":"Clear","FullMetar":"METAR UWKD 121830Z 13004MPS CAVOK M10/M11 Q1033 R11/810055 TEMPO 2000 BR BKN005 RMK QFE764/1019","WindDirDegrees":"130","DateUTC\r":"2/12/16 18:30\r"},{"TimeMSK":"10:00 PM","TemperatureF":"12.2","Dew PointF":"10.4","Humidity":"92","Sea Level PressureIn":"30.51","VisibilityMPH":"-9999","Wind Direction":"SE","Wind SpeedMPH":"6.7","Gust SpeedMPH":"-","PrecipitationIn":"N/A","Events":"","Conditions":"Clear","FullMetar":"METAR UWKD 121900Z 14003MPS CAVOK M11/M12 Q1033 R11/810055 TEMPO 2000 BR BKN005 RMK QFE764/1019","WindDirDegrees":"140","DateUTC\r":"2/12/16 19:00\r"},{"TimeMSK":"10:30 PM","TemperatureF":"10.4","Dew PointF":"8.6","Humidity":"92","Sea Level PressureIn":"30.51","VisibilityMPH":"-9999","Wind Direction":"SE","Wind SpeedMPH":"11.2","Gust SpeedMPH":"-","PrecipitationIn":"N/A","Events":"","Conditions":"Clear","FullMetar":"METAR UWKD 121930Z 14005MPS CAVOK M12/M13 Q1033 R11/810055 TEMPO 2000 BR BKN005 RMK QFE764/1019","WindDirDegrees":"140","DateUTC\r":"2/12/16 19:30\r"},{"TimeMSK":"11:00 PM","TemperatureF":"12.2","Dew PointF":"8.6","Humidity":"85","Sea Level PressureIn":"30.51","VisibilityMPH":"-9999","Wind Direction":"SE","Wind SpeedMPH":"11.2","Gust SpeedMPH":"-","PrecipitationIn":"N/A","Events":"","Conditions":"Clear","FullMetar":"METAR UWKD 122000Z 13005MPS CAVOK M11/M13 Q1033 R11/810055 TEMPO 2000 BR BKN005 RMK QFE764/1019","WindDirDegrees":"130","DateUTC\r":"2/12/16 20:00\r"},{"TimeMSK":"11:30 PM","TemperatureF":"12.2","Dew PointF":"10.4","Humidity":"92","Sea Level PressureIn":"30.51","VisibilityMPH":"-9999","Wind Direction":"SSE","Wind SpeedMPH":"6.7","Gust SpeedMPH":"-","PrecipitationIn":"N/A","Events":"","Conditions":"Clear","FullMetar":"METAR UWKD 122030Z 15003MPS CAVOK M11/M12 Q1033 R11/810055 TEMPO 2000 BR BKN005 RMK QFE764/1019","WindDirDegrees":"150","DateUTC\r":"2/12/16 20:30\r"},{"TimeMSK":"12:00 AM","TemperatureF":"15","Dew PointF":"11","Humidity":"76","Sea Level PressureIn":"30.57","VisibilityMPH":"6","Wind Direction":"SE","Wind SpeedMPH":"4.5","Gust SpeedMPH":"","PrecipitationIn":"","Events":"","Conditions":"","FullMetar":"AAXX 12211 27595 42997 01302 11095 21118 30192 40350 50003","WindDirDegrees":"130","DateUTC\r":"2/12/16 21:00\r"},{"TimeMSK":"12:00 AM","TemperatureF":"12.2","Dew PointF":"8.6","Humidity":"85","Sea Level PressureIn":"30.51","VisibilityMPH":"-9999","Wind Direction":"SE","Wind SpeedMPH":"8.9","Gust SpeedMPH":"-","PrecipitationIn":"N/A","Events":"","Conditions":"Clear","FullMetar":"METAR UWKD 122100Z 13004MPS CAVOK M11/M13 Q1033 R11/810055 TEMPO 2000 BR BKN005 RMK QFE764/1019","WindDirDegrees":"130","DateUTC\r":"2/12/16 21:00\r"},{"TimeMSK":"12:30 AM","TemperatureF":"10.4","Dew PointF":"8.6","Humidity":"92","Sea Level PressureIn":"30.51","VisibilityMPH":"-9999","Wind Direction":"SSE","Wind SpeedMPH":"4.5","Gust SpeedMPH":"-","PrecipitationIn":"N/A","Events":"","Conditions":"Clear","FullMetar":"METAR UWKD 122130Z 16002MPS CAVOK M12/M13 Q1033 R11/810055 TEMPO 2000 BR BKN005 RMK QFE764/1019","WindDirDegrees":"160","DateUTC\r":"2/12/16 21:30\r"},{"TimeMSK":"1:00 AM","TemperatureF":"10.4","Dew PointF":"8.6","Humidity":"92","Sea Level PressureIn":"30.51","VisibilityMPH":"-9999","Wind Direction":"SE","Wind SpeedMPH":"8.9","Gust SpeedMPH":"-","PrecipitationIn":"N/A","Events":"","Conditions":"Clear","FullMetar":"METAR UWKD 122200Z 13004MPS CAVOK M12/M13 Q1033 R11/810055 TEMPO 2000 BR BKN005 RMK QFE765/1020","WindDirDegrees":"130","DateUTC\r":"2/12/16 22:00\r"},{"TimeMSK":"1:30 AM","TemperatureF":"10.4","Dew PointF":"8.6","Humidity":"92","Sea Level PressureIn":"30.51","VisibilityMPH":"-9999","Wind Direction":"SE","Wind SpeedMPH":"6.7","Gust SpeedMPH":"-","PrecipitationIn":"N/A","Events":"","Conditions":"Clear","FullMetar":"METAR UWKD 122230Z 14003MPS CAVOK M12/M13 Q1033 R11/810055 TEMPO 2000 BR BKN005 RMK QFE764/1019","WindDirDegrees":"140","DateUTC\r":"2/12/16 22:30\r"},{"TimeMSK":"2:00 AM","TemperatureF":"10.4","Dew PointF":"8.6","Humidity":"92","Sea Level PressureIn":"30.51","VisibilityMPH":"-9999","Wind Direction":"SE","Wind SpeedMPH":"8.9","Gust SpeedMPH":"-","PrecipitationIn":"N/A","Events":"","Conditions":"Clear","FullMetar":"METAR UWKD 122300Z 13004MPS CAVOK M12/M13 Q1033 R11/810055 TEMPO 2000 BR BKN005 RMK QFE764/1019","WindDirDegrees":"130","DateUTC\r":"2/12/16 23:00\r"},{"TimeMSK":"2:30 AM","TemperatureF":"10.4","Dew PointF":"8.6","Humidity":"92","Sea Level PressureIn":"30.51","VisibilityMPH":"-9999","Wind Direction":"SE","Wind SpeedMPH":"11.2","Gust SpeedMPH":"-","PrecipitationIn":"N/A","Events":"","Conditions":"Clear","FullMetar":"METAR UWKD 122330Z 14005MPS CAVOK M12/M13 Q1033 R11/810055 TEMPO 2000 BR BKN005 RMK QFE764/1019","WindDirDegrees":"140","DateUTC\r":"2/12/16 23:30\r"},{"TimeMSK":"3:00 AM","TemperatureF":"15","Dew PointF":"10","Humidity":"70","Sea Level PressureIn":"30.57","VisibilityMPH":"6","Wind Direction":"SE","Wind SpeedMPH":"4.5","Gust SpeedMPH":"","PrecipitationIn":"","Events":"","Conditions":"","FullMetar":"AAXX 13001 27595 42997 01402 11097 21125 30192 40350 54000","WindDirDegrees":"140","DateUTC\r":"2/13/16 0:00\r"},{"TimeMSK":"3:00 AM","TemperatureF":"10.4","Dew PointF":"6.8","Humidity":"85","Sea Level PressureIn":"30.51","VisibilityMPH":"-9999","Wind Direction":"SE","Wind SpeedMPH":"8.9","Gust SpeedMPH":"-","PrecipitationIn":"N/A","Events":"","Conditions":"Clear","FullMetar":"METAR UWKD 130000Z 14004MPS CAVOK M12/M14 Q1033 R11/810055 NOSIG RMK QFE764/1019","WindDirDegrees":"140","DateUTC\r":"2/13/16 0:00\r"},{"TimeMSK":"3:30 AM","TemperatureF":"6.8","Dew PointF":"5","Humidity":"92","Sea Level PressureIn":"30.51","VisibilityMPH":"-9999","Wind Direction":"SSE","Wind SpeedMPH":"4.5","Gust SpeedMPH":"-","PrecipitationIn":"N/A","Events":"","Conditions":"Clear","FullMetar":"METAR UWKD 130030Z 16002MPS 120V220 CAVOK M14/M15 Q1033 R11/810055 NOSIG RMK QFE764/1019","WindDirDegrees":"160","DateUTC\r":"2/13/16 0:30\r"},{"TimeMSK":"4:00 AM","TemperatureF":"6.8","Dew PointF":"5","Humidity":"92","Sea Level PressureIn":"30.51","VisibilityMPH":"-9999","Wind Direction":"Variable","Wind SpeedMPH":"2.2","Gust SpeedMPH":"-","PrecipitationIn":"N/A","Events":"","Conditions":"Clear","FullMetar":"METAR UWKD 130100Z VRB01MPS CAVOK M14/M15 Q1033 R11/810055 NOSIG RMK QFE764/1019","WindDirDegrees":"0","DateUTC\r":"2/13/16 1:00\r"},{"TimeMSK":"4:30 AM","TemperatureF":"6.8","Dew PointF":"3.2","Humidity":"85","Sea Level PressureIn":"30.51","VisibilityMPH":"-9999","Wind Direction":"Variable","Wind SpeedMPH":"2.2","Gust SpeedMPH":"-","PrecipitationIn":"N/A","Events":"","Conditions":"Clear","FullMetar":"METAR UWKD 130130Z VRB01MPS CAVOK M14/M16 Q1033 R11/810055 NOSIG RMK QFE764/1019","WindDirDegrees":"0","DateUTC\r":"2/13/16 1:30\r"},{"TimeMSK":"5:00 AM","TemperatureF":"6.8","Dew PointF":"6.8","Humidity":"100","Sea Level PressureIn":"30.51","VisibilityMPH":"-9999","Wind Direction":"ESE","Wind SpeedMPH":"4.5","Gust SpeedMPH":"-","PrecipitationIn":"N/A","Events":"","Conditions":"Clear","FullMetar":"METAR UWKD 130200Z 11002MPS CAVOK M14/M14 Q1033 R11/810055 NOSIG RMK QFE764/1019","WindDirDegrees":"110","DateUTC\r":"2/13/16 2:00\r"},{"TimeMSK":"5:30 AM","TemperatureF":"8.6","Dew PointF":"5","Humidity":"85","Sea Level PressureIn":"30.51","VisibilityMPH":"-9999","Wind Direction":"ESE","Wind SpeedMPH":"11.2","Gust SpeedMPH":"-","PrecipitationIn":"N/A","Events":"","Conditions":"Clear","FullMetar":"METAR UWKD 130230Z 12005MPS CAVOK M13/M15 Q1033 R11/810055 NOSIG RMK QFE764/1019","WindDirDegrees":"120","DateUTC\r":"2/13/16 2:30\r"},{"TimeMSK":"6:00 AM","TemperatureF":"13","Dew PointF":"8","Humidity":"71","Sea Level PressureIn":"30.56","VisibilityMPH":"6","Wind Direction":"East","Wind SpeedMPH":"4.5","Gust SpeedMPH":"","PrecipitationIn":"","Events":"","Conditions":"","FullMetar":"AAXX 13031 27595 12997 01002 11107 21134 30190 40349 55002 60002 333 21107 47043 55002","WindDirDegrees":"100","DateUTC\r":"2/13/16 3:00\r"},{"TimeMSK":"6:00 AM","TemperatureF":"8.6","Dew PointF":"6.8","Humidity":"92","Sea Level PressureIn":"30.51","VisibilityMPH":"-9999","Wind Direction":"SE","Wind SpeedMPH":"13.4","Gust SpeedMPH":"-","PrecipitationIn":"N/A","Events":"","Conditions":"Clear","FullMetar":"METAR UWKD 130300Z 13006MPS CAVOK M13/M14 Q1033 R11/810055 NOSIG RMK QFE764/1019","WindDirDegrees":"130","DateUTC\r":"2/13/16 3:00\r"},{"TimeMSK":"6:30 AM","TemperatureF":"6.8","Dew PointF":"5","Humidity":"92","Sea Level PressureIn":"30.51","VisibilityMPH":"-9999","Wind Direction":"ESE","Wind SpeedMPH":"11.2","Gust SpeedMPH":"-","PrecipitationIn":"N/A","Events":"","Conditions":"Clear","FullMetar":"METAR UWKD 130330Z 12005MPS CAVOK M14/M15 Q1033 R11/810055 NOSIG RMK QFE764/1019","WindDirDegrees":"120","DateUTC\r":"2/13/16 3:30\r"},{"TimeMSK":"7:00 AM","TemperatureF":"8.6","Dew PointF":"5","Humidity":"85","Sea Level PressureIn":"30.51","VisibilityMPH":"-9999","Wind Direction":"SE","Wind SpeedMPH":"8.9","Gust SpeedMPH":"-","PrecipitationIn":"N/A","Events":"","Conditions":"Clear","FullMetar":"METAR UWKD 130400Z 13004MPS CAVOK M13/M15 Q1033 R11/810055 NOSIG RMK QFE764/1019","WindDirDegrees":"130","DateUTC\r":"2/13/16 4:00\r"},{"TimeMSK":"7:30 AM","TemperatureF":"8.6","Dew PointF":"6.8","Humidity":"92","Sea Level PressureIn":"30.51","VisibilityMPH":"-9999","Wind Direction":"ESE","Wind SpeedMPH":"11.2","Gust SpeedMPH":"-","PrecipitationIn":"N/A","Events":"","Conditions":"Clear","FullMetar":"METAR UWKD 130430Z 12005MPS CAVOK M13/M14 Q1033 R11/810055 NOSIG RMK QFE764/1019","WindDirDegrees":"120","DateUTC\r":"2/13/16 4:30\r"},{"TimeMSK":"8:00 AM","TemperatureF":"8.6","Dew PointF":"6.8","Humidity":"92","Sea Level PressureIn":"30.51","VisibilityMPH":"-9999","Wind Direction":"SE","Wind SpeedMPH":"8.9","Gust SpeedMPH":"-","PrecipitationIn":"N/A","Events":"","Conditions":"Clear","FullMetar":"METAR UWKD 130500Z 13004MPS CAVOK M13/M14 Q1033 R11/810055 NOSIG RMK QFE764/1019","WindDirDegrees":"130","DateUTC\r":"2/13/16 5:00\r"},{"TimeMSK":"8:30 AM","TemperatureF":"8.6","Dew PointF":"5","Humidity":"85","Sea Level PressureIn":"30.51","VisibilityMPH":"-9999","Wind Direction":"ESE","Wind SpeedMPH":"6.7","Gust SpeedMPH":"-","PrecipitationIn":"N/A","Events":"","Conditions":"Clear","FullMetar":"METAR UWKD 130530Z 11003MPS CAVOK M13/M15 Q1033 R11/810055 NOSIG RMK QFE764/1019","WindDirDegrees":"110","DateUTC\r":"2/13/16 5:30\r"},{"TimeMSK":"9:00 AM","TemperatureF":"16","Dew PointF":"10","Humidity":"65","Sea Level PressureIn":"30.55","VisibilityMPH":"6","Wind Direction":"SE","Wind SpeedMPH":"4.5","Gust SpeedMPH":"","PrecipitationIn":"","Events":"","Conditions":"Scattered Clouds","FullMetar":"AAXX 13061 27595 42997 21302 11089 21125 30187 40345 57003 82030 333 21109","WindDirDegrees":"130","DateUTC\r":"2/13/16 6:00\r"},{"TimeMSK":"9:00 AM","TemperatureF":"10.4","Dew PointF":"6.8","Humidity":"85","Sea Level PressureIn":"30.48","VisibilityMPH":"-9999","Wind Direction":"ESE","Wind SpeedMPH":"8.9","Gust SpeedMPH":"-","PrecipitationIn":"N/A","Events":"","Conditions":"Clear","FullMetar":"METAR UWKD 130600Z 12004MPS CAVOK M12/M14 Q1032 R11/810055 NOSIG RMK QFE764/1019","WindDirDegrees":"120","DateUTC\r":"2/13/16 6:00\r"},{"TimeMSK":"9:30 AM","TemperatureF":"10.4","Dew PointF":"6.8","Humidity":"85","Sea Level PressureIn":"30.48","VisibilityMPH":"-9999","Wind Direction":"ESE","Wind SpeedMPH":"8.9","Gust SpeedMPH":"-","PrecipitationIn":"N/A","Events":"","Conditions":"Clear","FullMetar":"METAR UWKD 130630Z 12004MPS CAVOK M12/M14 Q1032 R11/810055 NOSIG RMK QFE764/1019","WindDirDegrees":"120","DateUTC\r":"2/13/16 6:30\r"},{"TimeMSK":"10:00 AM","TemperatureF":"12.2","Dew PointF":"8.6","Humidity":"85","Sea Level PressureIn":"30.48","VisibilityMPH":"-9999","Wind Direction":"SE","Wind SpeedMPH":"8.9","Gust SpeedMPH":"-","PrecipitationIn":"N/A","Events":"","Conditions":"Clear","FullMetar":"METAR UWKD 130700Z 13004MPS CAVOK M11/M13 Q1032 R11/810055 NOSIG RMK QFE764/1018","WindDirDegrees":"130","DateUTC\r":"2/13/16 7:00\r"},{"TimeMSK":"10:30 AM","TemperatureF":"14","Dew PointF":"10.4","Humidity":"86","Sea Level PressureIn":"30.48","VisibilityMPH":"-9999","Wind Direction":"SE","Wind SpeedMPH":"6.7","Gust SpeedMPH":"-","PrecipitationIn":"N/A","Events":"","Conditions":"Clear","FullMetar":"METAR UWKD 130730Z 13003MPS CAVOK M10/M12 Q1032 R11/810055 NOSIG RMK QFE764/1018","WindDirDegrees":"130","DateUTC\r":"2/13/16 7:30\r"},{"TimeMSK":"11:00 AM","TemperatureF":"14","Dew PointF":"10.4","Humidity":"86","Sea Level PressureIn":"30.48","VisibilityMPH":"-9999","Wind Direction":"SE","Wind SpeedMPH":"8.9","Gust SpeedMPH":"-","PrecipitationIn":"N/A","Events":"","Conditions":"Clear","FullMetar":"METAR UWKD 130800Z 13004MPS CAVOK M10/M12 Q1032 R11/810055 NOSIG RMK QFE763/1018","WindDirDegrees":"130","DateUTC\r":"2/13/16 8:00\r"},{"TimeMSK":"11:30 AM","TemperatureF":"15.8","Dew PointF":"10.4","Humidity":"79","Sea Level PressureIn":"30.48","VisibilityMPH":"-9999","Wind Direction":"SE","Wind SpeedMPH":"6.7","Gust SpeedMPH":"-","PrecipitationIn":"N/A","Events":"","Conditions":"Clear","FullMetar":"METAR UWKD 130830Z 14003MPS CAVOK M09/M12 Q1032 R11/810055 NOSIG RMK QFE763/1018","WindDirDegrees":"140","DateUTC\r":"2/13/16 8:30\r"},{"TimeMSK":"12:00 PM","TemperatureF":"23","Dew PointF":"12","Humidity":"49","Sea Level PressureIn":"30.51","VisibilityMPH":"6","Wind Direction":"SE","Wind SpeedMPH":"4.5","Gust SpeedMPH":"","PrecipitationIn":"","Events":"","Conditions":"Partly Cloudy","FullMetar":"AAXX 13091 27595 42997 31302 11052 21112 30177 40332 57010 83040","WindDirDegrees":"130","DateUTC\r":"2/13/16 9:00\r"},{"TimeMSK":"12:00 PM","TemperatureF":"17.6","Dew PointF":"12.2","Humidity":"79","Sea Level PressureIn":"30.45","VisibilityMPH":"-9999","Wind Direction":"SE","Wind SpeedMPH":"4.5","Gust SpeedMPH":"-","PrecipitationIn":"N/A","Events":"","Conditions":"Clear","FullMetar":"METAR UWKD 130900Z 13002MPS CAVOK M08/M11 Q1031 R11/810055 NOSIG RMK QFE763/1018","WindDirDegrees":"130","DateUTC\r":"2/13/16 9:00\r"},{"TimeMSK":"12:30 PM","TemperatureF":"17.6","Dew PointF":"10.4","Humidity":"73","Sea Level PressureIn":"30.45","VisibilityMPH":"-9999","Wind Direction":"SSE","Wind SpeedMPH":"4.5","Gust SpeedMPH":"-","PrecipitationIn":"N/A","Events":"","Conditions":"Clear","FullMetar":"METAR UWKD 130930Z 16002MPS CAVOK M08/M12 Q1031 R11/810055 NOSIG RMK QFE763/1018","WindDirDegrees":"160","DateUTC\r":"2/13/16 9:30\r"},{"TimeMSK":"1:00 PM","TemperatureF":"19.4","Dew PointF":"12.2","Humidity":"74","Sea Level PressureIn":"30.45","VisibilityMPH":"-9999","Wind Direction":"SSE","Wind SpeedMPH":"2.2","Gust SpeedMPH":"-","PrecipitationIn":"N/A","Events":"","Conditions":"Clear","FullMetar":"METAR UWKD 131000Z 15001MPS CAVOK M07/M11 Q1031 R11/810055 NOSIG RMK QFE763/1018","WindDirDegrees":"150","DateUTC\r":"2/13/16 10:00\r"},{"TimeMSK":"1:30 PM","TemperatureF":"19.4","Dew PointF":"10.4","Humidity":"68","Sea Level PressureIn":"30.45","VisibilityMPH":"-9999","Wind Direction":"Variable","Wind SpeedMPH":"2.2","Gust SpeedMPH":"-","PrecipitationIn":"N/A","Events":"","Conditions":"Clear","FullMetar":"METAR UWKD 131030Z VRB01MPS CAVOK M07/M12 Q1031 R11/810055 NOSIG RMK QFE763/1017","WindDirDegrees":"0","DateUTC\r":"2/13/16 10:30\r"},{"TimeMSK":"2:00 PM","TemperatureF":"17.6","Dew PointF":"10.4","Humidity":"73","Sea Level PressureIn":"30.45","VisibilityMPH":"-9999","Wind Direction":"Variable","Wind SpeedMPH":"2.2","Gust SpeedMPH":"-","PrecipitationIn":"N/A","Events":"","Conditions":"Clear","FullMetar":"METAR UWKD 131100Z VRB01MPS CAVOK M08/M12 Q1031 R11/810055 NOSIG RMK QFE763/1017","WindDirDegrees":"0","DateUTC\r":"2/13/16 11:00\r"},{"TimeMSK":"2:30 PM","TemperatureF":"17.6","Dew PointF":"10.4","Humidity":"73","Sea Level PressureIn":"30.45","VisibilityMPH":"-9999","Wind Direction":"Variable","Wind SpeedMPH":"2.2","Gust SpeedMPH":"-","PrecipitationIn":"N/A","Events":"","Conditions":"Clear","FullMetar":"METAR UWKD 131130Z VRB01MPS CAVOK M08/M12 Q1031 R11/810055 NOSIG RMK QFE763/1017","WindDirDegrees":"0","DateUTC\r":"2/13/16 11:30\r"},{"TimeMSK":"3:00 PM","TemperatureF":"26","Dew PointF":"8","Humidity":"31","Sea Level PressureIn":"30.48","VisibilityMPH":"6","Wind Direction":"Calm","Wind SpeedMPH":"Calm","Gust SpeedMPH":"","PrecipitationIn":"","Events":"","Conditions":"Partly Cloudy","FullMetar":"AAXX 13121 27595 42997 40000 11033 21136 30167 40321 57010 84040","WindDirDegrees":"","DateUTC\r":"2/13/16 12:00\r"},{"TimeMSK":"3:00 PM","TemperatureF":"19.4","Dew PointF":"10.4","Humidity":"68","Sea Level PressureIn":"30.42","VisibilityMPH":"-9999","Wind Direction":"North","Wind SpeedMPH":"2.2","Gust SpeedMPH":"-","PrecipitationIn":"N/A","Events":"","Conditions":"Clear","FullMetar":"METAR UWKD 131200Z 35001MPS CAVOK M07/M12 Q1030 R11/810055 NOSIG RMK QFE762/1017","WindDirDegrees":"350","DateUTC\r":"2/13/16 12:00\r"},{"TimeMSK":"3:30 PM","TemperatureF":"19.4","Dew PointF":"10.4","Humidity":"68","Sea Level PressureIn":"30.42","VisibilityMPH":"-9999","Wind Direction":"NNW","Wind SpeedMPH":"2.2","Gust SpeedMPH":"-","PrecipitationIn":"N/A","Events":"","Conditions":"Clear","FullMetar":"METAR UWKD 131230Z 33001MPS CAVOK M07/M12 Q1030 R11/810055 NOSIG RMK QFE762/1017","WindDirDegrees":"330","DateUTC\r":"2/13/16 12:30\r"},{"TimeMSK":"4:00 PM","TemperatureF":"17.6","Dew PointF":"10.4","Humidity":"73","Sea Level PressureIn":"30.42","VisibilityMPH":"-9999","Wind Direction":"North","Wind SpeedMPH":"2.2","Gust SpeedMPH":"-","PrecipitationIn":"N/A","Events":"","Conditions":"Clear","FullMetar":"METAR UWKD 131300Z 36001MPS CAVOK M08/M12 Q1030 R11/810055 NOSIG RMK QFE762/1016","WindDirDegrees":"360","DateUTC\r":"2/13/16 13:00\r"},{"TimeMSK":"4:30 PM","TemperatureF":"15.8","Dew PointF":"8.6","Humidity":"73","Sea Level PressureIn":"30.42","VisibilityMPH":"-9999","Wind Direction":"NNE","Wind SpeedMPH":"2.2","Gust SpeedMPH":"-","PrecipitationIn":"N/A","Events":"","Conditions":"Clear","FullMetar":"METAR UWKD 131330Z 02001MPS CAVOK M09/M13 Q1030 R11/810055 NOSIG RMK QFE762/1016","WindDirDegrees":"20","DateUTC\r":"2/13/16 13:30\r"},{"TimeMSK":"5:00 PM","TemperatureF":"14","Dew PointF":"8.6","Humidity":"79","Sea Level PressureIn":"30.42","VisibilityMPH":"-9999","Wind Direction":"Calm","Wind SpeedMPH":"Calm","Gust SpeedMPH":"-","PrecipitationIn":"N/A","Events":"","Conditions":"Clear","FullMetar":"METAR UWKD 131400Z 00000MPS CAVOK M10/M13 Q1030 R11/810055 NOSIG RMK QFE762/1016","WindDirDegrees":"0","DateUTC\r":"2/13/16 14:00\r"},{"TimeMSK":"5:30 PM","TemperatureF":"14","Dew PointF":"8.6","Humidity":"79","Sea Level PressureIn":"30.42","VisibilityMPH":"-9999","Wind Direction":"NE","Wind SpeedMPH":"2.2","Gust SpeedMPH":"-","PrecipitationIn":"N/A","Events":"","Conditions":"Clear","FullMetar":"METAR UWKD 131430Z 04001MPS CAVOK M10/M13 Q1030 R11/810055 NOSIG RMK QFE762/1016","WindDirDegrees":"40","DateUTC\r":"2/13/16 14:30\r"},{"TimeMSK":"6:00 PM","TemperatureF":"22","Dew PointF":"10","Humidity":"45","Sea Level PressureIn":"30.46","VisibilityMPH":"6","Wind Direction":"ESE","Wind SpeedMPH":"2.2","Gust SpeedMPH":"","PrecipitationIn":"","Events":"","Conditions":"Clear","FullMetar":"AAXX 13151 27595 12997 21101 11057 21124 30160 40315 57006 60002 80005 333 11010","WindDirDegrees":"110","DateUTC\r":"2/13/16 15:00\r"},{"TimeMSK":"6:00 PM","TemperatureF":"14","Dew PointF":"6.8","Humidity":"73","Sea Level PressureIn":"30.42","VisibilityMPH":"-9999","Wind Direction":"NW","Wind SpeedMPH":"2.2","Gust SpeedMPH":"-","PrecipitationIn":"N/A","Events":"","Conditions":"Clear","FullMetar":"METAR UWKD 131500Z 32001MPS CAVOK M10/M14 Q1030 R11/810055 NOSIG RMK QFE762/1016","WindDirDegrees":"320","DateUTC\r":"2/13/16 15:00\r"},{"TimeMSK":"6:30 PM","TemperatureF":"14","Dew PointF":"8.6","Humidity":"79","Sea Level PressureIn":"30.39","VisibilityMPH":"-9999","Wind Direction":"NE","Wind SpeedMPH":"2.2","Gust SpeedMPH":"-","PrecipitationIn":"N/A","Events":"","Conditions":"Clear","FullMetar":"METAR UWKD 131530Z 05001MPS CAVOK M10/M13 Q1029 R11/810055 NOSIG RMK QFE762/1016","WindDirDegrees":"50","DateUTC\r":"2/13/16 15:30\r"},{"TimeMSK":"7:00 PM","TemperatureF":"17.6","Dew PointF":"8.6","Humidity":"68","Sea Level PressureIn":"30.39","VisibilityMPH":"-9999","Wind Direction":"East","Wind SpeedMPH":"4.5","Gust SpeedMPH":"-","PrecipitationIn":"N/A","Events":"","Conditions":"Clear","FullMetar":"METAR UWKD 131600Z 08002MPS CAVOK M08/M13 Q1029 R11/810055 NOSIG RMK QFE761/1015","WindDirDegrees":"80","DateUTC\r":"2/13/16 16:00\r"},{"TimeMSK":"7:30 PM","TemperatureF":"14","Dew PointF":"6.8","Humidity":"73","Sea Level PressureIn":"30.39","VisibilityMPH":"-9999","Wind Direction":"East","Wind SpeedMPH":"4.5","Gust SpeedMPH":"-","PrecipitationIn":"N/A","Events":"","Conditions":"Clear","FullMetar":"METAR UWKD 131630Z 08002MPS CAVOK M10/M14 Q1029 R11/810055 NOSIG RMK QFE761/1015","WindDirDegrees":"80","DateUTC\r":"2/13/16 16:30\r"},{"TimeMSK":"8:00 PM","TemperatureF":"14","Dew PointF":"8.6","Humidity":"79","Sea Level PressureIn":"30.39","VisibilityMPH":"-9999","Wind Direction":"East","Wind SpeedMPH":"6.7","Gust SpeedMPH":"-","PrecipitationIn":"N/A","Events":"","Conditions":"Clear","FullMetar":"METAR UWKD 131700Z 09003MPS CAVOK M10/M13 Q1029 R11/810055 NOSIG RMK QFE761/1015","WindDirDegrees":"90","DateUTC\r":"2/13/16 17:00\r"},{"TimeMSK":"8:30 PM","TemperatureF":"14","Dew PointF":"6.8","Humidity":"73","Sea Level PressureIn":"30.36","VisibilityMPH":"-9999","Wind Direction":"SE","Wind SpeedMPH":"2.2","Gust SpeedMPH":"-","PrecipitationIn":"N/A","Events":"","Conditions":"Clear","FullMetar":"METAR UWKD 131730Z 13001MPS CAVOK M10/M14 Q1028 R11/CLRD60 NOSIG RMK QFE761/1015","WindDirDegrees":"130","DateUTC\r":"2/13/16 17:30\r"},{"TimeMSK":"9:00 PM","TemperatureF":"21","Dew PointF":"10","Humidity":"51","Sea Level PressureIn":"30.42","VisibilityMPH":"6","Wind Direction":"ESE","Wind SpeedMPH":"4.5","Gust SpeedMPH":"","PrecipitationIn":"","Events":"","Conditions":"Clear","FullMetar":"AAXX 13181 27595 42997 31102 11063 21120 30146 40301 57014 80001","WindDirDegrees":"110","DateUTC\r":"2/13/16 18:00\r"},{"TimeMSK":"9:00 PM","TemperatureF":"14","Dew PointF":"6.8","Humidity":"73","Sea Level PressureIn":"30.36","VisibilityMPH":"-9999","Wind Direction":"ESE","Wind SpeedMPH":"2.2","Gust SpeedMPH":"-","PrecipitationIn":"N/A","Events":"","Conditions":"Clear","FullMetar":"METAR UWKD 131800Z 11001MPS CAVOK M10/M14 Q1028 R11/CLRD60 NOSIG RMK QFE761/1015","WindDirDegrees":"110","DateUTC\r":"2/13/16 18:00\r"},{"TimeMSK":"9:30 PM","TemperatureF":"14","Dew PointF":"8.6","Humidity":"79","Sea Level PressureIn":"30.36","VisibilityMPH":"-9999","Wind Direction":"East","Wind SpeedMPH":"4.5","Gust SpeedMPH":"-","PrecipitationIn":"N/A","Events":"","Conditions":"Clear","FullMetar":"METAR UWKD 131830Z 09002MPS CAVOK M10/M13 Q1028 R11/CLRD60 NOSIG RMK QFE761/1014","WindDirDegrees":"90","DateUTC\r":"2/13/16 18:30\r"},{"TimeMSK":"10:00 PM","TemperatureF":"8.6","Dew PointF":"5","Humidity":"85","Sea Level PressureIn":"30.36","VisibilityMPH":"-9999","Wind Direction":"Variable","Wind SpeedMPH":"2.2","Gust SpeedMPH":"-","PrecipitationIn":"N/A","Events":"","Conditions":"Clear","FullMetar":"METAR UWKD 131900Z VRB01MPS CAVOK M13/M15 Q1028 R11/CLRD60 NOSIG RMK QFE761/1014","WindDirDegrees":"0","DateUTC\r":"2/13/16 19:00\r"},{"TimeMSK":"10:30 PM","TemperatureF":"8.6","Dew PointF":"5","Humidity":"85","Sea Level PressureIn":"30.36","VisibilityMPH":"-9999","Wind Direction":"Calm","Wind SpeedMPH":"Calm","Gust SpeedMPH":"-","PrecipitationIn":"N/A","Events":"","Conditions":"Clear","FullMetar":"METAR UWKD 131930Z 00000MPS CAVOK M13/M15 Q1028 R11/CLRD60 NOSIG RMK QFE760/1014","WindDirDegrees":"0","DateUTC\r":"2/13/16 19:30\r"},{"TimeMSK":"11:00 PM","TemperatureF":"8.6","Dew PointF":"6.8","Humidity":"92","Sea Level PressureIn":"30.36","VisibilityMPH":"-9999","Wind Direction":"Variable","Wind SpeedMPH":"2.2","Gust SpeedMPH":"-","PrecipitationIn":"N/A","Events":"","Conditions":"Clear","FullMetar":"METAR UWKD 132000Z VRB01MPS CAVOK M13/M14 Q1028 R11/CLRD60 NOSIG RMK QFE760/1014","WindDirDegrees":"0","DateUTC\r":"2/13/16 20:00\r"},{"TimeMSK":"11:30 PM","TemperatureF":"10.4","Dew PointF":"6.8","Humidity":"85","Sea Level PressureIn":"30.36","VisibilityMPH":"-9999","Wind Direction":"Variable","Wind SpeedMPH":"2.2","Gust SpeedMPH":"-","PrecipitationIn":"N/A","Events":"","Conditions":"Clear","FullMetar":"METAR UWKD 132030Z VRB01MPS CAVOK M12/M14 Q1028 R11/CLRD60 NOSIG RMK QFE760/1014","WindDirDegrees":"0","DateUTC\r":"2/13/16 20:30\r"},{"TimeMSK":"12:00 AM","TemperatureF":"18","Dew PointF":"11","Humidity":"63","Sea Level PressureIn":"30.4","VisibilityMPH":"6","Wind Direction":"ESE","Wind SpeedMPH":"4.5","Gust SpeedMPH":"","PrecipitationIn":"","Events":"","Conditions":"Clear","FullMetar":"AAXX 13211 27595 42997 21102 11079 21117 30138 40294 57008 80001","WindDirDegrees":"110","DateUTC\r":"2/13/16 21:00\r"},{"TimeMSK":"12:00 AM","TemperatureF":"10.4","Dew PointF":"8.6","Humidity":"92","Sea Level PressureIn":"30.36","VisibilityMPH":"-9999","Wind Direction":"ESE","Wind SpeedMPH":"6.7","Gust SpeedMPH":"-","PrecipitationIn":"N/A","Events":"","Conditions":"Clear","FullMetar":"METAR UWKD 132100Z 12003MPS CAVOK M12/M13 Q1028 R11/CLRD60 NOSIG RMK QFE760/1014","WindDirDegrees":"120","DateUTC\r":"2/13/16 21:00\r"},{"TimeMSK":"12:30 AM","TemperatureF":"5","Dew PointF":"3.2","Humidity":"92","Sea Level PressureIn":"30.33","VisibilityMPH":"-9999","Wind Direction":"ESE","Wind SpeedMPH":"6.7","Gust SpeedMPH":"-","PrecipitationIn":"N/A","Events":"","Conditions":"Clear","FullMetar":"METAR UWKD 132130Z 12003MPS CAVOK M15/M16 Q1027 R11/CLRD60 NOSIG RMK QFE760/1014","WindDirDegrees":"120","DateUTC\r":"2/13/16 21:30\r"},{"TimeMSK":"1:00 AM","TemperatureF":"6.8","Dew PointF":"3.2","Humidity":"85","Sea Level PressureIn":"30.33","VisibilityMPH":"-9999","Wind Direction":"East","Wind SpeedMPH":"4.5","Gust SpeedMPH":"-","PrecipitationIn":"N/A","Events":"","Conditions":"Clear","FullMetar":"METAR UWKD 132200Z 09002MPS 040V110 CAVOK M14/M16 Q1027 R11/CLRD60 NOSIG RMK QFE760/1014","WindDirDegrees":"90","DateUTC\r":"2/13/16 22:00\r"},{"TimeMSK":"1:30 AM","TemperatureF":"10.4","Dew PointF":"6.8","Humidity":"85","Sea Level PressureIn":"30.33","VisibilityMPH":"-9999","Wind Direction":"ESE","Wind SpeedMPH":"11.2","Gust SpeedMPH":"-","PrecipitationIn":"N/A","Events":"","Conditions":"Clear","FullMetar":"METAR UWKD 132230Z 12005MPS CAVOK M12/M14 Q1027 R11/CLRD60 NOSIG RMK QFE760/1013","WindDirDegrees":"120","DateUTC\r":"2/13/16 22:30\r"},{"TimeMSK":"2:00 AM","TemperatureF":"10.4","Dew PointF":"6.8","Humidity":"85","Sea Level PressureIn":"30.33","VisibilityMPH":"-9999","Wind Direction":"SE","Wind SpeedMPH":"6.7","Gust SpeedMPH":"-","PrecipitationIn":"N/A","Events":"","Conditions":"Clear","FullMetar":"METAR UWKD 132300Z 13003MPS 110V280 CAVOK M12/M14 Q1027 R11/CLRD60 NOSIG RMK QFE760/1013","WindDirDegrees":"130","DateUTC\r":"2/13/16 23:00\r"},{"TimeMSK":"2:30 AM","TemperatureF":"5","Dew PointF":"1.4","Humidity":"85","Sea Level PressureIn":"30.33","VisibilityMPH":"-9999","Wind Direction":"SSE","Wind SpeedMPH":"4.5","Gust SpeedMPH":"-","PrecipitationIn":"N/A","Events":"","Conditions":"Clear","FullMetar":"METAR UWKD 132330Z 15002MPS CAVOK M15/M17 Q1027 R11/CLRD60 NOSIG RMK QFE760/1013","WindDirDegrees":"150","DateUTC\r":"2/13/16 23:30\r"},{"TimeMSK":"3:00 AM","TemperatureF":"17","Dew PointF":"10","Humidity":"65","Sea Level PressureIn":"30.38","VisibilityMPH":"6","Wind Direction":"East","Wind SpeedMPH":"4.5","Gust SpeedMPH":"","PrecipitationIn":"","Events":"","Conditions":"Clear","FullMetar":"AAXX 14001 27595 42997 20902 11084 21120 30130 40286 57009 80001","WindDirDegrees":"90","DateUTC\r":"2/14/16 0:00\r"},{"TimeMSK":"3:00 AM","TemperatureF":"8.6","Dew PointF":"5","Humidity":"85","Sea Level PressureIn":"30.33","VisibilityMPH":"-9999","Wind Direction":"SE","Wind SpeedMPH":"4.5","Gust SpeedMPH":"-","PrecipitationIn":"N/A","Events":"","Conditions":"Clear","FullMetar":"METAR UWKD 140000Z 13002MPS CAVOK M13/M15 Q1027 R11/CLRD60 NOSIG RMK QFE760/1013","WindDirDegrees":"130","DateUTC\r":"2/14/16 0:00\r"},{"TimeMSK":"3:30 AM","TemperatureF":"10.4","Dew PointF":"6.8","Humidity":"85","Sea Level PressureIn":"30.3","VisibilityMPH":"-9999","Wind Direction":"East","Wind SpeedMPH":"6.7","Gust SpeedMPH":"-","PrecipitationIn":"N/A","Events":"","Conditions":"Clear","FullMetar":"METAR UWKD 140030Z 10003MPS CAVOK M12/M14 Q1026 R11/CLRD60 NOSIG RMK QFE759/1013","WindDirDegrees":"100","DateUTC\r":"2/14/16 0:30\r"},{"TimeMSK":"4:00 AM","TemperatureF":"10.4","Dew PointF":"6.8","Humidity":"85","Sea Level PressureIn":"30.3","VisibilityMPH":"-9999","Wind Direction":"SE","Wind SpeedMPH":"4.5","Gust SpeedMPH":"-","PrecipitationIn":"N/A","Events":"","Conditions":"Clear","FullMetar":"METAR UWKD 140100Z 14002MPS 100V250 CAVOK M12/M14 Q1026 R11/CLRD60 NOSIG RMK QFE760/1013","WindDirDegrees":"140","DateUTC\r":"2/14/16 1:00\r"},{"TimeMSK":"4:30 AM","TemperatureF":"8.6","Dew PointF":"5","Humidity":"85","Sea Level PressureIn":"30.33","VisibilityMPH":"-9999","Wind Direction":"ESE","Wind SpeedMPH":"4.5","Gust SpeedMPH":"-","PrecipitationIn":"N/A","Events":"","Conditions":"Clear","FullMetar":"METAR UWKD 140130Z 11002MPS CAVOK M13/M15 Q1027 R11/CLRD60 NOSIG RMK QFE760/1013","WindDirDegrees":"110","DateUTC\r":"2/14/16 1:30\r"},{"TimeMSK":"5:00 AM","TemperatureF":"12.2","Dew PointF":"8.6","Humidity":"85","Sea Level PressureIn":"30.3","VisibilityMPH":"-9999","Wind Direction":"ESE","Wind SpeedMPH":"8.9","Gust SpeedMPH":"-","PrecipitationIn":"N/A","Events":"","Conditions":"Clear","FullMetar":"METAR UWKD 140200Z 12004MPS CAVOK M11/M13 Q1026 R11/CLRD60 NOSIG RMK QFE759/1013","WindDirDegrees":"120","DateUTC\r":"2/14/16 2:00\r"},{"TimeMSK":"5:30 AM","TemperatureF":"8.6","Dew PointF":"6.8","Humidity":"92","Sea Level PressureIn":"30.33","VisibilityMPH":"-9999","Wind Direction":"SSE","Wind SpeedMPH":"4.5","Gust SpeedMPH":"-","PrecipitationIn":"N/A","Events":"","Conditions":"Clear","FullMetar":"METAR UWKD 140230Z 15002MPS 120V180 CAVOK M13/M14 Q1027 R11/CLRD60 NOSIG RMK QFE760/1013","WindDirDegrees":"150","DateUTC\r":"2/14/16 2:30\r"},{"TimeMSK":"6:00 AM","TemperatureF":"15","Dew PointF":"9","Humidity":"69","Sea Level PressureIn":"30.38","VisibilityMPH":"6","Wind Direction":"East","Wind SpeedMPH":"4.5","Gust SpeedMPH":"","PrecipitationIn":"","Events":"","Conditions":"Clear","FullMetar":"AAXX 14031 27595 12997 61002 11094 21126 30128 40285 55001 60002 80001 333 21094 47043 55047","WindDirDegrees":"100","DateUTC\r":"2/14/16 3:00\r"},{"TimeMSK":"6:00 AM","TemperatureF":"10.4","Dew PointF":"6.8","Humidity":"85","Sea Level PressureIn":"30.3","VisibilityMPH":"-9999","Wind Direction":"ESE","Wind SpeedMPH":"6.7","Gust SpeedMPH":"-","PrecipitationIn":"N/A","Events":"","Conditions":"Clear","FullMetar":"METAR UWKD 140300Z 12003MPS CAVOK M12/M14 Q1026 R11/CLRD60 NOSIG RMK QFE760/1013","WindDirDegrees":"120","DateUTC\r":"2/14/16 3:00\r"},{"TimeMSK":"6:30 AM","TemperatureF":"10.4","Dew PointF":"5","Humidity":"79","Sea Level PressureIn":"30.33","VisibilityMPH":"-9999","Wind Direction":"SE","Wind SpeedMPH":"8.9","Gust SpeedMPH":"-","PrecipitationIn":"N/A","Events":"","Conditions":"Clear","FullMetar":"METAR UWKD 140330Z 14004MPS CAVOK M12/M15 Q1027 R11/CLRD60 NOSIG RMK QFE760/1013","WindDirDegrees":"140","DateUTC\r":"2/14/16 3:30\r"},{"TimeMSK":"7:00 AM","TemperatureF":"5","Dew PointF":"3.2","Humidity":"92","Sea Level PressureIn":"30.33","VisibilityMPH":"-9999","Wind Direction":"Variable","Wind SpeedMPH":"2.2","Gust SpeedMPH":"-","PrecipitationIn":"N/A","Events":"","Conditions":"Clear","FullMetar":"METAR UWKD 140400Z VRB01MPS CAVOK M15/M16 Q1027 R11/CLRD60 NOSIG RMK QFE760/1013","WindDirDegrees":"0","DateUTC\r":"2/14/16 4:00\r"},{"TimeMSK":"7:30 AM","TemperatureF":"8.6","Dew PointF":"6.8","Humidity":"92","Sea Level PressureIn":"30.33","VisibilityMPH":"-9999","Wind Direction":"SE","Wind SpeedMPH":"8.9","Gust SpeedMPH":"-","PrecipitationIn":"N/A","Events":"","Conditions":"Clear","FullMetar":"METAR UWKD 140430Z 13004MPS CAVOK M13/M14 Q1027 R11/CLRD60 NOSIG RMK QFE760/1013","WindDirDegrees":"130","DateUTC\r":"2/14/16 4:30\r"},{"TimeMSK":"8:00 AM","TemperatureF":"10.4","Dew PointF":"6.8","Humidity":"85","Sea Level PressureIn":"30.33","VisibilityMPH":"-9999","Wind Direction":"SE","Wind SpeedMPH":"6.7","Gust SpeedMPH":"-","PrecipitationIn":"N/A","Events":"","Conditions":"Clear","FullMetar":"METAR UWKD 140500Z 14003MPS CAVOK M12/M14 Q1027 R11/CLRD60 NOSIG RMK QFE760/1013","WindDirDegrees":"140","DateUTC\r":"2/14/16 5:00\r"},{"TimeMSK":"8:30 AM","TemperatureF":"10.4","Dew PointF":"6.8","Humidity":"85","Sea Level PressureIn":"30.33","VisibilityMPH":"-9999","Wind Direction":"SE","Wind SpeedMPH":"8.9","Gust SpeedMPH":"-","PrecipitationIn":"N/A","Events":"","Conditions":"Clear","FullMetar":"METAR UWKD 140530Z 14004MPS CAVOK M12/M14 Q1027 R11/CLRD60 NOSIG RMK QFE760/1013","WindDirDegrees":"140","DateUTC\r":"2/14/16 5:30\r"},{"TimeMSK":"9:00 AM","TemperatureF":"15","Dew PointF":"8","Humidity":"64","Sea Level PressureIn":"30.38","VisibilityMPH":"6","Wind Direction":"SE","Wind SpeedMPH":"2.2","Gust SpeedMPH":"","PrecipitationIn":"","Events":"","Conditions":"Mostly Cloudy","FullMetar":"AAXX 14061 27595 42997 61401 11095 21132 30131 40288 52003 86030 333 21101","WindDirDegrees":"140","DateUTC\r":"2/14/16 6:00\r"},{"TimeMSK":"9:00 AM","TemperatureF":"12.2","Dew PointF":"6.8","Humidity":"79","Sea Level PressureIn":"30.33","VisibilityMPH":"-9999","Wind Direction":"SE","Wind SpeedMPH":"8.9","Gust SpeedMPH":"-","PrecipitationIn":"N/A","Events":"","Conditions":"Clear","FullMetar":"METAR UWKD 140600Z 14004MPS CAVOK M11/M14 Q1027 R11/CLRD60 NOSIG RMK QFE760/1013","WindDirDegrees":"140","DateUTC\r":"2/14/16 6:00\r"},{"TimeMSK":"9:30 AM","TemperatureF":"12.2","Dew PointF":"6.8","Humidity":"79","Sea Level PressureIn":"30.33","VisibilityMPH":"-9999","Wind Direction":"SSE","Wind SpeedMPH":"6.7","Gust SpeedMPH":"-","PrecipitationIn":"N/A","Events":"","Conditions":"Clear","FullMetar":"METAR UWKD 140630Z 15003MPS CAVOK M11/M14 Q1027 R11/CLRD60 NOSIG RMK QFE760/1013","WindDirDegrees":"150","DateUTC\r":"2/14/16 6:30\r"},{"TimeMSK":"10:00 AM","TemperatureF":"14","Dew PointF":"8.6","Humidity":"79","Sea Level PressureIn":"30.33","VisibilityMPH":"-9999","Wind Direction":"SSE","Wind SpeedMPH":"6.7","Gust SpeedMPH":"-","PrecipitationIn":"N/A","Events":"","Conditions":"Clear","FullMetar":"METAR UWKD 140700Z 15003MPS CAVOK M10/M13 Q1027 R11/CLRD60 NOSIG RMK QFE760/1013","WindDirDegrees":"150","DateUTC\r":"2/14/16 7:00\r"},{"TimeMSK":"10:30 AM","TemperatureF":"12.2","Dew PointF":"6.8","Humidity":"79","Sea Level PressureIn":"30.33","VisibilityMPH":"-9999","Wind Direction":"SE","Wind SpeedMPH":"6.7","Gust SpeedMPH":"-","PrecipitationIn":"N/A","Events":"","Conditions":"Clear","FullMetar":"METAR UWKD 140730Z 13003MPS CAVOK M11/M14 Q1027 R11/CLRD60 NOSIG RMK QFE760/1013","WindDirDegrees":"130","DateUTC\r":"2/14/16 7:30\r"},{"TimeMSK":"11:00 AM","TemperatureF":"14","Dew PointF":"6.8","Humidity":"73","Sea Level PressureIn":"30.33","VisibilityMPH":"-9999","Wind Direction":"SE","Wind SpeedMPH":"6.7","Gust SpeedMPH":"-","PrecipitationIn":"N/A","Events":"","Conditions":"Clear","FullMetar":"METAR UWKD 140800Z 13003MPS CAVOK M10/M14 Q1027 R11/CLRD60 NOSIG RMK QFE760/1013","WindDirDegrees":"130","DateUTC\r":"2/14/16 8:00\r"},{"TimeMSK":"11:30 AM","TemperatureF":"15.8","Dew PointF":"8.6","Humidity":"73","Sea Level PressureIn":"30.33","VisibilityMPH":"-9999","Wind Direction":"SE","Wind SpeedMPH":"6.7","Gust SpeedMPH":"-","PrecipitationIn":"N/A","Events":"","Conditions":"Clear","FullMetar":"METAR UWKD 140830Z 13003MPS CAVOK M09/M13 Q1027 R11/CLRD60 NOSIG RMK QFE760/1013","WindDirDegrees":"130","DateUTC\r":"2/14/16 8:30\r"},{"TimeMSK":"12:00 PM","TemperatureF":"18","Dew PointF":"8","Humidity":"53","Sea Level PressureIn":"30.38","VisibilityMPH":"6","Wind Direction":"SSE","Wind SpeedMPH":"6.7","Gust SpeedMPH":"","PrecipitationIn":"","Events":"","Conditions":"","FullMetar":"AAXX 14091 27595 42997 01603 11075 21132 30129 40285 57002","WindDirDegrees":"160","DateUTC\r":"2/14/16 9:00\r"},{"TimeMSK":"12:00 PM","TemperatureF":"15.8","Dew PointF":"10.4","Humidity":"79","Sea Level PressureIn":"30.33","VisibilityMPH":"-9999","Wind Direction":"SE","Wind SpeedMPH":"8.9","Gust SpeedMPH":"-","PrecipitationIn":"N/A","Events":"","Conditions":"Clear","FullMetar":"METAR UWKD 140900Z 13004MPS CAVOK M09/M12 Q1027 R11/CLRD60 NOSIG RMK QFE760/1013","WindDirDegrees":"130","DateUTC\r":"2/14/16 9:00\r"},{"TimeMSK":"12:30 PM","TemperatureF":"17.6","Dew PointF":"12.2","Humidity":"79","Sea Level PressureIn":"30.33","VisibilityMPH":"-9999","Wind Direction":"SSE","Wind SpeedMPH":"8.9","Gust SpeedMPH":"-","PrecipitationIn":"N/A","Events":"","Conditions":"Clear","FullMetar":"METAR UWKD 140930Z 15004MPS CAVOK M08/M11 Q1027 R11/CLRD60 NOSIG RMK QFE760/1013","WindDirDegrees":"150","DateUTC\r":"2/14/16 9:30\r"},{"TimeMSK":"1:00 PM","TemperatureF":"19.4","Dew PointF":"14","Humidity":"80","Sea Level PressureIn":"30.33","VisibilityMPH":"6.2","Wind Direction":"SSE","Wind SpeedMPH":"6.7","Gust SpeedMPH":"-","PrecipitationIn":"N/A","Events":"","Conditions":"Partly Cloudy","FullMetar":"METAR UWKD 141000Z 15003MPS 9999 FEW009 M07/M10 Q1027 R11/CLRD60 NOSIG RMK QFE760/1013","WindDirDegrees":"150","DateUTC\r":"2/14/16 10:00\r"},{"TimeMSK":"1:30 PM","TemperatureF":"19.4","Dew PointF":"15.8","Humidity":"86","Sea Level PressureIn":"30.33","VisibilityMPH":"6.2","Wind Direction":"SSE","Wind SpeedMPH":"11.2","Gust SpeedMPH":"-","PrecipitationIn":"N/A","Events":"","Conditions":"Partly Cloudy","FullMetar":"METAR UWKD 141030Z 15005MPS 9999 FEW010 M07/M09 Q1027 R11/CLRD60 NOSIG RMK QFE760/1013","WindDirDegrees":"150","DateUTC\r":"2/14/16 10:30\r"},{"TimeMSK":"2:00 PM","TemperatureF":"19.4","Dew PointF":"14","Humidity":"80","Sea Level PressureIn":"30.33","VisibilityMPH":"6.2","Wind Direction":"South","Wind SpeedMPH":"8.9","Gust SpeedMPH":"-","PrecipitationIn":"N/A","Events":"","Conditions":"Mostly Cloudy","FullMetar":"METAR UWKD 141100Z 17004MPS 9999 BKN013 M07/M10 Q1027 R11/CLRD60 NOSIG RMK QFE760/1014","WindDirDegrees":"170","DateUTC\r":"2/14/16 11:00\r"},{"TimeMSK":"2:30 PM","TemperatureF":"19.4","Dew PointF":"14","Humidity":"80","Sea Level PressureIn":"30.33","VisibilityMPH":"6.2","Wind Direction":"SSE","Wind SpeedMPH":"6.7","Gust SpeedMPH":"-","PrecipitationIn":"N/A","Events":"","Conditions":"Mostly Cloudy","FullMetar":"METAR UWKD 141130Z 15003MPS 9999 BKN012 M07/M10 Q1027 R11/CLRD60 NOSIG RMK QFE760/1014","WindDirDegrees":"150","DateUTC\r":"2/14/16 11:30\r"},{"TimeMSK":"3:00 PM","TemperatureF":"21","Dew PointF":"14","Humidity":"63","Sea Level PressureIn":"30.4","VisibilityMPH":"6","Wind Direction":"SE","Wind SpeedMPH":"4.5","Gust SpeedMPH":"","PrecipitationIn":"","Events":"","Conditions":"Overcast","FullMetar":"AAXX 14121 27595 42497 81302 11061 21102 30137 40292 52008 885// 333 88617","WindDirDegrees":"130","DateUTC\r":"2/14/16 12:00\r"},{"TimeMSK":"3:00 PM","TemperatureF":"17.6","Dew PointF":"12.2","Humidity":"79","Sea Level PressureIn":"30.33","VisibilityMPH":"6.2","Wind Direction":"SE","Wind SpeedMPH":"8.9","Gust SpeedMPH":"-","PrecipitationIn":"N/A","Events":"","Conditions":"Scattered Clouds","FullMetar":"METAR UWKD 141200Z 13004MPS 9999 SCT015 M08/M11 Q1027 R11/CLRD60 NOSIG RMK QFE760/1014","WindDirDegrees":"130","DateUTC\r":"2/14/16 12:00\r"},{"TimeMSK":"3:30 PM","TemperatureF":"14","Dew PointF":"10.4","Humidity":"86","Sea Level PressureIn":"30.36","VisibilityMPH":"-9999","Wind Direction":"ESE","Wind SpeedMPH":"6.7","Gust SpeedMPH":"-","PrecipitationIn":"N/A","Events":"","Conditions":"Clear","FullMetar":"METAR UWKD 141230Z 12003MPS CAVOK M10/M12 Q1028 R11/CLRD60 NOSIG RMK QFE760/1014","WindDirDegrees":"120","DateUTC\r":"2/14/16 12:30\r"},{"TimeMSK":"4:00 PM","TemperatureF":"15.8","Dew PointF":"10.4","Humidity":"79","Sea Level PressureIn":"30.36","VisibilityMPH":"6.2","Wind Direction":"ESE","Wind SpeedMPH":"13.4","Gust SpeedMPH":"-","PrecipitationIn":"N/A","Events":"","Conditions":"Partly Cloudy","FullMetar":"METAR UWKD 141300Z 12006MPS 9999 FEW015 M09/M12 Q1028 R11/CLRD60 NOSIG RMK QFE760/1014","WindDirDegrees":"120","DateUTC\r":"2/14/16 13:00\r"},{"TimeMSK":"4:30 PM","TemperatureF":"15.8","Dew PointF":"10.4","Humidity":"79","Sea Level PressureIn":"30.36","VisibilityMPH":"6.2","Wind Direction":"ESE","Wind SpeedMPH":"15.7","Gust SpeedMPH":"-","PrecipitationIn":"N/A","Events":"","Conditions":"Partly Cloudy","FullMetar":"METAR UWKD 141330Z 12007MPS 9999 FEW020 M09/M12 Q1028 R11/CLRD60 NOSIG RMK QFE760/1014","WindDirDegrees":"120","DateUTC\r":"2/14/16 13:30\r"},{"TimeMSK":"5:00 PM","TemperatureF":"14","Dew PointF":"10.4","Humidity":"86","Sea Level PressureIn":"30.36","VisibilityMPH":"6.2","Wind Direction":"ESE","Wind SpeedMPH":"13.4","Gust SpeedMPH":"-","PrecipitationIn":"N/A","Events":"","Conditions":"Partly Cloudy","FullMetar":"METAR UWKD 141400Z 12006MPS 9999 FEW018 M10/M12 Q1028 R11/CLRD60 NOSIG RMK QFE760/1014","WindDirDegrees":"120","DateUTC\r":"2/14/16 14:00\r"},{"TimeMSK":"5:30 PM","TemperatureF":"12.2","Dew PointF":"8.6","Humidity":"85","Sea Level PressureIn":"30.36","VisibilityMPH":"6.2","Wind Direction":"ESE","Wind SpeedMPH":"13.4","Gust SpeedMPH":"-","PrecipitationIn":"N/A","Events":"","Conditions":"Partly Cloudy","FullMetar":"METAR UWKD 141430Z 12006MPS 9999 FEW017 M11/M13 Q1028 R11/CLRD60 NOSIG RMK QFE760/1014","WindDirDegrees":"120","DateUTC\r":"2/14/16 14:30\r"},{"TimeMSK":"6:00 PM","TemperatureF":"17","Dew PointF":"10","Humidity":"64","Sea Level PressureIn":"30.41","VisibilityMPH":"6","Wind Direction":"ESE","Wind SpeedMPH":"4.5","Gust SpeedMPH":"","PrecipitationIn":"","Events":"","Conditions":"Scattered Clouds","FullMetar":"AAXX 14151 27595 12997 21102 11083 21122 30139 40296 52002 60002 82030 333 11060","WindDirDegrees":"110","DateUTC\r":"2/14/16 15:00\r"},{"TimeMSK":"6:00 PM","TemperatureF":"12.2","Dew PointF":"8.6","Humidity":"85","Sea Level PressureIn":"30.36","VisibilityMPH":"6.2","Wind Direction":"ESE","Wind SpeedMPH":"11.2","Gust SpeedMPH":"-","PrecipitationIn":"N/A","Events":"","Conditions":"Partly Cloudy","FullMetar":"METAR UWKD 141500Z 12005MPS 9999 FEW016 M11/M13 Q1028 R11/CLRD60 NOSIG RMK QFE760/1014","WindDirDegrees":"120","DateUTC\r":"2/14/16 15:00\r"},{"TimeMSK":"6:30 PM","TemperatureF":"12.2","Dew PointF":"8.6","Humidity":"85","Sea Level PressureIn":"30.36","VisibilityMPH":"-9999","Wind Direction":"ESE","Wind SpeedMPH":"11.2","Gust SpeedMPH":"-","PrecipitationIn":"N/A","Events":"","Conditions":"Clear","FullMetar":"METAR UWKD 141530Z 12005MPS CAVOK M11/M13 Q1028 R11/CLRD60 NOSIG RMK QFE760/1014","WindDirDegrees":"120","DateUTC\r":"2/14/16 15:30\r"},{"TimeMSK":"7:00 PM","TemperatureF":"12.2","Dew PointF":"10.4","Humidity":"92","Sea Level PressureIn":"30.36","VisibilityMPH":"-9999","Wind Direction":"ESE","Wind SpeedMPH":"11.2","Gust SpeedMPH":"-","PrecipitationIn":"N/A","Events":"","Conditions":"Clear","FullMetar":"METAR UWKD 141600Z 12005MPS CAVOK M11/M12 Q1028 R11/CLRD60 NOSIG RMK QFE760/1014","WindDirDegrees":"120","DateUTC\r":"2/14/16 16:00\r"},{"TimeMSK":"7:30 PM","TemperatureF":"14","Dew PointF":"10.4","Humidity":"86","Sea Level PressureIn":"30.33","VisibilityMPH":"-9999","Wind Direction":"ESE","Wind SpeedMPH":"15.7","Gust SpeedMPH":"-","PrecipitationIn":"N/A","Events":"","Conditions":"Clear","FullMetar":"METAR UWKD 141630Z 12007MPS CAVOK M10/M12 Q1027 R11/CLRD60 NOSIG RMK QFE760/1014","WindDirDegrees":"120","DateUTC\r":"2/14/16 16:30\r"},{"TimeMSK":"8:00 PM","TemperatureF":"14","Dew PointF":"12.2","Humidity":"93","Sea Level PressureIn":"30.33","VisibilityMPH":"6.2","Wind Direction":"ESE","Wind SpeedMPH":"13.4","Gust SpeedMPH":"-","PrecipitationIn":"N/A","Events":"","Conditions":"Scattered Clouds","FullMetar":"METAR UWKD 141700Z 12006MPS 9999 SCT030 M10/M11 Q1027 R11/CLRD60 NOSIG RMK QFE760/1014","WindDirDegrees":"120","DateUTC\r":"2/14/16 17:00\r"},{"TimeMSK":"8:30 PM","TemperatureF":"15.8","Dew PointF":"14","Humidity":"93","Sea Level PressureIn":"30.33","VisibilityMPH":"6.2","Wind Direction":"ESE","Wind SpeedMPH":"15.7","Gust SpeedMPH":"-","PrecipitationIn":"N/A","Events":"","Conditions":"Mostly Cloudy","FullMetar":"METAR UWKD 141730Z 12007MPS 9999 BKN032 M09/M10 Q1027 R11/CLRD60 NOSIG RMK QFE760/1014","WindDirDegrees":"120","DateUTC\r":"2/14/16 17:30\r"},{"TimeMSK":"9:00 PM","TemperatureF":"19","Dew PointF":"15","Humidity":"78","Sea Level PressureIn":"30.39","VisibilityMPH":"6","Wind Direction":"ESE","Wind SpeedMPH":"4.5","Gust SpeedMPH":"","PrecipitationIn":"","Events":"","Conditions":"Overcast","FullMetar":"AAXX 14181 27595 42697 81102 11071 21094 30135 40291 57004 885// 333 88636","WindDirDegrees":"110","DateUTC\r":"2/14/16 18:00\r"},{"TimeMSK":"9:00 PM","TemperatureF":"15.8","Dew PointF":"14","Humidity":"93","Sea Level PressureIn":"30.33","VisibilityMPH":"6.2","Wind Direction":"ESE","Wind SpeedMPH":"8.9","Gust SpeedMPH":"20.1","PrecipitationIn":"N/A","Events":"","Conditions":"Mostly Cloudy","FullMetar":"METAR UWKD 141800Z 12004G09MPS 9999 BKN035 M09/M10 Q1027 R11/CLRD60 NOSIG RMK QFE760/1013","WindDirDegrees":"120","DateUTC\r":"2/14/16 18:00\r"},{"TimeMSK":"9:30 PM","TemperatureF":"14","Dew PointF":"12.2","Humidity":"93","Sea Level PressureIn":"30.33","VisibilityMPH":"6.2","Wind Direction":"SE","Wind SpeedMPH":"13.4","Gust SpeedMPH":"-","PrecipitationIn":"N/A","Events":"","Conditions":"Scattered Clouds","FullMetar":"METAR UWKD 141830Z 13006MPS 9999 SCT036 M10/M11 Q1027 R11/CLRD60 NOSIG RMK QFE760/1014","WindDirDegrees":"130","DateUTC\r":"2/14/16 18:30\r"},{"TimeMSK":"10:00 PM","TemperatureF":"15.8","Dew PointF":"14","Humidity":"93","Sea Level PressureIn":"30.33","VisibilityMPH":"-9999","Wind Direction":"ESE","Wind SpeedMPH":"15.7","Gust SpeedMPH":"-","PrecipitationIn":"N/A","Events":"","Conditions":"Clear","FullMetar":"METAR UWKD 141900Z 12007MPS CAVOK M09/M10 Q1027 R11/CLRD60 NOSIG RMK QFE760/1014","WindDirDegrees":"120","DateUTC\r":"2/14/16 19:00\r"},{"TimeMSK":"10:30 PM","TemperatureF":"15.8","Dew PointF":"14","Humidity":"93","Sea Level PressureIn":"30.33","VisibilityMPH":"-9999","Wind Direction":"ESE","Wind SpeedMPH":"13.4","Gust SpeedMPH":"-","PrecipitationIn":"N/A","Events":"","Conditions":"Clear","FullMetar":"METAR UWKD 141930Z 12006MPS CAVOK M09/M10 Q1027 R11/CLRD60 NOSIG RMK QFE760/1014","WindDirDegrees":"120","DateUTC\r":"2/14/16 19:30\r"},{"TimeMSK":"11:00 PM","TemperatureF":"15.8","Dew PointF":"14","Humidity":"93","Sea Level PressureIn":"30.33","VisibilityMPH":"6.2","Wind Direction":"ESE","Wind SpeedMPH":"11.2","Gust SpeedMPH":"-","PrecipitationIn":"N/A","Events":"","Conditions":"Mostly Cloudy","FullMetar":"METAR UWKD 142000Z 12005MPS 9999 BKN012 M09/M10 Q1027 R11/CLRD60 NOSIG RMK QFE760/1014","WindDirDegrees":"120","DateUTC\r":"2/14/16 20:00\r"},{"TimeMSK":"11:30 PM","TemperatureF":"15.8","Dew PointF":"12.2","Humidity":"86","Sea Level PressureIn":"30.33","VisibilityMPH":"6.2","Wind Direction":"ESE","Wind SpeedMPH":"11.2","Gust SpeedMPH":"-","PrecipitationIn":"N/A","Events":"","Conditions":"Mostly Cloudy","FullMetar":"METAR UWKD 142030Z 12005MPS 9999 BKN012 M09/M11 Q1027 R11/CLRD60 NOSIG RMK QFE760/1014","WindDirDegrees":"120","DateUTC\r":"2/14/16 20:30\r"},{"TimeMSK":"12:00 AM","TemperatureF":"19","Dew PointF":"15","Humidity":"79","Sea Level PressureIn":"30.39","VisibilityMPH":"6","Wind Direction":"SE","Wind SpeedMPH":"4.5","Gust SpeedMPH":"","PrecipitationIn":"","Events":"","Conditions":"Scattered Clouds","FullMetar":"AAXX 14211 27595 42997 21302 11074 21093 30134 40290 54001 82030","WindDirDegrees":"130","DateUTC\r":"2/14/16 21:00\r"},{"TimeMSK":"12:00 AM","TemperatureF":"15.8","Dew PointF":"14","Humidity":"93","Sea Level PressureIn":"30.33","VisibilityMPH":"6.2","Wind Direction":"SE","Wind SpeedMPH":"13.4","Gust SpeedMPH":"-","PrecipitationIn":"N/A","Events":"","Conditions":"Partly Cloudy","FullMetar":"METAR UWKD 142100Z 13006MPS 9999 FEW010 M09/M10 Q1027 R11/CLRD60 NOSIG RMK QFE760/1013","WindDirDegrees":"130","DateUTC\r":"2/14/16 21:00\r"},{"TimeMSK":"12:30 AM","TemperatureF":"14","Dew PointF":"12.2","Humidity":"93","Sea Level PressureIn":"30.33","VisibilityMPH":"-9999","Wind Direction":"SE","Wind SpeedMPH":"11.2","Gust SpeedMPH":"-","PrecipitationIn":"N/A","Events":"","Conditions":"Clear","FullMetar":"METAR UWKD 142130Z 13005MPS CAVOK M10/M11 Q1027 R11/CLRD60 NOSIG RMK QFE760/1014","WindDirDegrees":"130","DateUTC\r":"2/14/16 21:30\r"},{"TimeMSK":"1:00 AM","TemperatureF":"15.8","Dew PointF":"14","Humidity":"93","Sea Level PressureIn":"30.33","VisibilityMPH":"-9999","Wind Direction":"SE","Wind SpeedMPH":"13.4","Gust SpeedMPH":"-","PrecipitationIn":"N/A","Events":"","Conditions":"Clear","FullMetar":"METAR UWKD 142200Z 13006MPS CAVOK M09/M10 Q1027 R11/CLRD60 NOSIG RMK QFE760/1013","WindDirDegrees":"130","DateUTC\r":"2/14/16 22:00\r"},{"TimeMSK":"1:30 AM","TemperatureF":"17.6","Dew PointF":"15.8","Humidity":"93","Sea Level PressureIn":"30.33","VisibilityMPH":"-9999","Wind Direction":"SE","Wind SpeedMPH":"11.2","Gust SpeedMPH":"-","PrecipitationIn":"N/A","Events":"","Conditions":"Clear","FullMetar":"METAR UWKD 142230Z 13005MPS CAVOK M08/M09 Q1027 R11/CLRD60 NOSIG RMK QFE760/1014","WindDirDegrees":"130","DateUTC\r":"2/14/16 22:30\r"},{"TimeMSK":"2:00 AM","TemperatureF":"17.6","Dew PointF":"15.8","Humidity":"93","Sea Level PressureIn":"30.36","VisibilityMPH":"-9999","Wind Direction":"SE","Wind SpeedMPH":"8.9","Gust SpeedMPH":"20.1","PrecipitationIn":"N/A","Events":"","Conditions":"Clear","FullMetar":"METAR UWKD 142300Z 14004G09MPS CAVOK M08/M09 Q1028 R11/CLRD60 NOSIG RMK QFE760/1014","WindDirDegrees":"140","DateUTC\r":"2/14/16 23:00\r"},{"TimeMSK":"2:30 AM","TemperatureF":"17.6","Dew PointF":"15.8","Humidity":"93","Sea Level PressureIn":"30.36","VisibilityMPH":"-9999","Wind Direction":"SE","Wind SpeedMPH":"13.4","Gust SpeedMPH":"-","PrecipitationIn":"N/A","Events":"","Conditions":"Clear","FullMetar":"METAR UWKD 142330Z 14006MPS CAVOK M08/M09 Q1028 R11/CLRD60 NOSIG RMK QFE760/1014","WindDirDegrees":"140","DateUTC\r":"2/14/16 23:30\r"},{"TimeMSK":"3:00 AM","TemperatureF":"18","Dew PointF":"14","Humidity":"77","Sea Level PressureIn":"30.4","VisibilityMPH":"6","Wind Direction":"SE","Wind SpeedMPH":"6.7","Gust SpeedMPH":"","PrecipitationIn":"","Events":"","Conditions":"Overcast","FullMetar":"AAXX 15001 27595 42597 81303 11080 21100 30136 40293 52002 885// 333 88630","WindDirDegrees":"130","DateUTC\r":"2/15/16 0:00\r"},{"TimeMSK":"3:00 AM","TemperatureF":"17.6","Dew PointF":"15.8","Humidity":"93","Sea Level PressureIn":"30.33","VisibilityMPH":"6.2","Wind Direction":"SE","Wind SpeedMPH":"13.4","Gust SpeedMPH":"-","PrecipitationIn":"N/A","Events":"","Conditions":"Mostly Cloudy","FullMetar":"METAR UWKD 150000Z 14006MPS 9999 BKN034 M08/M09 Q1027 R11/CLRD60 NOSIG RMK QFE760/1014","WindDirDegrees":"140","DateUTC\r":"2/15/16 0:00\r"},{"TimeMSK":"3:30 AM","TemperatureF":"19.4","Dew PointF":"15.8","Humidity":"86","Sea Level PressureIn":"30.33","VisibilityMPH":"6.2","Wind Direction":"SE","Wind SpeedMPH":"15.7","Gust SpeedMPH":"-","PrecipitationIn":"N/A","Events":"","Conditions":"Mostly Cloudy","FullMetar":"METAR UWKD 150030Z 14007MPS 9999 BKN023 M07/M09 Q1027 R11/CLRD60 NOSIG RMK QFE760/1014","WindDirDegrees":"140","DateUTC\r":"2/15/16 0:30\r"},{"TimeMSK":"4:00 AM","TemperatureF":"19.4","Dew PointF":"15.8","Humidity":"86","Sea Level PressureIn":"30.33","VisibilityMPH":"6.2","Wind Direction":"SE","Wind SpeedMPH":"13.4","Gust SpeedMPH":"-","PrecipitationIn":"N/A","Events":"","Conditions":"Mostly Cloudy","FullMetar":"METAR UWKD 150100Z 14006MPS 9999 BKN044 M07/M09 Q1027 R11/CLRD60 NOSIG RMK QFE760/1014","WindDirDegrees":"140","DateUTC\r":"2/15/16 1:00\r"},{"TimeMSK":"4:30 AM","TemperatureF":"19.4","Dew PointF":"15.8","Humidity":"86","Sea Level PressureIn":"30.33","VisibilityMPH":"6.2","Wind Direction":"SSE","Wind SpeedMPH":"13.4","Gust SpeedMPH":"-","PrecipitationIn":"N/A","Events":"","Conditions":"Mostly Cloudy","FullMetar":"METAR UWKD 150130Z 15006MPS 9999 BKN043 M07/M09 Q1027 R11/CLRD60 NOSIG RMK QFE760/1013","WindDirDegrees":"150","DateUTC\r":"2/15/16 1:30\r"},{"TimeMSK":"5:00 AM","TemperatureF":"19.4","Dew PointF":"15.8","Humidity":"86","Sea Level PressureIn":"30.33","VisibilityMPH":"6.2","Wind Direction":"SE","Wind SpeedMPH":"11.2","Gust SpeedMPH":"22.4","PrecipitationIn":"N/A","Events":"","Conditions":"Mostly Cloudy","FullMetar":"METAR UWKD 150200Z 14005G10MPS 9999 BKN033 M07/M09 Q1027 R11/CLRD60 NOSIG RMK QFE760/1014","WindDirDegrees":"140","DateUTC\r":"2/15/16 2:00\r"},{"TimeMSK":"5:30 AM","TemperatureF":"19.4","Dew PointF":"17.6","Humidity":"93","Sea Level PressureIn":"30.33","VisibilityMPH":"6.2","Wind Direction":"SE","Wind SpeedMPH":"11.2","Gust SpeedMPH":"22.4","PrecipitationIn":"N/A","Events":"Snow","Conditions":"Light Snow","FullMetar":"METAR UWKD 150230Z 14005G10MPS 9999 -SN BKN036 M07/M08 Q1027 R11/CLRD60 NOSIG RMK QFE760/1014","WindDirDegrees":"140","DateUTC\r":"2/15/16 2:30\r"},{"TimeMSK":"6:00 AM","TemperatureF":"19","Dew PointF":"15","Humidity":"79","Sea Level PressureIn":"30.39","VisibilityMPH":"1","Wind Direction":"SE","Wind SpeedMPH":"6.7","Gust SpeedMPH":"","PrecipitationIn":"","Events":"Snow","Conditions":"Light Snow","FullMetar":"AAXX 15031 27595 11694 81303 11071 21093 30135 40291 55001 69902 77172 885// 333 21085 47043 55050 88639","WindDirDegrees":"130","DateUTC\r":"2/15/16 3:00\r"},{"TimeMSK":"6:00 AM","TemperatureF":"19.4","Dew PointF":"17.6","Humidity":"93","Sea Level PressureIn":"30.33","VisibilityMPH":"5.6","Wind Direction":"SE","Wind SpeedMPH":"15.7","Gust SpeedMPH":"-","PrecipitationIn":"N/A","Events":"Snow","Conditions":"Light Snow","FullMetar":"METAR UWKD 150300Z 14007MPS 9000 -SN OVC037 M07/M08 Q1027 R11/CLRD60 TEMPO 2000 SN BLSN OVC006 RMK QFE760/1014","WindDirDegrees":"140","DateUTC\r":"2/15/16 3:00\r"},{"TimeMSK":"6:30 AM","TemperatureF":"19.4","Dew PointF":"17.6","Humidity":"93","Sea Level PressureIn":"30.33","VisibilityMPH":"6.2","Wind Direction":"SE","Wind SpeedMPH":"13.4","Gust SpeedMPH":"-","PrecipitationIn":"N/A","Events":"Snow","Conditions":"Light Snow","FullMetar":"METAR UWKD 150330Z 14006MPS 9999 -SN OVC040 M07/M08 Q1027 R11/CLRD60 TEMPO 2000 SN BLSN OVC006 RMK QFE760/1014","WindDirDegrees":"140","DateUTC\r":"2/15/16 3:30\r"},{"TimeMSK":"7:00 AM","TemperatureF":"19.4","Dew PointF":"17.6","Humidity":"93","Sea Level PressureIn":"30.33","VisibilityMPH":"6.2","Wind Direction":"SE","Wind SpeedMPH":"13.4","Gust SpeedMPH":"24.6","PrecipitationIn":"N/A","Events":"Snow","Conditions":"Light Snow","FullMetar":"METAR UWKD 150400Z 14006G11MPS 9999 -SN DRSN OVC046 M07/M08 Q1027 R11/CLRD60 TEMPO 2000 SN BLSN OVC006 RMK QFE760/1013","WindDirDegrees":"140","DateUTC\r":"2/15/16 4:00\r"},{"TimeMSK":"7:30 AM","TemperatureF":"21.2","Dew PointF":"17.6","Humidity":"86","Sea Level PressureIn":"30.33","VisibilityMPH":"4.3","Wind Direction":"SSE","Wind SpeedMPH":"11.2","Gust SpeedMPH":"22.4","PrecipitationIn":"N/A","Events":"Snow","Conditions":"Light Snow","FullMetar":"METAR UWKD 150430Z 15005G10MPS 7000 -SN DRSN OVC046 M06/M08 Q1027 R11/CLRD60 TEMPO 2000 SN BLSN OVC006 RMK QFE760/1014","WindDirDegrees":"150","DateUTC\r":"2/15/16 4:30\r"},{"TimeMSK":"8:00 AM","TemperatureF":"21.2","Dew PointF":"17.6","Humidity":"86","Sea Level PressureIn":"30.33","VisibilityMPH":"6.2","Wind Direction":"SE","Wind SpeedMPH":"11.2","Gust SpeedMPH":"22.4","PrecipitationIn":"N/A","Events":"Snow","Conditions":"Light Snow","FullMetar":"METAR UWKD 150500Z 14005G10MPS 9999 -SN DRSN OVC045 M06/M08 Q1027 R11/CLRD60 TEMPO 2000 SN BLSN OVC006 RMK QFE760/1014","WindDirDegrees":"140","DateUTC\r":"2/15/16 5:00\r"},{"TimeMSK":"8:30 AM","TemperatureF":"21.2","Dew PointF":"17.6","Humidity":"86","Sea Level PressureIn":"30.33","VisibilityMPH":"6.2","Wind Direction":"SE","Wind SpeedMPH":"11.2","Gust SpeedMPH":"22.4","PrecipitationIn":"N/A","Events":"Snow","Conditions":"Light Snow","FullMetar":"METAR UWKD 150530Z 14005G10MPS 9999 -SN DRSN OVC045 M06/M08 Q1027 R11/CLRD60 TEMPO 2000 SN BLSN OVC006 RMK QFE760/1013","WindDirDegrees":"140","DateUTC\r":"2/15/16 5:30\r"},{"TimeMSK":"9:00 AM","TemperatureF":"21","Dew PointF":"17","Humidity":"76","Sea Level PressureIn":"30.38","VisibilityMPH":"6","Wind Direction":"ESE","Wind SpeedMPH":"6.7","Gust SpeedMPH":"","PrecipitationIn":"","Events":"Snow","Conditions":"Light Snow","FullMetar":"AAXX 15061 27595 41497 81203 11063 21085 30132 40287 57003 77172 8472/","WindDirDegrees":"120","DateUTC\r":"2/15/16 6:00\r"},{"TimeMSK":"9:00 AM","TemperatureF":"21.2","Dew PointF":"19.4","Humidity":"93","Sea Level PressureIn":"30.33","VisibilityMPH":"6.2","Wind Direction":"SE","Wind SpeedMPH":"11.2","Gust SpeedMPH":"22.4","PrecipitationIn":"N/A","Events":"Snow","Conditions":"Light Snow","FullMetar":"METAR UWKD 150600Z 13005G10MPS 9999 -SN DRSN OVC033 M06/M07 Q1027 R11/CLRD60 NOSIG RMK QFE760/1013","WindDirDegrees":"130","DateUTC\r":"2/15/16 6:00\r"},{"TimeMSK":"9:30 AM","TemperatureF":"21.2","Dew PointF":"19.4","Humidity":"93","Sea Level PressureIn":"30.33","VisibilityMPH":"2.5","Wind Direction":"SE","Wind SpeedMPH":"11.2","Gust SpeedMPH":"22.4","PrecipitationIn":"N/A","Events":"Snow","Conditions":"Light Snow","FullMetar":"METAR UWKD 150630Z 14005G10MPS 4000 -SN BLSN OVC050 M06/M07 Q1027 R11/420350 NOSIG RMK QFE760/1013","WindDirDegrees":"140","DateUTC\r":"2/15/16 6:30\r"},{"TimeMSK":"10:00 AM","TemperatureF":"21.2","Dew PointF":"19.4","Humidity":"93","Sea Level PressureIn":"30.33","VisibilityMPH":"-9999","Wind Direction":"SE","Wind SpeedMPH":"13.4","Gust SpeedMPH":"-","PrecipitationIn":"N/A","Events":"","Conditions":"Clear","FullMetar":"METAR UWKD 150700Z 14006MPS CAVOK M06/M07 Q1027 R11/450542 NOSIG RMK QFE760/1014","WindDirDegrees":"140","DateUTC\r":"2/15/16 7:00\r"},{"TimeMSK":"10:30 AM","TemperatureF":"21.2","Dew PointF":"19.4","Humidity":"93","Sea Level PressureIn":"30.33","VisibilityMPH":"-9999","Wind Direction":"SE","Wind SpeedMPH":"15.7","Gust SpeedMPH":"-","PrecipitationIn":"N/A","Events":"","Conditions":"Clear","FullMetar":"METAR UWKD 150730Z 14007MPS CAVOK M06/M07 Q1027 R11/450542 NOSIG RMK QFE760/1014","WindDirDegrees":"140","DateUTC\r":"2/15/16 7:30\r"},{"TimeMSK":"11:00 AM","TemperatureF":"23","Dew PointF":"19.4","Humidity":"86","Sea Level PressureIn":"30.33","VisibilityMPH":"5.6","Wind Direction":"SE","Wind SpeedMPH":"15.7","Gust SpeedMPH":"26.8","PrecipitationIn":"N/A","Events":"","Conditions":"Unknown","FullMetar":"METAR UWKD 150800Z 14007G12MPS 9000 NSC M05/M07 Q1027 R11/450542 NOSIG RMK QFE760/1013","WindDirDegrees":"140","DateUTC\r":"2/15/16 8:00\r"},{"TimeMSK":"11:30 AM","TemperatureF":"23","Dew PointF":"19.4","Humidity":"86","Sea Level PressureIn":"30.33","VisibilityMPH":"-9999","Wind Direction":"SE","Wind SpeedMPH":"17.9","Gust SpeedMPH":"-","PrecipitationIn":"N/A","Events":"","Conditions":"Clear","FullMetar":"METAR UWKD 150830Z 14008MPS CAVOK M05/M07 Q1027 R11/450542 NOSIG RMK QFE760/1013","WindDirDegrees":"140","DateUTC\r":"2/15/16 8:30\r"},{"TimeMSK":"12:00 PM","TemperatureF":"23","Dew PointF":"18","Humidity":"73","Sea Level PressureIn":"30.39","VisibilityMPH":"6","Wind Direction":"SE","Wind SpeedMPH":"4.5","Gust SpeedMPH":"","PrecipitationIn":"","Events":"","Conditions":"Partly Cloudy","FullMetar":"AAXX 15091 27595 41997 81402 11050 21078 30134 40289 53002 70272 8802/","WindDirDegrees":"140","DateUTC\r":"2/15/16 9:00\r"},{"TimeMSK":"12:00 PM","TemperatureF":"23","Dew PointF":"19.4","Humidity":"86","Sea Level PressureIn":"30.33","VisibilityMPH":"6.2","Wind Direction":"SE","Wind SpeedMPH":"15.7","Gust SpeedMPH":"26.8","PrecipitationIn":"N/A","Events":"","Conditions":"Scattered Clouds","FullMetar":"METAR UWKD 150900Z 14007G12MPS 9999 SCT013 M05/M07 Q1027 R11/450542 NOSIG RMK QFE760/1013","WindDirDegrees":"140","DateUTC\r":"2/15/16 9:00\r"},{"TimeMSK":"12:30 PM","TemperatureF":"23","Dew PointF":"19.4","Humidity":"86","Sea Level PressureIn":"30.33","VisibilityMPH":"6.2","Wind Direction":"SE","Wind SpeedMPH":"15.7","Gust SpeedMPH":"26.8","PrecipitationIn":"N/A","Events":"Snow","Conditions":"Low Drifting Snow","FullMetar":"METAR UWKD 150930Z 14007G12MPS 9999 DRSN NSC M05/M07 Q1027 R11/420350 NOSIG RMK QFE760/1013","WindDirDegrees":"140","DateUTC\r":"2/15/16 9:30\r"},{"TimeMSK":"1:00 PM","TemperatureF":"23","Dew PointF":"19.4","Humidity":"86","Sea Level PressureIn":"30.33","VisibilityMPH":"6.2","Wind Direction":"SE","Wind SpeedMPH":"15.7","Gust SpeedMPH":"26.8","PrecipitationIn":"N/A","Events":"Snow","Conditions":"Low Drifting Snow","FullMetar":"METAR UWKD 151000Z 14007G12MPS 9999 DRSN NSC M05/M07 Q1027 R11/420350 NOSIG RMK QFE760/1013","WindDirDegrees":"140","DateUTC\r":"2/15/16 10:00\r"},{"TimeMSK":"1:30 PM","TemperatureF":"23","Dew PointF":"19.4","Humidity":"86","Sea Level PressureIn":"30.33","VisibilityMPH":"6.2","Wind Direction":"SSE","Wind SpeedMPH":"11.2","Gust SpeedMPH":"22.4","PrecipitationIn":"N/A","Events":"Snow","Conditions":"Low Drifting Snow","FullMetar":"METAR UWKD 151030Z 15005G10MPS 9999 DRSN BKN015 M05/M07 Q1027 R11/420350 NOSIG RMK QFE760/1014","WindDirDegrees":"150","DateUTC\r":"2/15/16 10:30\r"},{"TimeMSK":"2:00 PM","TemperatureF":"23","Dew PointF":"19.4","Humidity":"86","Sea Level PressureIn":"30.36","VisibilityMPH":"-9999","Wind Direction":"SE","Wind SpeedMPH":"15.7","Gust SpeedMPH":"-","PrecipitationIn":"N/A","Events":"","Conditions":"Clear","FullMetar":"METAR UWKD 151100Z 14007MPS CAVOK M05/M07 Q1028 R11/420350 NOSIG RMK QFE760/1014","WindDirDegrees":"140","DateUTC\r":"2/15/16 11:00\r"},{"TimeMSK":"2:30 PM","TemperatureF":"23","Dew PointF":"19.4","Humidity":"86","Sea Level PressureIn":"30.33","VisibilityMPH":"-9999","Wind Direction":"SE","Wind SpeedMPH":"13.4","Gust SpeedMPH":"-","PrecipitationIn":"N/A","Events":"","Conditions":"Clear","FullMetar":"METAR UWKD 151130Z 14006MPS CAVOK M05/M07 Q1027 R11/420350 NOSIG RMK QFE760/1014","WindDirDegrees":"140","DateUTC\r":"2/15/16 11:30\r"},{"TimeMSK":"3:00 PM","TemperatureF":"24","Dew PointF":"18","Humidity":"68","Sea Level PressureIn":"30.39","VisibilityMPH":"6","Wind Direction":"SE","Wind SpeedMPH":"8.9","Gust SpeedMPH":"","PrecipitationIn":"","Events":"","Conditions":"Partly Cloudy","FullMetar":"AAXX 15121 27595 41997 81404 11046 21079 30135 40290 50001 70272 8802/","WindDirDegrees":"140","DateUTC\r":"2/15/16 12:00\r"},{"TimeMSK":"3:00 PM","TemperatureF":"23","Dew PointF":"19.4","Humidity":"86","Sea Level PressureIn":"30.33","VisibilityMPH":"-9999","Wind Direction":"SE","Wind SpeedMPH":"17.9","Gust SpeedMPH":"-","PrecipitationIn":"N/A","Events":"","Conditions":"Clear","FullMetar":"METAR UWKD 151200Z 14008MPS CAVOK M05/M07 Q1027 R11/420350 NOSIG RMK QFE760/1014","WindDirDegrees":"140","DateUTC\r":"2/15/16 12:00\r"},{"TimeMSK":"3:30 PM","TemperatureF":"23","Dew PointF":"19.4","Humidity":"86","Sea Level PressureIn":"30.33","VisibilityMPH":"-9999","Wind Direction":"SE","Wind SpeedMPH":"15.7","Gust SpeedMPH":"-","PrecipitationIn":"N/A","Events":"","Conditions":"Clear","FullMetar":"METAR UWKD 151230Z 14007MPS CAVOK M05/M07 Q1027 R11/810050 NOSIG RMK QFE760/1013","WindDirDegrees":"140","DateUTC\r":"2/15/16 12:30\r"},{"TimeMSK":"4:00 PM","TemperatureF":"23","Dew PointF":"19.4","Humidity":"86","Sea Level PressureIn":"30.33","VisibilityMPH":"-9999","Wind Direction":"SE","Wind SpeedMPH":"17.9","Gust SpeedMPH":"-","PrecipitationIn":"N/A","Events":"","Conditions":"Clear","FullMetar":"METAR UWKD 151300Z 14008MPS CAVOK M05/M07 Q1027 R11/810050 NOSIG RMK QFE760/1013","WindDirDegrees":"140","DateUTC\r":"2/15/16 13:00\r"},{"TimeMSK":"4:30 PM","TemperatureF":"23","Dew PointF":"19.4","Humidity":"86","Sea Level PressureIn":"30.33","VisibilityMPH":"6.2","Wind Direction":"SSE","Wind SpeedMPH":"11.2","Gust SpeedMPH":"22.4","PrecipitationIn":"N/A","Events":"Snow","Conditions":"Low Drifting Snow","FullMetar":"METAR UWKD 151330Z 15005G10MPS 9999 DRSN BKN047 M05/M07 Q1027 R11/810050 NOSIG RMK QFE760/1013","WindDirDegrees":"150","DateUTC\r":"2/15/16 13:30\r"},{"TimeMSK":"5:00 PM","TemperatureF":"23","Dew PointF":"19.4","Humidity":"86","Sea Level PressureIn":"30.33","VisibilityMPH":"5.6","Wind Direction":"SE","Wind SpeedMPH":"11.2","Gust SpeedMPH":"22.4","PrecipitationIn":"N/A","Events":"Snow","Conditions":"Light Snow","FullMetar":"METAR UWKD 151400Z 14005G10MPS 9000 -SN DRSN NSC M05/M07 Q1027 R11/810050 NOSIG RMK QFE760/1014","WindDirDegrees":"140","DateUTC\r":"2/15/16 14:00\r"},{"TimeMSK":"5:30 PM","TemperatureF":"23","Dew PointF":"19.4","Humidity":"86","Sea Level PressureIn":"30.33","VisibilityMPH":"6.2","Wind Direction":"SE","Wind SpeedMPH":"11.2","Gust SpeedMPH":"22.4","PrecipitationIn":"N/A","Events":"Snow","Conditions":"Light Snow","FullMetar":"METAR UWKD 151430Z 14005G10MPS 9999 -SN DRSN OVC042 M05/M07 Q1027 R11/810050 NOSIG RMK QFE760/1013","WindDirDegrees":"140","DateUTC\r":"2/15/16 14:30\r"},{"TimeMSK":"6:00 PM","TemperatureF":"23","Dew PointF":"17","Humidity":"70","Sea Level PressureIn":"30.38","VisibilityMPH":"6","Wind Direction":"SE","Wind SpeedMPH":"6.7","Gust SpeedMPH":"","PrecipitationIn":"","Events":"Snow","Conditions":"Light Snow","FullMetar":"AAXX 15151 27595 11697 81403 11050 21082 30130 40285 57005 69922 77172 8802/ 333 11045 88540 91110","WindDirDegrees":"140","DateUTC\r":"2/15/16 15:00\r"},{"TimeMSK":"6:00 PM","TemperatureF":"23","Dew PointF":"19.4","Humidity":"86","Sea Level PressureIn":"30.33","VisibilityMPH":"6.2","Wind Direction":"SE","Wind SpeedMPH":"15.7","Gust SpeedMPH":"26.8","PrecipitationIn":"N/A","Events":"Snow","Conditions":"Light Snow","FullMetar":"METAR UWKD 151500Z 14007G12MPS 9999 -SN DRSN OVC036 M05/M07 Q1027 R11/810050 NOSIG RMK QFE760/1013","WindDirDegrees":"140","DateUTC\r":"2/15/16 15:00\r"},{"TimeMSK":"6:30 PM","TemperatureF":"23","Dew PointF":"19.4","Humidity":"86","Sea Level PressureIn":"30.33","VisibilityMPH":"-9999","Wind Direction":"SE","Wind SpeedMPH":"15.7","Gust SpeedMPH":"26.8","PrecipitationIn":"N/A","Events":"Snow","Conditions":"Light Snow","FullMetar":"METAR UWKD 151530Z 14007G12MPS 3900 -SN BLSN OVC034 M05/M07 Q1027 R11/810050 NOSIG RMK QFE760/1013","WindDirDegrees":"140","DateUTC\r":"2/15/16 15:30\r"},{"TimeMSK":"7:00 PM","TemperatureF":"23","Dew PointF":"19.4","Humidity":"86","Sea Level PressureIn":"30.33","VisibilityMPH":"6.2","Wind Direction":"SSE","Wind SpeedMPH":"13.4","Gust SpeedMPH":"24.6","PrecipitationIn":"N/A","Events":"Snow","Conditions":"Light Snow","FullMetar":"METAR UWKD 151600Z 15006G11MPS 9999 -SN DRSN OVC032 M05/M07 Q1027 R11/810050 NOSIG RMK QFE760/1013","WindDirDegrees":"150","DateUTC\r":"2/15/16 16:00\r"},{"TimeMSK":"7:30 PM","TemperatureF":"23","Dew PointF":"19.4","Humidity":"86","Sea Level PressureIn":"30.33","VisibilityMPH":"-9999","Wind Direction":"SSE","Wind SpeedMPH":"13.4","Gust SpeedMPH":"24.6","PrecipitationIn":"N/A","Events":"Snow","Conditions":"Light Snow","FullMetar":"METAR UWKD 151630Z 15006G11MPS 4400 -SN BLSN OVC032 M05/M07 Q1027 R11/810050 NOSIG RMK QFE760/1013","WindDirDegrees":"150","DateUTC\r":"2/15/16 16:30\r"},{"TimeMSK":"8:00 PM","TemperatureF":"23","Dew PointF":"19.4","Humidity":"86","Sea Level PressureIn":"30.33","VisibilityMPH":"3.1","Wind Direction":"SSE","Wind SpeedMPH":"11.2","Gust SpeedMPH":"22.4","PrecipitationIn":"N/A","Events":"Snow","Conditions":"Light Snow","FullMetar":"METAR UWKD 151700Z 15005G10MPS 5000 -SN BLSN OVC028 M05/M07 Q1027 R11/420545 NOSIG RMK QFE760/1013","WindDirDegrees":"150","DateUTC\r":"2/15/16 17:00\r"},{"TimeMSK":"8:30 PM","TemperatureF":"23","Dew PointF":"19.4","Humidity":"86","Sea Level PressureIn":"30.33","VisibilityMPH":"1.6","Wind Direction":"SSE","Wind SpeedMPH":"11.2","Gust SpeedMPH":"22.4","PrecipitationIn":"N/A","Events":"Snow","Conditions":"Light Snow","FullMetar":"METAR UWKD 151730Z 15005G10MPS 2600 -SN BLSN OVC025 M05/M07 Q1027 R11/420545 NOSIG RMK QFE760/1013","WindDirDegrees":"150","DateUTC\r":"2/15/16 17:30\r"},{"TimeMSK":"9:00 PM","TemperatureF":"22","Dew PointF":"19","Humidity":"81","Sea Level PressureIn":"30.37","VisibilityMPH":"1","Wind Direction":"SE","Wind SpeedMPH":"6.7","Gust SpeedMPH":"","PrecipitationIn":"","Events":"Snow","Conditions":"Snow","FullMetar":"AAXX 15181 27595 41395 81403 11054 21074 30129 40284 54001 77372 8872/ 333 88508","WindDirDegrees":"140","DateUTC\r":"2/15/16 18:00\r"},{"TimeMSK":"9:00 PM","TemperatureF":"23","Dew PointF":"21.2","Humidity":"93","Sea Level PressureIn":"30.33","VisibilityMPH":"3.1","Wind Direction":"SSE","Wind SpeedMPH":"11.2","Gust SpeedMPH":"22.4","PrecipitationIn":"N/A","Events":"Snow","Conditions":"Light Snow","FullMetar":"METAR UWKD 151800Z 15005G10MPS 5000 -SN BLSN OVC027 M05/M06 Q1027 R11/420545 NOSIG RMK QFE760/1013","WindDirDegrees":"150","DateUTC\r":"2/15/16 18:00\r"},{"TimeMSK":"9:30 PM","TemperatureF":"23","Dew PointF":"21.2","Humidity":"93","Sea Level PressureIn":"30.33","VisibilityMPH":"5.6","Wind Direction":"SSE","Wind SpeedMPH":"11.2","Gust SpeedMPH":"22.4","PrecipitationIn":"N/A","Events":"Snow","Conditions":"Light Snow","FullMetar":"METAR UWKD 151830Z 15005G10MPS 9000 -SN OVC021 M05/M06 Q1027 R11/420545 NOSIG RMK QFE760/1013","WindDirDegrees":"150","DateUTC\r":"2/15/16 18:30\r"},{"TimeMSK":"10:00 PM","TemperatureF":"23","Dew PointF":"21.2","Humidity":"93","Sea Level PressureIn":"30.33","VisibilityMPH":"6.2","Wind Direction":"SSE","Wind SpeedMPH":"17.9","Gust SpeedMPH":"-","PrecipitationIn":"N/A","Events":"Snow","Conditions":"Light Snow","FullMetar":"METAR UWKD 151900Z 16008MPS 9999 -SN OVC020 M05/M06 Q1027 R11/810050 NOSIG RMK QFE760/1013","WindDirDegrees":"160","DateUTC\r":"2/15/16 19:00\r"},{"TimeMSK":"10:30 PM","TemperatureF":"23","Dew PointF":"21.2","Humidity":"93","Sea Level PressureIn":"30.33","VisibilityMPH":"5","Wind Direction":"SSE","Wind SpeedMPH":"20.1","Gust SpeedMPH":"-","PrecipitationIn":"N/A","Events":"Snow","Conditions":"Light Snow","FullMetar":"METAR UWKD 151930Z 16009MPS 8000 -SN OVC013 M05/M06 Q1027 R11/810050 NOSIG RMK QFE760/1013","WindDirDegrees":"160","DateUTC\r":"2/15/16 19:30\r"},{"TimeMSK":"11:00 PM","TemperatureF":"23","Dew PointF":"21.2","Humidity":"93","Sea Level PressureIn":"30.3","VisibilityMPH":"-9999","Wind Direction":"SSE","Wind SpeedMPH":"17.9","Gust SpeedMPH":"-","PrecipitationIn":"N/A","Events":"","Conditions":"Light Freezing Drizzle","FullMetar":"METAR UWKD 152000Z 16008MPS 4400 -FZDZ BR OVC012 M05/M06 Q1026 R11/3/0035 TEMPO 2000 SNRA OVC006 RMK QFE759/1013","WindDirDegrees":"160","DateUTC\r":"2/15/16 20:00\r"},{"TimeMSK":"11:30 PM","TemperatureF":"23","Dew PointF":"21.2","Humidity":"93","Sea Level PressureIn":"30.33","VisibilityMPH":"3.1","Wind Direction":"SSE","Wind SpeedMPH":"17.9","Gust SpeedMPH":"-","PrecipitationIn":"N/A","Events":"","Conditions":"Light Freezing Drizzle","FullMetar":"METAR UWKD 152030Z 16008MPS 5000 -FZDZ BR OVC014 M05/M06 Q1027 R11/3/0035 TEMPO 2000 SNRA OVC006 RMK QFE760/1013","WindDirDegrees":"160","DateUTC\r":"2/15/16 20:30"}]